Block,Level,Unit,Building_name,House_number,Street_name,Township,Postcode,Locality_name,State,,
,,,,655,,,57100,KUALA LUMPUR,WP KUALA LUMPUR,,
,,,,190,JALAN TERASEK,BANGSAR BARU,59100,KUALA LUMPUR,SELANGOR,,
,,,,46,JALAN 1/132,GASING INDAH,59200,KUALA LUMPUR,WP KUALA LUMPUR,,
,,,,,JALAN MEDAN 29,TAMAN MEDAN,46000,PETALING JAYA,SELANGOR,,
C,6,16,,,JALAN PJS 1/52,,58200,KUALA LUMPUR,WP KUALA LUMPUR,,
F,,302,,,JALAN PJS 3/55,TAMAN SRI MANJA,58200,PETALING JAYA,SELANGOR,,
,,,,11,JALAN PUTRA HARMONI 1/4D,PUTRA CREST,47650,SUBANG JAYA,SELANGOR,,
,,,,49,JALAN PINGGIRAN USJ 1/6,TAMAN SUBANG PERMAI,47600,SUBANG JAYA,SELANGOR,,
,,,,81,JALAN SS 18/1,SS 18 SUBANG JAYA,47500,SUBANG JAYA,SELANGOR,,
C,6,3A,SUBANG PARKHOMES CONDO,,JALAN KEMAJUAN SUBANG,SS 19,47500,SHAH ALAM,SELANGOR,,
,,,,22,,TAMAN WANGSA BAIDURI,47500,SUBANG JAYA,SELANGOR,,
,,,,4,JALAN USJ 4/1L,USJ 4,47600,SUBANG JAYA,SELANGOR,,
L,5,11,,18,,TAMAN SUBANG PERMAI,47620,SUBANG JAYA,SELANGOR,,
,,,,45,JALAN USJ 11/4D,USJ 11,47620,SUBANG JAYA,SELANGOR,,
,,,,7,,USJ 22,47630,SUBANG JAYA,SELANGOR,,
,,,,18,JALAN USJ 26/3,,47630,SUBANG JAYA,SELANGOR,,
,,,SUNWAY MONASH RESIDENCE,,PERSIARAN TASIK BARAT,SUNWAY SOUTH QUAY,47500,SUBANG JAYA,SELANGOR,,
F,2,4,PANGSAPURI ANGSANA,,,,47610,SUBANG JAYA,SELANGOR,,
,,,,,JALAN MERANTI MERAH 9/KU10,KAPAR,42200,KAPAR,SELANGOR,,
,,,,5,JALAN BUKIT BADAK,KAMPUNG MELAYU SUBANG,40150,SHAH ALAM,SELANGOR,,
J,8,,,14,JALAN PJS5/26,TAMAN DESA RIA,46000,PETALING JAYA,SELANGOR,,
,,,,,,SEKSYEN 4,46050,PETALING JAYA,SELANGOR,,
G,G,8,SUE D'FACIAL BUVANA,,JALAN PJS 8/9,TAMAN SERI MENTARI,46150,PETALING JAYA,SELANGOR,,
,,,,43,JALAN 19/5,SECTION 19,46300,PETALING JAYA,SELANGOR,,
2,25A,,BOULEVARD SUBANG CONDOMINIUM,,JALAN WANGSA BAIDURI,SS 12 SUBANG JAYA,47500,SUBANG JAYA,SELANGOR,,
4,10,10,PUNCAK SERI KELANA,,JALAN PJU 1A/46,PUSAT PERDAGANGAN DANA 1,47301,PETALING JAYA,SELANGOR,,
,,,,LOT 103-A,JALAN TUDM,KAMPUNG BARU SUBANG,40150,SUBANG JAYA,SELANGOR,,
2,,,,407,JALAN PJS 6/4E,PJS 6,46150,PETALING JAYA,SELANGOR,,
,,,,LOT 1502,JALAN KLANG LAMA,BANDAR SUNWAY,46000,KUALA LUMPUR,WP KUALA LUMPUR,,
,,,,241,JALAN 5/48,,46000,PETALING JAYA,SELANGOR,,
,,,,78,JALAN 5/58,BUKIT GASING,46000,PETALING JAYA,SELANGOR,,
,,,,18,JALAN PJS 2/1,,46000,PETALING JAYA,SELANGOR,,
,,,,35,JALAN 5/58A,BUKIT GASING,46000,PETALING JAYA,SELANGOR,,
A,7,2,GASING HEIGHT FRASER TOWERS,92,JALAN 5/60,BUKIT GASING,46000,PETALING JAYA,SELANGOR,,
,4,,,412,JALAN 5/58,BUKIT GASING,46000,PETALING JAYA,SELANGOR,,
B1,6,22,DESA MENTARI,,JALAN PJS 6/G,,46000,PETALING JAYA,SELANGOR,,
D,9,11,TAMAN MEDAN JAYA APARTMENT,2A,JALAN PJS 2/1,PETALING JAYA - SEKSYEN 2C - 2D,46000,PETALING JAYA,SELANGOR,,
F,,,TAMAN MEDAN JAYA APARTMENT,,JALAN PJS 2/1,PETALING JAYA - SEKSYEN 2C - 2D,46000,PETALING JAYA,SELANGOR,,
I,4,1,TAMAN MEDAN JAYA APARTMENT,2A,JALAN PJS 2/1,PETALING JAYA - SEKSYEN 2C - 2D,46000,PETALING JAYA,SELANGOR,,
C,15,19,TAMAN MEDAN JAYA APARTMENT,,JALAN PJS 2/1,PETALING JAYA - SEKSYEN 2C - 2D,46000,PETALING JAYA,SELANGOR,,
,,,,17,JALAN PJS 2C/16C,PETALING JAYA - SEKSYEN 2C - 2D,46000,PETALING JAYA,SELANGOR,,
,,,,,JALAN PJS 1/52,PJS 1,46000,PETALING JAYA,SELANGOR,,
B5,8,14,DESA MENTARI,,JALAN PJS 6/5B,PETALING JAYA - SEKSYEN 5 - 7,46000,PETALING JAYA,SELANGOR,,
L,8,1,TAMAN MEDAN JAYA APARTMENT,,JALAN PJS 2/1,PETALING JAYA - SEKSYEN 2C - 2D,46000,PETALING JAYA,SELANGOR,,
D,6,5,TAMAN MEDAN CAHAYA APARTMENT,,JALAN PJS 2C/2,PETALING JAYA - SEKSYEN 2C - 2D,46000,PETALING JAYA,SELANGOR,,
,,,TAMAN MEDAN,66,JALAN PJS 2C/2,PETALING JAYA - SEKSYEN 2C - 2D,46000,PETALING JAYA,SELANGOR,,
H,8,8,TAMAN MEDAN CAHAYA APARTMENT,2,JALAN PJS 2C/2,TAMAN MEDAN CAHAYA,46000,PETALING JAYA,SELANGOR,,
,,,,56,JALAN PJS 2D/7,TAMAN MEDAN,46000,PETALING JAYA,SELANGOR,,
D,1,6,SURIA APARTMENT,,JALAN PJS 3,DAMANSARA DAMAI,47830,PETALING JAYA,SELANGOR,,
A,2,17,,22,JALAN PJS 3,TAMAN MEDAN,46000,PETALING JAYA,SELANGOR,,
F,9,1,,,JALAN PJS 2C/2,TAMAN MEDAN CAHAYA,46000,PETALING JAYA,SELANGOR,,
J,2,15,,,JALAN PJS1/21,,58200,KUALA LUMPUR,WP KUALA LUMPUR,,
C,3A,43,,,JALAN PJS 3/46,TAMAN SRI MANHA,58200,PETALING JAYA,SELANGOR,,
D,7,6,SRI MANJA COURT,,JALAN SRI MANJA,TAMAN SERI MANJA,58200,PETALING JAYA,SELANGOR,,
,,,,29,JALAN 29,TAMAN MEDAN,46000,PETALING JAYA,SELANGOR,,
C,,,MBPJ QUARTERS,316,JALAN 4/46,SEKSYEN 4,46050,PETALING JAYA,SELANGOR,,
A,5,512,MBPJ QUARTERS,,JALAN 4/46,SEKSYEN 4,46050,PETALING JAYA,SELANGOR,,
,,,,39,JALAN 4/54,SEKSYEN 4,46050,PETALING JAYA,SELANGOR,,
A2,9,,KUARTERS PDRM,,,TAMAN DESA BAIDURI,43200,KUALA LUMPUR,SELANGOR,,
A,7,1,MILLENNIUM SQUARE CONDOMINIUM,98,JALAN 14/1,,46100,PETALING JAYA,SELANGOR,,
,,,,39,JALAN 14/5,SEKSYEN 14,46100,PETALING JAYA,SELANGOR,,
,,,,23,JALAN 51A/223B,SEKSYEN 51A,46100,PETALING JAYA,SELANGOR,,
C,7,1,PANGSAPURI IMPIAN BAIDURI,91,JALAN 51A/224,SEKSYEN 51A,46100,PETALING JAYA,SELANGOR,,
C,15,1,PANGSAPURI IMPIAN BAIDURI,91,JALAN 51A/224,SEKSYEN 51A,46100,PETALING JAYA,SELANGOR,,
B,1,4,DESA MENTARI,,,TAMAN DESA RIA,46150,PETALING JAYA,SELANGOR,,
,,,,15,JALAN PJS 10/10,,46150,PETALING JAYA,SELANGOR,,
,,,,27A,JALAN PJS 10/32,BANDAR SUNWAY,46150,PETALING JAYA,SELANGOR,,
B,3A,11,DAMAI APARTMENT,,JALAN PJS 8/9,BANDAR SUNWAY,46150,PETALING JAYA,SELANGOR,,
A,,306,RIDZUAN APARTMENT,60,LORONG PJS 10/24A,BANDAR SUNWAY,46150,PETALING JAYA,SELANGOR,,
,,,RIDZUAN APARTMENT,,JALAN PJS 10/11A,,46150,PETALING JAYA,SELANGOR,,
,,,,,LORONG PJS 2C/11B,KAMPUNG MEDAN,46150,PETALING JAYA,SELANGOR,,
,,,,11,JALAN 3,,46150,PETALING JAYA,SELANGOR,,
B7,11,10,PARK AVENUE,,,BANDAR UTAMAPARK AVENUE,47800,PETALING JAYA,SELANGOR,,
B1,G,9,1120 PARK AVENUE,,JALAN PJS 1/52,BANDAR UTAMA,47800,PETALING JAYA,SELANGOR,,
C2,1,8,SUBANG VILLE EHSAN APARTMENT,,JALAN PJS 10/11A,PJS 10,46150,PETALING JAYA,SELANGOR,,
C1,2,21,SUBANG VILLE EHSAN APARTMENT,,JALAN PJS 11/10,PJS 10,46150,PETALING JAYA,SELANGOR,,
A,3,406,,,JALAN PJS 10/24,,46150,PETALING JAYA,SELANGOR,,
,,,,,JALAN PJS 8/14,,46150,PETALING JAYA,SELANGOR,,
,,,,43,JALAN PJS 4/10,,46000,PETALING JAYA,SELANGOR,,
5,4,412,,,JALAN PJS 6/3B,,46150,PETALING JAYA,SELANGOR,,
,,,,2,JALAN PJS 7/16A,BANDAR SUNWAY,46150,PETALING JAYA,SELANGOR,,
A,7,10,DATARAN MENTARI,,JALAN PJS 8/9,PETALING JAYA - SEKSYEN SS 8 - SS 10,46150,PETALING JAYA,SELANGOR,,
,,,,21,,,46150,PETALING JAYA,SELANGOR,,
B3,5,11,DESA MENTARI FLAT,,JALAN PJS 5/12,TAMAN DESA RIA,46150,PETALING JAYA,SELANGOR,,
P,,,,,JALAN PJS 5/18,,46150,PETALING JAYA,SELANGOR,,
B1,6,5,DESA MENTARI,,JALAN PJS 6/5E,TAMAN DESA RIA,46150,PETALING JAYA,SELANGOR,,
G,7,2,TAMAN MEDAN CAHAYA APARTMENT,,JALAN PJS 2C/2,TAMAN MEDAN,46150,PETALING JAYA,SELANGOR,,
D,6,18,DATARAN MENTARI,,JALAN PJS 8/9,,46150,PETALING JAYA,SELANGOR,,
B,14,22,MENTARI COURT APARTMENT,,JALAN PJS 8/9,,46150,PETALING JAYA,SELANGOR,,
G,2,13,DATARAN MENTARI,,JALAN PJS 8/9,,46150,PETALING JAYA,SELANGOR,,
D,10,17,MENTARI COURT APARTMENT,,JALAN PJS 8/9,,46150,PETALING JAYA,SELANGOR,,
A,,,DATARAN MENTARI,,JALAN PJS 8/9,,46150,PETALING JAYA,SELANGOR,,
B,14,15,DATARAN MENTARI,,JALAN PJS 8/9,,46150,PETALING JAYA,SELANGOR,,
A,2,22,MENTARI COURT APARTMENT,,JALAN PJS 8/9,,46150,PETALING JAYA,SELANGOR,,
,,,EHSAN RIA CONDOMINIUM,,JALAN BUKIT 11/2,SEKSYEN 11,46200,PETALING JAYA,SELANGOR,,
,,,SRI AMAN APARTMENT,,JALAN 22/44,,46300,PETALING JAYA,SELANGOR,,
A,LG2,5,,11,JALAN 19/1,SEKSYEN 19,46300,PETALING JAYA,SELANGOR,,
,,,,25,JALAN 20/9,TAMAN PARAMOUNT,46300,PETALING JAYA,SELANGOR,,
J,5,5,,13,JALAN PJS 5/30,,46150,PETALING JAYA,SELANGOR,,
,,,,96,JALAN SS2/55,SS 2,43000,PETALING JAYA,SELANGOR,,
,,,,,JALAN SS 3/80,PETALING JAYA - SEKSYEN SS 1 - SS 3,47300,PETALING JAYA,SELANGOR,,
,,,RESTORAN TWELVE ROAD,,JALAN SS 9A/12,SUNGAI WAY,47300,PETALING JAYA,SELANGOR,,
,,,,57,JALAN BAIDURI SS1/22,KAMPUNG TUNKU,47300,PETALING JAYA,SELANGOR,,
,,,,5,JALAN SS 1/23B,KAMPUNG BARU SUNGAI WAY,47300,PETALING JAYA,SELANGOR,,
,,,,67,JALAN SS 1/38,KAMPUNG TUNKU,47300,PETALING JAYA,SELANGOR,,
,,,KEN DAMANSARA 3,,JALAN SS 2/72 KELANA JAYA,SEKSYEN 19,47300,PETALING JAYA,SELANGOR,,
,,,,12,JALAN SS 2/14,SS 2,47300,PETALING JAYA,SELANGOR,,
,,,CASA DAMANSARA 2,,JALAN SS 2/72 KELANA JAYA,SS 2,47300,PETALING JAYA,SELANGOR,,
B,14,1405,,,,SS 8,47650,SUBANG JAYA,SELANGOR,,
B1,4,12,KELANA IMPIAN APARTMENT,12,JALAN SS 8/7,SS 8,47300,PETALING JAYA,SELANGOR,,
B,12,1201,,,JALAN SS 8/7,SS 8,47300,PETALING JAYA,SELANGOR,,
,,,,45,JALAN SS 3/39,TAMAN UNIVERSITI,47300,PETALING JAYA,SELANGOR,,
,,,,11A,JALAN SS 3/40,TAMAN UNIVERSITI,47300,PETALING JAYA,SELANGOR,,
,,,,33,JALAN SS 3/51,TAMAN UNIVERSITI,47300,PETALING JAYA,SELANGOR,,
,,,,32,JALAN SS 3/72,PETALING JAYA - SEKSYEN SS 1 - SS 3,47300,PETALING JAYA,SELANGOR,,
B,13,1322,FLAT TAMAN PUTRA DAMAI,,JALAN PJU 1A/42,LEMBAH SUBANG,47301,PETALING JAYA,SELANGOR,,
E,8,8,PPR LEMBAH SUBANG,,JALAN PJU 1A/40,TAMAN PUTRA DAMAI,47301,PETALING JAYA,SELANGOR,,
5,,,PUNCAK NUSA KELANA CONDOMINIUM,,JALAN PJU 1A/48,PUSAT DAGANGAN DANA 1,47301,PETALING JAYA,SELANGOR,,
,,,,,JALAN SS 4C/5,SS 4,47301,PETALING JAYA,SELANGOR,,
,,,,16,LORONG PJU 1/46B,AMAN SURIA,47301,PETALING JAYA,SELANGOR,,
,,,,20,JALAN PJU 1A/26D,ARA DAMANSARA,47301,PETALING JAYA,SELANGOR,,
C4,3,13,ARA HILL RESORTS CONDOMINIUM,,JALAN PJU 1A/31,ARA DAMANSARA,47301,PETALING JAYA,SELANGOR,,
D,11,1,D' AMAN CRIMSON,41,JALAN PJU 1A/41,ARA DAMANSARA,47301,PETALING JAYA,SELANGOR,,
R,15,3,D'AMAN RIA,,JALAN PJU 1A/41,ARA DAMANSARA,47301,PETALING JAYA,SELANGOR,,
,,,,2A,JALAN PJU 1A/43E,ARA DAMANSARA,47301,PETALING JAYA,SELANGOR,,
D,,,SRI ARA APARTMENT,,JALAN PJU 1A/5,TAMAN PERINDUSTRIAN JAYA,47301,PETALING JAYA,SELANGOR,,
a,,1211,FLAT TAMAN PUTRA DAMAI,,JALAN PJU 1A/42,LEMBAH SUBANG,47301,PETALING JAYA,SELANGOR,,
E,10,1016,,,LEBUH SUBANG,,47600,SUBANG JAYA,SELANGOR,,
A,11,1119,FLAT TAMAN PUTRA DAMAI,,JALAN PJU 1A/42,LEMBAH SUBANG,47301,PETALING JAYA,SELANGOR,,
3,5,3,PUNCAK SERI KELANA,,JALAN PJU 1A/46,PUSAT PERDAGANGAN DANA 1,47301,PETALING JAYA,SELANGOR,,
R,12,1,D'AMAN RIA,3,JALAN PJU 1A/41,ARA DAMANSARA,47301,PETALING JAYA,SELANGOR,,
,,,PUNCAK NUSA KELANA CONDOMINIUM,,JALAN PJU 1A/48,SUBANG,47301,PETALING JAYA,SELANGOR,,
3,8,2,PUNCAK SERI KELANA,,JALAN PJU 1A/46,PUSAT PERDAGANGAN DANA 1,47301,PETALING JAYA,SELANGOR,,
5,,,PUNCAK SERI KELANA,,JALAN PJU 1A/46,PUSAT PERDAGANGAN DANA 1,47301,PETALING JAYA,SELANGOR,,
2,2,5,PUNCAK SERI KELANA,,JALAN PJU 1A/46,PUSAT PERDAGANGAN DANA 1,47301,PETALING JAYA,SELANGOR,,
3,3A,1,PUNCAK SERI KELANA,,JALAN PJU 1A/46,PUSAT PERDAGANGAN DANA 1,47301,PETALING JAYA,SELANGOR,,
4,9,8,PUNCAK SERI KELANA,,JALAN PJU 1A/46,PUSAT PERDAGANGAN DANA 1,47301,PETALING JAYA,SELANGOR,,
2,3A,3,PUNCAK SERI KELANA,3,JALAN PJU 1A/46,PUSAT PERDAGANGAN DANA 1,47301,PETALING JAYA,SELANGOR,,
6,6,3A,PUNCAK NUSA KELANA CONDOMINIUM,3A,JALAN PJU 1A/48,PUSAT PERDAGANGAN DANA 1,47301,PETALING JAYA,SELANGOR,,
1,2,1,PUNCAK SERI KELANA,,JALAN PJU 1A/46,PUSAT PERDAGANGAN DANA 1,47301,PETALING JAYA,SELANGOR,,
1,2,11,PUNCAK SERI KELANA,,JALAN PJU 1A/46,PUSAT PERDAGANGAN DANA 1,47301,PETALING JAYA,SELANGOR,,
2,6,8,PUNCAK SERI KELANA,,JALAN PJU 1A/46,PUSAT PERDAGANGAN DANA 1,47301,PETALING JAYA,SELANGOR,,
4,15,6,PUNCAK SERI KELANA,,JALAN PJU 1A/46,PUSAT PERDAGANGAN DANA 1,47301,PETALING JAYA,SELANGOR,,
,,,PUNCAK SERI KELANA,,JALAN PJU 1A/46,PUSAT PERDAGANGAN DANA 1,47301,PETALING JAYA,SELANGOR,,
3,13,3,PUNCAK SERI KELANA,,JALAN PJU 1A/46,PUSAT PERDAGANGAN DANA 1,47301,PETALING JAYA,SELANGOR,,
1,3,12,PUNCAK SERI KELANA CONDOMINIUM,,JALAN PJU 1A/46,PUSAT PERDAGANGAN DANA 1,47301,PETALING JAYA,SELANGOR,,
3,1,2,PUNCAK SERI KELANA,,JALAN PJU 1A/46,PUSAT PERDAGANGAN DANA 1,47301,PETALING JAYA,SELANGOR,,
5,9,6,PUNCAK NUSA KELANA CONDOMINIUM,,JALAN PJU 1A/48,PUSAT DAGANGAN DANA 1,47301,PETALING JAYA,SELANGOR,,
,,,PUNCAK NUSA KELANA CONDOMINIUM,,JALAN PJU 1A/48,PUSAT PERDAGANGAN DANA 1,47301,PETALING JAYA,SELANGOR,,
,,,PUNCAK NUSA KELANA CONDOMINIUM,,JALAN PJU 1A/48,PUSAT DAGANGAN DANA 1,47301,PETALING JAYA,SELANGOR,,
2,9,3,KONDOMINIUM PUNCAK NUSA KELANA,,JALAN PJU 1A/48,,47200,SUBANG JAYA,SELANGOR,,
3,3,1,PUNCAK NUSA KELANA CONDOMINIUM,,JALAN PJU 1A/48,PETALING JAYA - SEKSYEN SS 4 - SS 7,47301,PETALING JAYA,SELANGOR,,
6,3A,6,PUNCAK NUSA KELANA CONDOMINIUM,6,JALAN PJU 1A/48,PUSAT PERDAGANGAN DANA 1,47301,PETALING JAYA,SELANGOR,,
3,6,3,PUNCAK NUSA KELANA CONDOMINIUM,,JALAN PJU 1A/48,PUSAT PERDAGANGAN DANA 1,47301,PETALING JAYA,SELANGOR,,
5,15,8,PUNCAK NUSA KELANA CONDOMINIUM,8,JALAN PJU 1A/48,,47301,PETALING JAYA,SELANGOR,,
,,,,45,JALAN SS 5A/8,SS 5,47301,PETALING JAYA,SELANGOR,,
E,4,11,KEDIAMAN KASTAM DIRAJA WILAYAH PERSEKUTUAN,11,JALAN SS 5/1,SS 6,47301,PETALING JAYA,SELANGOR,,
,,,KELANA PARKVIEW,,JALAN SS 6/2,SS 6,47301,PETALING JAYA,SELANGOR,,
,,,KELANA SENTRAL APARTMENT,,JALAN SS 6/8,SS 6,47301,PETALING JAYA,SELANGOR,,
B,3,3,KELANA MAHKOTA,,JALAN SS 7/19,SS 7,47301,PETALING JAYA,SELANGOR,,
A,22,3,KELANA MAHKOTA,,JALAN SS 7/19,SS 7,47301,PETALING JAYA,SELANGOR,,
C,12,1210,KELANA MAHKOTA,2,JALAN SS 7/19,SS 7,47301,PETALING JAYA,SELANGOR,,
B,19,12,KELANA MAHKOTA,2,JALAN SS 7/19,SS 7,47301,PETALING JAYA,SELANGOR,,
B,3,10,STERLING PJ LUXURY CONDO,,JALAN SS 7/19,SS 7,47301,PETALING JAYA,SELANGOR,,
B,6,11,STERLING CONDOMINIUM,11,JALAN SS 7/19,SS 7,47301,PETALING JAYA,SELANGOR,,
A,2,7,STERLING PJ LUXURY CONDO,,JALAN SS 7/19,SS 7,47301,PETALING JAYA,SELANGOR,,
,,,,35,JALAN SS 24/15,TAMAN MEGAH (KAMPUNG TUNKU),47301,PETALING JAYA,SELANGOR,,
,,,BESTNESS MOTORSPORT,2,JALAN PJU 1A/12,TAMAN PERINDUSTRIAN JAYA,47301,PETALING JAYA,SELANGOR,,
Q5,,,PANGSAPURI SRI MERANTI,,,BANDAR SRI DAMANSARA,47600,SUBANG JAYA,SELANGOR,,
C,1,10,SERI JATI FLAT,,JALAN PJU 1A/5,TAMAN PERINDUSTRIAN JAYA,47301,PETALING JAYA,SELANGOR,,
F,11,1,PPR LEMBAH SUBANG,,JALAN PJU 1A/40,TAMAN PUTRA DAMAI,47301,PETALING JAYA,SELANGOR,,
,,,,,JALAN PJU 1A/42,TAMAN PUTRA DAMAI,47301,PETALING JAYA,SELANGOR,,
C,1,127,,,,TAMAN PUTRA DAMAI,47301,PETALING JAYA,SELANGOR,,
D,,117,FLAT TAMAN PUTRA DAMAI,117,JALAN PJU 1A/40,TAMAN PUTRA DAMAI,47301,PETALING JAYA,SELANGOR,,
,,,,11,JALAN SS 24/1,TAMAN MEGAH,47301,PETALING JAYA,SELANGOR,,
B,10,5,BAYU PUTERI APARTMENT,5,JALAN TROPICANA SELATAN,TROPICANA,47800,PETALING JAYA,SELANGOR,,
,,,,18,JALAN SS 21/15,DAMANSARA UTAMA SS21,47400,PETALING JAYA,SELANGOR,,
,,,,34,JALAN SS 21/35,DAMANSARA UTAMA SS21,47400,PETALING JAYA,SELANGOR,,
,,,,28,JALAN SS 21/44,DAMANSARA UTAMA SS21,47400,PETALING JAYA,SELANGOR,,
,,,,1028,JALAN CEMPAKA,KAMPUNG SUNGAI KAYU ARA,47400,PETALING JAYA,SELANGOR,,
G,,,PANGSAPURI PELANGI ARA,,JALAN TERATAI,KAMPUNG SUNGAI KAYU ARA,47400,PETALING JAYA,SELANGOR,,
2,13A,7,PUNCAK NUSA KELANA CONDOMINIUM,,JALAN PJU 1A/48,PUSAT PERDAGANGAN DANA 1,47301,PETALING JAYA,SELANGOR,,
,,,PUNCAK DAMANSARA CONDOMINIUM,,JALAN TERATAI,KAMPUNG SUNGAI KAYU ARA,47400,PETALING JAYA,SELANGOR,,
,,,,,JALAN SS 22/43,PALM RESERVE,47400,PETALING JAYA,SELANGOR,,
,,,PELANGI UTAMA CONDOMINIUM,,JALAN MASJID,KAMPUNG SUNGAI KAYU ARA,47400,PETALING JAYA,SELANGOR,,
G,3A,18,PANGSAPURI PELANGI ARA,,JALAN TERATAI,KAMPUNG SUNGAI KAYU ARA,47400,PETALING JAYA,SELANGOR,,
,,,CEMPAKA UTAMA,,JALAN CEMPAKA PJU/6A,,47400,PETALING JAYA,SELANGOR,,
,,,,45,JALAN SS 22/29,DAMANSARA JAYA,47400,PETALING JAYA,SELANGOR,,
,,,LAMAN 38,,JALAN JENJARUM,TAMAN SEA,47400,PETALING JAYA,SELANGOR,,
,,,LAMAN 38,,JALAN JENJARUM,TAMAN SEA,47400,PETALING JAYA,SELANGOR,,
,,,,49,JALAN SS 23/29,PETALING JAYA - SEKSYEN SS 20 - SS 23,47400,PETALING JAYA,SELANGOR,,
,,,,17,JALAN PJU 1A/50B,DAMANSARA IDAMAN,47410,PETALING JAYA,SELANGOR,,
B,,,CASA TROPICANA,,PERSIARAN TROPICANA,TROPICANA,47410,PETALING JAYA,SELANGOR,,
,,,SUNWAY SUTERA CONDO,,JALAN TROPICANA UTARA,SUNWAY DAMANSARA,47410,PETALING JAYA,SELANGOR,,
,,,,49,JALAN TR 2/3,TROPICANA GOLF & COUNTRY RESORT,47410,PETALING JAYA,SELANGOR,,
,,,,86,JALAN TROPICANA UTAMA,TROPICANA,47410,PETALING JAYA,SELANGOR,,
,,,RIANA GREEN CONDO (BLOK E HINGGA M),1,JALAN TROPICANA UTARA,TROPICANA,47410,PETALING JAYA,SELANGOR,,
J,,,RIANA GREEN CONDO (BLOK E HINGGA M),,JALAN TROPICANA UTARA,TROPICANA,47410,PETALING JAYA,SELANGOR,,
G,,,RIANA GREEN CONDO (BLOK E HINGGA M),,JALAN TROPICANA UTARA,TROPICANA,47410,PETALING JAYA,SELANGOR,,
J,,,RIANA GREEN CONDO (BLOK E HINGGA M),,JALAN TROPICANA UTARA,TROPICANA,47410,PETALING JAYA,SELANGOR,,
B,,,TROPICANA GRANDE CONDOMINIUMS,3,PERSIARAN TROPICANA,TROPICANA,47410,PETALING JAYA,SELANGOR,,
,,,,7,JALAN PJU 3/12A,TROPICANA INDAH,47410,PETALING JAYA,SELANGOR,,
,,,SUNWAY PYRAMID,3,JALAN PJS 11/15,BANDAR SUNWAY,47500,SUBANG JAYA,SELANGOR,,
,,,SUNWAY PYRAMID HOTEL,,PERSIARAN LAGOON,BANDAR SUNWAY,47500,SUBANG JAYA,SELANGOR,,
D,,305,SUNWAY COURT APARTMENT,,JALAN PJS 7/13,"PJS 7,9,11 (BANDAR SUNWAY)",47500,SUBANG JAYA,SELANGOR,,
,,,,302,JALAN PJS 7/15,PJS 7,47100,PUCHONG,SELANGOR,,
,,,,27,JALAN PJS 7/9B,BANDAR SUNWAY,47100,PUCHONG,SELANGOR,,
B5,7,10,SUNWAY LAGOON PERDANA APARTMENT,,JALAN PJS 9/1,BANDAR SUNWAY,46150,PETALING JAYA,SELANGOR,,
5,4,9,SUNWAY LAGOON PERDANA APARTMENT,,JALAN PJS 9/1,BANDAR SUNWAY,46150,PETALING JAYA,SELANGOR,,
B5,9,18,LAGOON PERDANA APARTMENT,18,JALAN PJS 9/1,BANDAR SUNWAY,46150,PETALING JAYA,SELANGOR,,
1,9,5,SUNWAY LAGOON PERDANA APARTMENT,,JALAN PJS 9/1,BANDAR SUNWAY,46150,PETALING JAYA,SELANGOR,,
,,,,35,JALAN PJS 9/4,BANDAR SUNWAY,47500,SUBANG JAYA,SELANGOR,,
,,,,16,LORONG PJS 7/15G,BANDAR SUNWAY,47500,SUBANG JAYA,SELANGOR,,
,,,SUNWAY RESORT HOTEL & SPA,LOT 8,PERSIARAN LAGOON,BANDAR SUNWAY,47500,SUBANG JAYA,SELANGOR,,
T2,L1,D,BOULEVARD SUBANG CONDOMINIUM,,JALAN SS 12/1 WANGSA BAIDURI,SS 12 SUBANG JAYA,47500,SUBANG JAYA,SELANGOR,,
,,,,50,PERSIARAN WANGSA BAIDURI 1,TAMAN WANGSA BAIDURI,47500,SUBANG JAYA,SELANGOR,,
E1,20,2,1 BUKIT UTAMA CONDOMINIUM,,CHANGKAT BUKIT UTAMA,BANDAR UTAMA,47800,PETALING JAYA,SELANGOR,,
E1,9,3,1 BUKIT UTAMA CONDOMINIUM,3,CHANGKAT BUKIT UTAMA,BANDAR UTAMA,47800,PETALING JAYA,SELANGOR,,
,,,,41,JALAN BU 10/9,BANDAR UTAMA,47800,PETALING JAYA,SELANGOR,,
,,,,25,JALAN BU 11/11,BANDAR UTAMA,47800,PETALING JAYA,SELANGOR,,
,,,,8,JALAN BU 12/6,BANDAR UTAMA,47800,PETALING JAYA,SELANGOR,,
,,,,6,JALAN BU 3/1,BANDAR UTAMA,47800,PETALING JAYA,SELANGOR,,
,,,,9,JALAN BU 3/3,BANDAR UTAMA,47800,PETALING JAYA,SELANGOR,,
,,,,56,JALAN BU 6/13,BANDAR UTAMA,47800,PETALING JAYA,SELANGOR,,
,,,,48,JALAN BU 6/3,BANDAR UTAMA,47800,PETALING JAYA,SELANGOR,,
F,3,6,PELANGI UTAMA APARTMENT,6,JALAN MASJID,BANDAR UTAMA,47800,PETALING JAYA,SELANGOR,,
,,,PELANGI UTAMA RESIDENCES,,JALAN MASJID,KAMPUNG SUNGAI KAYU ARA,47400,PETALING JAYA,SELANGOR,,
,,,9 BUKIT UTAMA,,PERSIARAN BUKIT UTAMA,BANDAR UTAMA,47800,PETALING JAYA,SELANGOR,,
B,2,4,MUTIARA DAMANSARA POLICE STATION,4,JALAN PJU 7/15,MUTIARA DAMANSARA,47800,PETALING JAYA,SELANGOR,,
,,,DESA MUTIARA APARTMENT,,LORONG PJU 7/15B,MUTIARA DAMANSARA,47820,PETALING JAYA,SELANGOR,,
,,,,6,JALAN PJU 7/8C,MUTIARA DAMANSARA,47800,PETALING JAYA,SELANGOR,,
F,11,1,GUGUSAN MELATI,1,JALAN CAMAR 4/5,KOTA DAMANSARA,47810,PETALING JAYA,SELANGOR,,
J,10,12,PELANGI DAMANSARA APARTMENT,12,PERSIARAN SURIAN,PELANGI DAMANSARA,47800,PETALING JAYA,SELANGOR,,
H,8,2,PELANGI DAMANSARA CONDOMINIUM,,PERSIARAN SURIAN,PELANGI DAMANSARA,47800,PETALING JAYA,SELANGOR,,
A,5,21,BAYU PUTERI APARTMENT,21,JALAN TROPICANA SELATAN,TROPICANA,47800,PETALING JAYA,SELANGOR,,
C,15,21,BAYU PUTERI APARTMENT,21,JALAN TROPICANA SELATAN,TROPICANA,47800,PETALING JAYA,SELANGOR,,
B,10,2,BAYU PUTERI APARTMENT,2,JALAN TROPICANA SELATAN,TROPICANA,47800,PETALING JAYA,SELANGOR,,
C,16,2,BAYU PUTERI APARTMENT,2,JALAN TROPICANA SELATAN,TROPICANA,47800,PETALING JAYA,SELANGOR,,
,,,,9,JALAN RIMBA RIANG 9/16,KOTA DAMANSARA,47810,PETALING JAYA,SELANGOR,,
,,,,,JALAN CAMAR 4/26,KOTA DAMANSARA,47810,PETALING JAYA,SELANGOR,,
,,,,20,JALAN CAMAR 4/22A,KOTA DAMANSARA,47810,PETALING JAYA,SELANGOR,,
12,4,4,GUGUSAN SEMARAK,4,JALAN CAMAR 4/6,KOTA DAMANSARA,47810,PETALING JAYA,SELANGOR,,
,,,,1,JALAN CAMAR 4/7,KOTA DAMANSARA,47810,PETALING JAYA,SELANGOR,,
,,,GUGUSAN TANJUNG,,JALAN CECAWI 6/19,KOTA DAMANSARA,47810,PETALING JAYA,SELANGOR,,
,,25C,,25C,JALAN CECAWI 6/19A,KOTA DAMANSARA,47810,PETALING JAYA,SELANGOR,,
,,,,28,JALAN CECAWI 6/23,KOTA DAMANSARA,47810,PETALING JAYA,SELANGOR,,
,,,,10,JALAN CECAWI 6/23,KOTA DAMANSARA,47810,PETALING JAYA,SELANGOR,,
,,,,31,JALAN CECAWI 6/24,KOTA DAMANSARA,47810,PETALING JAYA,SELANGOR,,
,,,,2,JALAN CECAWI 6/6A,KOTA DAMANSARA,47810,PETALING JAYA,SELANGOR,,
I,1,7,D'RIMBA APARTMENT,7,JALAN KENYALANG 11/14,KOTA DAMANSARA,47810,PETALING JAYA,SELANGOR,,
,,,,10,JALAN KENYALANG 11/15,KOTA DAMANSARA,47810,PETALING JAYA,SELANGOR,,
,,,,2,JALAN KENYALANG 11/15G,KOTA DAMANSARA,47810,PETALING JAYA,SELANGOR,,
C,,,SALVIA APARTMENT,3,JALAN KENYALANG 11/3,KOTA DAMANSARA,47810,PETALING JAYA,SELANGOR,,
,,,,6,JALAN KENYALANG 11/4A,KOTA DAMANSARA,47810,PETALING JAYA,SELANGOR,,
,,,,6,JALAN KENYALANG 11/8B,KOTA DAMANSARA,47810,PETALING JAYA,SELANGOR,,
D,,603,DE ROZELLE,,JALAN MERBAH 10/1,KOTA DAMANSARA,47810,PETALING JAYA,SELANGOR,,
B,5,5,PPR KOTA DAMANSARA,5,JALAN PEKAKA 8/1,KOTA DAMANSARA,47810,PETALING JAYA,SELANGOR,,
,,,,12A,JALAN RIMBA RIANG 9/15,KOTA DAMANSARA,47810,PETALING JAYA,SELANGOR,,
,,,,69,JALAN SEPAH PUTERI 5/19,KOTA DAMANSARA,47810,PETALING JAYA,SELANGOR,,
,,,,135,JALAN SEPAH PUTERI 5/3,KOTA DAMANSARA,47810,PETALING JAYA,SELANGOR,,
,,,,78,JALAN SEPAH PUTERI 5/6,KOTA DAMANSARA,47810,PETALING JAYA,SELANGOR,,
,,,,10,JALAN SEPAH PUTERI 5/8,KOTA DAMANSARA,47810,PETALING JAYA,SELANGOR,,
,,,GUGUSAN DEDAP,,JALAN KENYALANG 11/1,KOTA DAMANSARA,47810,PETALING JAYA,SELANGOR,,
,,,TAINIA APARTMENT,,JALAN KENYALANG 11/3,SEKSYEN 11 KOTA DAMANSARA PJU 5,47810,PETALING JAYA,SELANGOR,,
C1,2,1,TAINIA APARTMENT,,JALAN KENYALANG 11/3,SEKSYEN 11 KOTA DAMANSARA PJU 5,47810,PETALING JAYA,SELANGOR,,
G,2,6,D'SHIRE VILLA APARTMENT,,JALAN CAMAR,KOTA DAMANSARA,47810,PETALING JAYA,SELANGOR,,
B,1,11,GUGUSAN KEMUNING,,JALAN PEKAKA 8/1,SEKSYEN 8 KOTA DAMANSARA,47810,PETALING JAYA,SELANGOR,,
,,,PALM SPRING DAMANSARA CONDOMINIUM,1,JALAN PJU 3/29,SUNWAY DAMANSARA,47810,PETALING JAYA,SELANGOR,,
,,,LAMAN IMPIAN GARDEN VILLA,12-Jan,JALAN PJU 3/24,SUNWAY DAMANSARA,47810,PETALING JAYA,SELANGOR,,
,,,,9,JALAN PJU 3/26,TROPICANA,47810,PETALING JAYA,SELANGOR,,
D,,,PALM SPRING CONDOMINIUMS,,JALAN PJU 3/29,SUNWAY DAMANSARA,47810,PETALING JAYA,SELANGOR,,
B,12,12,PALM SPRING DAMANSARA CONDOMINIUM,1,JALAN PJU 3/29,SUNWAY DAMANSARA,47810,PETALING JAYA,SELANGOR,,
A,,,PALM SPRING CONDOMINIUMS,,JALAN PJU 3/29,SUNWAY DAMANSARA,47810,PETALING JAYA,SELANGOR,,
H,20,7,FLORA DAMANSARA,7,JALAN PJU 8/9,DAMANSARA PERDANA,47810,PETALING JAYA,SELANGOR,,
D,13A,3A,PERDANA EXCLUSIVE CONDO,3A,JALAN PJU 8/1,DAMANSARA PERDANA,47820,PETALING JAYA,SELANGOR,,
F,19,22,FLORA DAMANSARA,22,JALAN PJU 8/9,DAMANSARA PERDANA,47820,PETALING JAYA,SELANGOR,,
D,12,2,METROPOLITAN SQUARE,2,JALAN PJU 8/1,DAMANSARA PERDANA,47820,PETALING JAYA,SELANGOR,,
D,,203A,PERDANA EXCLUSIVE CONDO,,JALAN PJU 8/1,DAMANSARA PERDANA,47820,PETALING JAYA,SELANGOR,,
B,9,7,RITZE PERDANA 2,7,JALAN PJU 8/1,DAMANSARA PERDANA,47820,PETALING JAYA,SELANGOR,,
F,,16-21,METROPOLITAN SQUARE,,JALAN PJU 8/8,DAMANSARA PERDANA,47820,PETALING JAYA,SELANGOR,,
F,15,5,METROPOLITAN SQUARE,5,JALAN PJU 8/8,DAMANSARA PERDANA,47820,PETALING JAYA,SELANGOR,,
F,12,13,METROPOLITAN SQUARE,13,JALAN PJU 8/8,DAMANSARA PERDANA,47820,PETALING JAYA,SELANGOR,,
E,,23-28,FLORA DAMANSARA,,"JALAN PJU 8/9,",DAMANSARA PERDANA,47820,PETALING JAYA,SELANGOR,,
H,9,2,FLORA DAMANSARA,2,JALAN PJU 8/9,DAMANSARA PERDANA,47820,PETALING JAYA,SELANGOR,,
A,1,28,RITZE PERDANA 2,28,JALAN PJU 8/1,DAMANSARA PERDANA,47820,PETALING JAYA,SELANGOR,,
,,,,9,LORONG PJU 7/21B,MUTIARA DAMANSARA,47820,PETALING JAYA,SELANGOR,,
H,1,15,DESA MUTIARA APARTMENT,15,JALAN PJU 7/15B,MUTIARA DAMANSARA,47820,PETALING JAYA,SELANGOR,,
S,2,24,IDAMAN APARTMENT,24,JALAN PJU 10/1,DAMANSARA DAMAI,47830,PETALING JAYA,SELANGOR,,
H,G,5,APARTMENT IDAMAN,,JALAN PJU 10/1,DAMANSARA DAMAI,47830,PETALING JAYA,SELANGOR,,
C,,,APARTMENT PERMAI,,JALAN PJU 10/1,DAMANSARA DAMAI,47830,PETALING JAYA,SELANGOR,,
,,,APARTMENT IDAMAN,,JALAN PJU 10/1,DAMANSARA DAMAI,47830,PETALING JAYA,SELANGOR,,
J,3,12A,APARTMENT IDAMAN,12A,JALAN PJU 10/1,DAMANSARA DAMAI,47830,PETALING JAYA,SELANGOR,,
H,,03 09,APARTMENT IDAMAN,,,DAMANSARA DAMAI,47830,PETALING JAYA,SELANGOR,,
H,G,15,APARTMENT IDAMAN,15,JALAN PJU 10/1,DAMANSARA DAMAI,47830,PETALING JAYA,SELANGOR,,
,,,,50,JALAN PJU 10/14C,DAMANSARA DAMAI,47830,PETALING JAYA,SELANGOR,,
,,,,15,JALAN PJU 10/14H,DAMANSARA DAMAI,47830,PETALING JAYA,SELANGOR,,
,,,,120,JALAN PJU 10/14H,DAMANSARA DAMAI,47830,PETALING JAYA,SELANGOR,,
,,,,11,JALAN PJU 10/14J,DAMANSARA DAMAI,47830,PETALING JAYA,SELANGOR,,
B,,1,SEA PARK POLICE STATION,,JALAN SS 2/60,DAMANSARA JAYA,47300,PETALING JAYA,SELANGOR,,
H,3,18,SAUJANA APARTMENT,18,JALAN PJU 10/1C,DAMANSARA DAMAI,47830,PETALING JAYA,SELANGOR,,
Q,3,208,SAUJANA APARTMENT,208,JALAN PJU 10/1C,DAMANSARA DAMAI,47830,PETALING JAYA,SELANGOR,,
A,4,17,BAYU APARTMENT,17,JALAN PJU 10/4,DAMANSARA DAMAI,47830,PETALING JAYA,SELANGOR,,
C,1,26,APARTMENT HARMONI,26,JALAN PJU 10/4C,DAMANSARA DAMAI,47830,PETALING JAYA,SELANGOR,,
J,,302,APARTMENT HARMONI,,JALAN PJU 10/4C,DAMANSARA DAMAI,47830,PETALING JAYA,SELANGOR,,
,,,,,JALAN PJU 10/9,DAMANSARA DAMAI,47830,PETALING JAYA,SELANGOR,,
,,,APARTMENT LESTARI,,,DAMANSARA DAMAI,47830,PETALING JAYA,SELANGOR,,
,,,,,JALAN PJU 10/9C,PRIMA DAMANSARA,47830,PETALING JAYA,SELANGOR,,
A,,,RAMPAI IDAMAN APARTMENT,,JALAN PJU 10/9,PRIMA DAMANSARA,47830,PETALING JAYA,SELANGOR,,
,,,,10,JALAN PJU 10/11B,SAUJANA DAMANSARA PJU 10,47830,PETALING JAYA,SELANGOR,,
,,,SUNWAY PINNACLE,,PERSIARAN LAGOON PERDANA,BANDAR SUNWAY,47500,SUBANG JAYA,SELANGOR,,
,,,,24,JALAN PRIMA 3/6,TAMAN PUCHONG PRIMA,47100,PUCHONG,SELANGOR,,
,,,SRI TANJUNG FLAT,,,USJ 16,47630,SUBANG JAYA,SELANGOR,,
,,,,,,TAMAN EQUINE(SOUTHERN BOUND),47500,SUBANG JAYA,SELANGOR,,
,,,,,,,40000,SHAH ALAM,SELANGOR,,
,,,,15A,JALAN LAPANGAN TERBANG SULTAN ABDUL AZ,LAPANGAN TERBANG SULTAN ABDUL AZIZ,47200,SUBANG JAYA,SELANGOR,,
,,,,,,,40000,SHAH ALAM,SELANGOR,,
,2,33,,33,JALAN MATAHARI Z U5/Z,TAMAN SUBANG DAMAI,40150,SHAH ALAM,SELANGOR,,
H,,,,,JALAN PINGGIRAN,BANDAR PINGGIRAN SUBANG,40150,SHAH ALAM,SELANGOR,,
,,,,8,JALAN QAMARI U5/112,BANDAR PINGGIRAN SUBANG,40150,SHAH ALAM,SELANGOR,,
,,,,8,JALAN QAMARI U5/112A,BANDAR PINGGIRAN SUBANG,40150,SHAH ALAM,SELANGOR,,
,,,,3,JALAN ZUHRAH U5/158,BANDAR PINGGIRAN SUBANG,40150,SHAH ALAM,SELANGOR,,
,,,,19,JALAN ZUHRAH U5/160,BANDAR PINGGIRAN SUBANG,40150,SHAH ALAM,SELANGOR,,
,,,,22,JALAN KUNING U9/24,SUBANG SEJAHTERA,40150,SHAH ALAM,SELANGOR,,
,,,,487,JALAN ENAM,KAMPUNG MELAYU SUBANG TAMBAHAN,40150,SHAH ALAM,SELANGOR,,
,,,,3418K,JALAN TEMBUSU (KAMPUNG MELAYU SUBANG),KAMPUNG MELAYU SUBANG,40150,SHAH ALAM,SELANGOR,,
,,,,3379,JALAN TEMBUSU (KAMPUNG MELAYU SUBANG),KAMPUNG MELAYU SUBANG,40150,SHAH ALAM,SELANGOR,,
,,,,3440,LORONG MELATI,KAMPUNG MELAYU SUBANG,40150,SHAH ALAM,SELANGOR,,
,,,,3477,,KAMPUNG MELAYU SUBANG,40150,SHAH ALAM,SELANGOR,,
,1,17,APARTMENT MUTIARA SUBANG,44,JALAN MUTIARA SUBANG 6,TAMAN MUTIARA SUBANG,47500,SUBANG JAYA,SELANGOR,,
,,,,B5,JALAN PERTIWI,TENTERA UDARA DIRAJA MALAYSIA SUBANG,40150,SHAH ALAM,SELANGOR,,
,,,,,JALAN TUDM,PEKAN SUBANG,40150,SHAH ALAM,SELANGOR,,
5A,10,2,BUNGA RAYA CONDO,,PERSIARAN GOLF,SEKSYEN U2,40150,SHAH ALAM,SELANGOR,,
6B,2,2,BUNGA RAYA CONDO,,PERSIARAN GOLF,SEKSYEN U2,40150,SHAH ALAM,SELANGOR,,
M1,G,16,MERAK APARTMENT,,JALAN URANUS U5/125,SEKSYEN U5,40150,SHAH ALAM,SELANGOR,,
,,,,199,JALAN 2/1,KAMPUNG MELAYU SUBANG TAMBAHAN,40150,SHAH ALAM,SELANGOR,,
,,,,4,JALAN NOVA U5/58,SUBANG BESTARI,40150,SHAH ALAM,SELANGOR,,
2,1,1,PANGSAPURI SERI DELIMA,,JALAN SIGMA U6/14,SUBANG PERMATA,40150,SHAH ALAM,SELANGOR,,
,,,,57,JALAN SIGMA U6/15,SUBANG PERMATA,40150,SHAH ALAM,SELANGOR,,
,,,PANGSAPURI SERI DELIMA,,JALAN SIGMA U6/14,SUBANG PERMATA,40150,SHAH ALAM,SELANGOR,,
,,,SUBANG HIJAUAN,,JALAN BINTANG U5/33,SUBANG SURIA,40150,SHAH ALAM,SELANGOR,,
B7,7,24,APARTMENT SUBANG SURIA,,JALAN BINTANG U5/33,SUBANG SURIA,40150,SHAH ALAM,SELANGOR,,
2,4,28,SURIA SUBANG APARTMENT,,JALAN BINTANG U5/33,SUBANG SURIA,40150,SHAH ALAM,SELANGOR,,
,,,APARTMENT SUBANG SURIA,,PERSIARAN TEKNOLOGI SUBANG,TAMAN TEKNOLOGI TINGGI SUBANG,40150,SHAH ALAM,SELANGOR,,
A,11,16,TAMAN BUKIT PELANGI SUBANG APARTMENT,,JALAN TBP 1,TAMAN BUKIT PELANGI,40150,SHAH ALAM,SELANGOR,,
,,,,,JALAN UTARID U5/13,MUTIARA SUBANG,40150,SHAH ALAM,SELANGOR,,
,,,,3,JALAN UTARID U5/9,TAMAN MUTIARA SUBANG SECTION U5,40150,SHAH ALAM,SELANGOR,,
,,,,14,JALAN KEJORA U5/120E,BANDAR PINGGIRAN SUBANG,40150,SHAH ALAM,SELANGOR,,
,,,,11,JALAN 12,TAMAN SUBANG BARU,40150,SHAH ALAM,SELANGOR,,
,,,,,JALAN MATAHARI U5/117,TAMAN SUBANG DAMAI,40150,SHAH ALAM,SELANGOR,,
,,,,6A,JALAN SP 2/10,TAMAN SUBANG PERDANA,40150,SHAH ALAM,SELANGOR,,
D,G,28,,,JALAN SP2/6,TAMAN SUBANG PERDANA SEK 2,40150,SHAH ALAM,SELANGOR,,
,,,,15,JALAN SP 4/3,TAMAN SUBANG PERDANA,40150,SHAH ALAM,SELANGOR,,
,,,,24,JALAN SUNGAI BULOH,TAMAN SUBANG PERDANA,40150,SHAH ALAM,SELANGOR,,
,6,7,SURIA SUBANG APARTMENT,,PERSIARAN TEKNOLOGI SUBANG,TAMAN TEKNOLOGI TINGGI SUBANG,40150,SHAH ALAM,SELANGOR,,
,3,13,SURIA SUBANG APARTMENT,,PERSIARAN TEKNOLOGI SUBANG,TAMAN TEKNOLOGI TINGGI SUBANG,40150,SHAH ALAM,SELANGOR,,
,,,,52,JALAN U2/3,TAMAN TTDI JAYA,46000,PETALING JAYA,SELANGOR,,
,,,,12,JALAN UTARID U5/5,TAMAN MUTIARA SUBANG SECTION U5,40150,SHAH ALAM,SELANGOR,,
,,,,27,JALAN UTARID U5/8,SUBANG 2,40150,SHAH ALAM,SELANGOR,,
7,2,31,PANGSAPURI LILI,,JALAN METAFASA U16/5,SEKSYEN U16,40160,SHAH ALAM,SELANGOR,,
5,2,3,PANGSAPURI TERATAI,,JALAN METAFASA U16/3,TAMAN BUKIT SUBANG,40160,SHAH ALAM,SELANGOR,,
9,2,10,PANGSAPURI TERATAI,,JALAN METAFASA U16/3,TAMAN BUKIT SUBANG,40160,SHAH ALAM,SELANGOR,,
1,,,APARTMENT MENTARI,,JALAN MATAHARI U5/117,TAMAN SUBANG DAMAI,40150,SHAH ALAM,SELANGOR,,
,,,,11,JALAN ELEKTRON U16/70,DENAI ALAM,40150,SHAH ALAM,SELANGOR,,
,,,,,,SUBANG,40160,SHAH ALAM,SELANGOR,,
B,3,26,PANGSAPURI SRI KAYAN,,JALAN PINGGIRAN USJ 2/1,TAMAN PINGGIRAN USJ,47600,SUBANG JAYA,SELANGOR,,
BIDARA,,,APARTMENT SERI KAYAN,,,TAMAN PINGGIRAN USJ,40400,SHAH ALAM,SELANGOR,,
B,6,14,PANGSAPURI SRI KAYAN,,JALAN PINGGIRAN USJ 2/1,TAMAN PINGGIRAN USJ,47600,SUBANG JAYA,SELANGOR,,
ARA,,,APARTMENT SERI KAYAN,,,TAMAN PINGGIRAN USJ,40400,SHAH ALAM,SELANGOR,,
B,5,14,PANGSAPURI SRI KAYAN,,JALAN PINGGIRAN USJ 2/1,TAMAN PINGGIRAN USJ,47600,SUBANG JAYA,SELANGOR,,
A,1,11,PANGSAPURI SRI KAYAN,,JALAN PINGGIRAN USJ 2/1,TAMAN PINGGIRAN USJ,47600,SUBANG JAYA,SELANGOR,,
ARA,,A-3-24,APARTMENT SERI KAYAN,,,TAMAN PINGGIRAN USJ,40400,SHAH ALAM,SELANGOR,,
A,1,24,PANGSAPURI SERI KAYAN,,JALAN PINGGIRAN USJ 2/1,TAMAN PINGGIRAN USJ,40400,SHAH ALAM,SELANGOR,,
B,3,1,PANGSAPURI SRI KAYAN,,JALAN PINGGIRAN USJ 2/1,TAMAN PINGGIRAN USJ,47600,SUBANG JAYA,SELANGOR,,
B,6,7,PANGSAPURI SRI KAYAN,,JALAN PINGGIRAN USJ 2/1,TAMAN PINGGIRAN USJ,47600,SUBANG JAYA,SELANGOR,,
B,8,2,APARTMENT SERI KAYAN,,,TAMAN PINGGIRAN USJ,40400,SHAH ALAM,SELANGOR,,
A,8,24,PANGSAPURI SERI KAYAN,,JALAN PINGGIRAN USJ 2/1,TAMAN PINGGIRAN USJ,40400,SHAH ALAM,SELANGOR,,
,,,PANGSAPURI SERI KAYAN,,JALAN PINGGIRAN USJ 2/1,TAMAN PINGGIRAN USJ,40400,SHAH ALAM,SELANGOR,,
,,,,15,JALAN KEMUNING DAMAI 32/150,DAMAI RESIDENCES KEMUNING UTAMA,40460,SHAH ALAM,SELANGOR,,
D,1,207,PANGSAPURI SUBANG IMPIAN,,JALAN ZUHAL U5/177,SEKSYEN U5,41050,KLANG,SELANGOR,,
,,,PANGSAPURI SUBANG IMPIAN,,JALAN ZUHAL U5/177,SEKSYEN U5,41050,KLANG,SELANGOR,,
,,,,,JALAN PERTIWI,PANGKALAN TUDM,40000,SHAH ALAM,SELANGOR,,
,,,,,JALAN SABAH,PANGKALAN TUDM SUBANG,40000,SHAH ALAM,SELANGOR,,
,,,RUMAH KELUARGA ANGKATAN TENTERA (RKAT),,,,40000,SHAH ALAM,SELANGOR,,
F4B,G,1,TUDM SUBANG AMQ,,,PENGKALAN UDARA SUBANG,40000,SHAH ALAM,SELANGOR,,
13,1,3,,,,PANGKALAN UDARA,40000,SHAH ALAM,SELANGOR,,
G,1,39,APARTMENT LOTUS,1,JALAN METAFASA U16/3,TAMAN BUKIT SUBANG,40150,SHAH ALAM,SELANGOR,,
,6,,PANGSAPURI SURIA SUBANG,LOT 10,PERSIARAN TEKNOLOGI SUBANG,TAMAN TEKNOLOGI,40400,SHAH ALAM,SELANGOR,,
,,,,1,JALAN PADANG TE,LAPANGAN TERBANG SUBANG,42000,PELABUHAN KLANG,SELANGOR,,
,,,,34181,,KAMPUNG MELAYU SUBANG,47000,SUNGAI BULOH,SELANGOR,,
,,,,10,JALAN SPEKTRIUM U16/17,TAMAN BUKIT SUBANG,40150,SHAH ALAM,SELANGOR,,
E,,5315,SULTAN ABDUL AZIZ SHAH AIRPORT,,,LAPANGAN TERBANG SULTAN ABDUL AZIZ,47200,SUBANG JAYA,SELANGOR,,
,,,,386,JALAN CIKU,SUNGAI WAY,47300,PETALING JAYA,SELANGOR,,
A,15,22,FLAT TAMAN PUTRA DAMAI,,JALAN PJU 1A/42,LEMBAH SUBANG,47301,PETALING JAYA,SELANGOR,,
,,,ASIA PACIFIC AUCTION CENTRE,,JALAN LAPANGAN TERBANG SUBANG,LAPANGAN TERBANG SULTAN ABDUL AZIZ,47200,SUBANG JAYA,SELANGOR,,
,,,,25,JALAN USJ 2/4E,USJ 2,47600,SUBANG JAYA,SELANGOR,,
E,1,9,ONE SOHO,,JALAN KEMAJUAN SUBANG,SUBANG JAYA,47500,SUBANG JAYA,SELANGOR,,
B,2,171,KERANJI APARTMENT,,JALAN SS 19/3A,SS 19 SUBANG JAYA,47500,SUBANG JAYA,SELANGOR,,
,,,,4,JALAN SS 19/3A,SS 19 SUBANG JAYA,40150,SHAH ALAM,SELANGOR,,
,,,,,JALAN SS 19/4B,SS 19 SUBANG JAYA,47500,SUBANG JAYA,SELANGOR,,
,,,,1,JALAN SS 19/5C,SS 19 SUBANG JAYA,47500,SUBANG JAYA,SELANGOR,,
,,,,1,JALAN SS 19/6,SS 19 SUBANG JAYA,47500,SUBANG JAYA,SELANGOR,,
,,,KLINIK MEDIVIRON SUBANG JAYA (SS19),6,JALAN SS 19/6,SS 19 SUBANG JAYA,47500,SUBANG JAYA,SELANGOR,,
,,,,,JALAN SS 19/6A,SS 19 SUBANG JAYA,40150,SHAH ALAM,SELANGOR,,
,,,,74,,SS 19 SUBANG JAYA,47500,SUBANG JAYA,SELANGOR,,
,,,,75,JALAN SS 19/6M,SS 19 SUBANG JAYA,47500,SUBANG JAYA,SELANGOR,,
F,,218,PANGSAPURI SS19,,JALAN SS 19/7A,SS 19,40150,SHAH ALAM,SELANGOR,,
A,,312,FLAT JALAN SS 19,,JALAN SS 19/7A,SS 19 SUBANG JAYA,47500,SUBANG JAYA,SELANGOR,,
,,,NAUTICA LAKE SUITES CONDOMINIUM,7,JALAN SHT 2,SUBANG HEIGHTS EAST,47500,SUBANG JAYA,SELANGOR,,
,,,,13,JALAN SHB 9,SUBANG HEIGHTS WEST,47500,SUBANG JAYA,SELANGOR,,
A,4,10,ACCENTRA GLENMARIETAMAN BUKIT PELANGI APARTMENT,10,JALAN TBP 1,TAMAN BUKIT PELANGI,40150,SHAH ALAM,SELANGOR,,
B,G,8,FLAT SUBANG PERDANA,,JALAN SUBANG PERDANA,TAMAN SUBANG PERDANA,40150,SHAH ALAM,SELANGOR,,
,2,10,SURIA SUBANG APARTMENT,,PERSIARAN TEKNOLOGI SUBANG,TAMAN TEKNOLOGI TINGGI SUBANG,40150,SHAH ALAM,SELANGOR,,
,,,,1,JALAN USJ HEIGHTS 2/1A,USJ HEIGHTS,40150,SHAH ALAM,SELANGOR,,
,,,,43,JALAN USJ HEIGHTS 2/2A,USJ HEIGHTS,47500,SUBANG JAYA,SELANGOR,,
,,,,7,JALAN USJ HEIGHTS 2/2E,USJ HEIGHTS,47500,SUBANG JAYA,SELANGOR,,
,,,,16,JALAN USJ HEIGHTS 3/2A,USJ HEIGHTS,47500,SUBANG JAYA,SELANGOR,,
,,,,12A,JALAN USJ HEIGHTS 3/2B,USJ HEIGHTS,47500,SUBANG JAYA,SELANGOR,,
,,,,1,JALAN USJ HEIGHTS 1/1B,USJ HEIGHTS,40150,SHAH ALAM,SELANGOR,,
,,,,10,JALAN USJ HEIGHTS 7/1A,USJ HEIGHTS,40150,SHAH ALAM,SELANGOR,,
,,,,2A,JALAN USJ HEIGHTS 8/1A,USJ HEIGHTS,47500,SUBANG JAYA,SELANGOR,,
4,1,05-Apr,PANGSAPURI TERATAI,,JALAN METAFASA U16,TAMAN BUKIT SUBANG,40160,SHAH ALAM,SELANGOR,,
A,1,1,PANGSAPURI SRI MUTIARA,,JALAN PUTRA INDAH 9/1C,PUTRA HEIGHTS,47650,SUBANG JAYA,SELANGOR,,
A,9,18,PANGSAPURI SRI KAYAN,,JALAN PINGGIRAN USJ 2/1,TAMAN PINGGIRAN USJ,47600,SUBANG JAYA,SELANGOR,,
A,10,10,PANGSAPURI SRI KAYAN,,JALAN PINGGIRAN USJ 2/1,TAMAN PINGGIRAN USJ,47600,SUBANG JAYA,SELANGOR,,
,,,,15,JALAN PINGGIRAN USJ 2/3,TAMAN PINGGIRAN USJ,47600,SUBANG JAYA,SELANGOR,,
,,,,47,JALAN PINGGIRAN USJ 3/7,TAMAN PINGGIRAN USJ,47600,SUBANG JAYA,SELANGOR,,
,5,3,PANGSAPURI SERI NIPAH,,JALAN SM2,TAMAN PINGGIRAN USJ,47600,SUBANG JAYA,SELANGOR,,
,10,21,DK SENZA RESIDENCE,,JALAN TAYLORS,BANDAR SUNWAY,46150,PETALING JAYA,SELANGOR,,
A,8,1,RHYTHM AVENUE,,PERSIARAN KEWAJIPAN,USJ 19,47630,SUBANG JAYA,SELANGOR,,
,,,SUMMIT HOTEL USJ,,PERSIARAN KEWAJIPAN,USJ 1,47600,SUBANG JAYA,SELANGOR,,
,,,,61,JALAN USJ 5/1G,USJ 5,47610,SUBANG JAYA,SELANGOR,,
,,,,75,JALAN USJ 11/1F,USJ 11,47620,SUBANG JAYA,SELANGOR,,
,,,,50,JALAN USJ 11/7,USJ 11,47620,SUBANG JAYA,SELANGOR,,
,1,1,KUARTERS KTM,,JALAN SS 16/1,SS 16 SUBANG JAYA,47500,SUBANG JAYA,SELANGOR,,
,,,SUBANG PERDANA GOODYEAR COURT,,JALAN USJ 6/1,USJ 6,47610,SUBANG JAYA,SELANGOR,,
,,,"TAYLOR'S LAKESIDE CAMPUS, SUBANG JAYA",1,JALAN TAYLOR'S,,47500,SUBANG JAYA,SELANGOR,,
,,,,18,JALAN PJS 7/12,BANDAR SUNWAY,47500,SUBANG JAYA,SELANGOR,,
,,,,4,JALAN PJS 7/7K,BANDAR SUNWAY,47500,SUBANG JAYA,SELANGOR,,
,,,,,JALAN PJS 7/7K,BANDAR SUNWAY,47500,SUBANG JAYA,SELANGOR,,
,,,,16,JALAN PUTRA HARMONI 1/3,PUTRA AVENUE,47650,SUBANG JAYA,SELANGOR,,
,,,,5,JALAN PUTRA HARMONI 1/3A,PUTRA AVENUE,47100,PUCHONG,SELANGOR,,
,,,,12,JALAN PUTRA HARMONI 1/3A,PUTRA CREST,47650,SUBANG JAYA,SELANGOR,,
,,,GLADES,7,JALAN PUTRA PERDANA 10,PUTRA HEIGHTS,47650,SUBANG JAYA,SELANGOR,,
,,,SULTAN ABDUL AZIZ SHAH AIRPORT,,,LAPANGAN TERBANG SULTAN ABDUL AZIZ,47200,SUBANG JAYA,SELANGOR,,
,,,,17,JALAN SUBANG,KAMPUNG SRI MUHIBBAH,47200,SUBANG JAYA,SELANGOR,,
,,,KUALA LUMPUR AIR TRAFFIC CONTROL CENTRE,,,LAPANGAN TERBANG SULTAN ABDUL AZIZ,47200,SUBANG JAYA,SELANGOR,,
,,,GE ENGINE SERVICES MALAYSIA SDN. BHD.,,,LAPANGAN TERBANG SULTAN ABDUL AZIZ,47200,SUBANG JAYA,SELANGOR,,
,,,AIRBUS HELICOPTERS MALAYSIA SDN BHD,,,MALAYSIA INTERNATIONAL AEROSPACE CENTRE,47200,SUBANG JAYA,SELANGOR,,
,,,CENTRE OF EXCELLENCE COMPLEX,,,TAMAN PERINDUSTRIAN UEP,47600,SUBANG JAYA,SELANGOR,,
,,,,6,JALAN SS 5C/5,SS 5,47301,PETALING JAYA,SELANGOR,,
,,,DORSETT GRAND SUBANG,,JALAN SS 12/1,SS 12 SUBANG JAYA,47500,SUBANG JAYA,SELANGOR,,
,,,WISMA DICOR,,JALAN SS 17/1A,SS 17 SUBANG JAYA,47500,SUBANG JAYA,SELANGOR,,
,G,8,,8,JALAN SS 19/1D,SS 19 SUBANG JAYA,47500,SUBANG JAYA,SELANGOR,,
,,,"TAYLOR'S LAKESIDE CAMPUS, SUBANG JAYA",1,JALAN TAYLOR'S,SUBANG JAYA,47500,SUBANG JAYA,SELANGOR,,
,,,,LOT 792,PERSIARAN SUBANG INDAH,TAMAN PERINDUSTRIAN SUBANG,47610,SUBANG JAYA,SELANGOR,,
,,,FIRST SUBANG,,JALAN SS 15/4G,SS 15 SUBANG JAYA,47500,SUBANG JAYA,SELANGOR,,
,G,42,,,JALAN SS 15/4C,SUBANG JAYA,47500,SUBANG JAYA,SELANGOR,,
,13,,SUNWAY GEO TOWER,,JALAN LAGOON SELATAN,BANDAR SUNWAY,47500,SUBANG JAYA,SELANGOR,,
,,,,2,JALAN PJS 7/9,BANDAR SUNWAY,47500,SUBANG JAYA,SELANGOR,,
,,,,29,JALAN PJS 9/8,BANDAR SUNWAY,47500,SUBANG JAYA,SELANGOR,,
A,7,2,SUNWAY SOUTH QUAYA'MARINE,,JALAN TASIK SELATAN,BANDAR SUNWAY,47500,SUBANG JAYA,SELANGOR,,
D,21,1,LACOSTA,,JALAN TASIK SELATAN,BANDAR SUNWAY,47500,SUBANG JAYA,SELANGOR,,
A,7,1,NAUTICA LAKE SUITES CONDOMINIUM,,JALAN TASIK SELATAN,SUNWAY SOUTH QUAY,47500,SUBANG JAYA,SELANGOR,,
,12,,SUNWAY SOUTH QUAY,,JALAN LAGOON SELATAN,SUNWAY SOUTH QUAY,47500,SUBANG JAYA,SELANGOR,,
,,,BAYROCKS GARDEN WATERFRONT VILLAS,46,PERSIARAN TASIK TIMUR,BANDAR SUNWAY,47500,SUBANG JAYA,SELANGOR,,
,,,,LOT 763-A8,JALAN SUBANG 4,ULTRAMINE INDUSTRIAL PARK,47500,SUBANG JAYA,SELANGOR,,
C,,07-Apr,USJ ONE AVENUE,,PERSIARAN SUBANG MEWAH,TAMAN SUBANG PERMAI,47500,SUBANG JAYA,SELANGOR,,
,,,,3,JALAN SS 12/3A,SS 12 SUBANG JAYA,47500,SUBANG JAYA,SELANGOR,,
,,,HOLIDAY VILLA,,JALAN SS 12/1 WANGSA BAIDURI,SUBANG JAYA,47500,SUBANG JAYA,SELANGOR,,
,,,SPRING VILLA CONDO,11,JALAN SS 12/1,SS 12 SUBANG JAYA,47500,SUBANG JAYA,SELANGOR,,
A,18,5,SPRING SUMMER VILLA CONDOMINIUM,11,JALAN SS 12/1 WANGSA BAIDURI,SS 12 SUBANG JAYA,47500,SUBANG JAYA,SELANGOR,,
,,,HOLIDAY VILLA,9,JALAN SS 12/1 WANGSA BAIDURI,SS 12 SUBANG JAYA,47500,SUBANG JAYA,SELANGOR,,
1,,,VAXIN CENTER @ SJMC MEDIPLEX,,JALAN SS 12/1A,SS 12 SUBANG JAYA,47500,SUBANG JAYA,SELANGOR,,
,,,,4A,JALAN SS 12/1B,SS 12 SUBANG JAYA,47500,SUBANG JAYA,SELANGOR,,
,,,,8 & 9,JALAN SS 12/1B,SS 12 SUBANG JAYA,47500,SUBANG JAYA,SELANGOR,,
,,,,16,JALAN SS 12/1B,SS 12 SUBANG JAYA,47500,SUBANG JAYA,SELANGOR,,
,,,,,JALAN SS 12/1C,SS 12 SUBANG JAYA,47500,SUBANG JAYA,SELANGOR,,
,,,,14,JALAN SS 12/1D,SS 12 SUBANG JAYA,47500,SUBANG JAYA,SELANGOR,,
,,,,11,JALAN SS 12/1D,SS 12 SUBANG JAYA,47500,SUBANG JAYA,SELANGOR,,
,,,,9534,JALAN SS 12/1F,SS 12 SUBANG JAYA,47500,SUBANG JAYA,SELANGOR,,
,,,,41,JALAN SS 12/2C,SS 12 SUBANG JAYA,47500,SUBANG JAYA,SELANGOR,,
,,,,15,JALAN SS 12/2C,SS 12 SUBANG JAYA,47500,SUBANG JAYA,SELANGOR,,
,,,,63,JALAN SS 12/2C,SS 12 SUBANG JAYA,47500,SUBANG JAYA,SELANGOR,,
,,,,2,JALAN SS 12/2D,SUBANG JAYA,47500,SUBANG JAYA,SELANGOR,,
,,,,72,JALAN SS 12/2D,SS 12 SUBANG JAYA,47500,SUBANG JAYA,SELANGOR,,
,,,,70,JALAN SS 12/2E,SUBANG JAYA,47500,SUBANG JAYA,SELANGOR,,
,,,,82,JALAN SS 12/2E,SS 12 SUBANG JAYA,47500,SUBANG JAYA,SELANGOR,,
,,,,9,JALAN SS 12/3B,SS 12 SUBANG JAYA,47500,SUBANG JAYA,SELANGOR,,
,,,,24,JALAN SS 12/4,SS 12 SUBANG JAYA,47500,SUBANG JAYA,SELANGOR,,
,,,,38,JALAN SS 12/4,SS 12 SUBANG JAYA,47500,SUBANG JAYA,SELANGOR,,
,,,,23,JALAN SS 12/4,SS 12 SUBANG JAYA,47500,SUBANG JAYA,SELANGOR,,
,,15 06,SUMMER VILLA CONDOMINIUM,,PERSIARAN WANGSA BAIDURI 12/1,TAMAN WANGSA BAIDURI,47500,SUBANG JAYA,SELANGOR,,
2,6,,BOULEVARD SUBANG CONDOMINIUM,,"JALAN WANGSA BAIDURI, SS12/1",SS 12 SUBANG JAYA,47500,SUBANG JAYA,SELANGOR,,
,,,,LOT 3606,JALAN SS 12/1 WANGSA BAIDURI,SS 12 SUBANG JAYA,47500,SUBANG JAYA,SELANGOR,,
,,103,SPRING SUMMER VILLA CONDOMINIUM,,PERSIARAN WANGSA BAIDURI 12/1,SS 12 SUBANG JAYA,47500,SUBANG JAYA,SELANGOR,,
,,1305,SPRING VILLA CONDO,,JALAN SS12/1,SS 12 SUBANG JAYA,47500,SUBANG JAYA,SELANGOR,,
,,,BOULEVARD SUBANG CONDOMINIUMTHE BOULEVARD SUBANG JAYA,,JALAN SS 12/1 WANGSA BAIDURI,SS 12 SUBANG JAYA,47500,SUBANG JAYA,SELANGOR,,
T1,16,6,BOULEVARD SUBANG CONDOMINIUM,,JALAN SS 12/1 WANGSA BAIDURI,SS 12 SUBANG JAYA,47500,SUBANG JAYA,SELANGOR,,
,,,SUBANG JAYA MEDICAL CENTRE,,JALAN SS 12/1,SS 12 SUBANG JAYA,47500,SUBANG JAYA,SELANGOR,,
T2,3A,B,BOULEVARD SUBANG CONDOMINIUM,,JALAN SS 12/1 WANGSA BAIDURI,SS 12 SUBANG JAYA,47500,SUBANG JAYA,SELANGOR,,
T1,3,D,BOULEVARD SUBANG CONDOMINIUM,,JALAN SS 12/1 WANGSA BAIDURI,SS 12 SUBANG JAYA,47500,SUBANG JAYA,SELANGOR,,
,,,BOULEVARD SUBANG CONDOMINIUMTHE BOULEVARD SUBANG JAYA,,JALAN SS 12/1 WANGSA BAIDURI,SS 12 SUBANG JAYA,47500,SUBANG JAYA,SELANGOR,,
T1,1,F,BOULEVARD SUBANG CONDOMINIUM,,JALAN SS 12/1 WANGSA BAIDURI,SS 12 SUBANG JAYA,47500,SUBANG JAYA,SELANGOR,,
,,,BOULEVARD SUBANG CONDOMINIUM,,JALAN SS 12/1 WANGSA BAIDURI,SS 12 SUBANG JAYA,47500,SUBANG JAYA,SELANGOR,,
,,,BOULEVARD SUBANG CONDOMINIUM,,JALAN SS 12/1 WANGSA BAIDURI,SS 12 SUBANG JAYA,47500,SUBANG JAYA,SELANGOR,,
,,,,1,JALAN SS 13/3B,SUBANG JAYA INDUSTRIAL ESTATE,47500,SUBANG JAYA,SELANGOR,,
O,3,,,2,JALAN SS 13/1B,SS 13 SUBANG JAYA,47500,SUBANG JAYA,SELANGOR,,
M,2,7,,,JALAN SS 13/1C,SUBANG JAYA,47500,SUBANG JAYA,SELANGOR,,
L,1,2,,,JALAN SS 13/1C,SS 13 SUBANG JAYA,47500,SUBANG JAYA,SELANGOR,,
L,G,7,,,JALAN SS 13/1C,SS 13 SUBANG JAYA,47500,SUBANG JAYA,SELANGOR,,
K,1,3,,,JALAN SS 13/1D,SS 13 SUBANG JAYA,47500,SUBANG JAYA,SELANGOR,,
F,1,3,,,JALAN SS 13/1G,SS 13 SUBANG JAYA,47500,SUBANG JAYA,SELANGOR,,
G,,1,,,JALAN SS 13/1G,SS 13 SUBANG JAYA,47500,SUBANG JAYA,SELANGOR,,
C,1,8,,,JALAN SS 13/1J,SS 13 SUBANG JAYA,47500,SUBANG JAYA,SELANGOR,,
A,G,1,,,JALAN SS 13/1K,SS 13 SUBANG JAYA,47500,SUBANG JAYA,SELANGOR,,
,,,,4482,JALAN SS 13/2,SUBANG JAYA INDUSTRIAL ESTATE,47500,SUBANG JAYA,SELANGOR,,
,,,,34,JALAN SS 14/5H,SS 14 SUBANG JAYA,47500,SUBANG JAYA,SELANGOR,,
,,,,,JALAN SS 14/ 8F,SS 14 SUBANG JAYA,47500,SUBANG JAYA,SELANGOR,,
M,,6,,,JALAN SS 13/1C,SS 13 SUBANG JAYA,47500,SUBANG JAYA,SELANGOR,,
,,,,148,JALAN SS 14,SS 14 SUBANG JAYA,47500,SUBANG JAYA,SELANGOR,,
,,,,188,JALAN SS 14,SS 14 SUBANG JAYA,47500,SUBANG JAYA,SELANGOR,,
,,,,84,JALAN SS 14/1,SS 14 SUBANG JAYA,47500,SUBANG JAYA,SELANGOR,,
,,,,,JALAN SS 14/1,SS 14 SUBANG JAYA,47500,SUBANG JAYA,SELANGOR,,
,,,,97,JALAN SS 14/1A,SS 14 SUBANG JAYA,47500,SUBANG JAYA,SELANGOR,,
,,,,,JALAN SS 14/1B,SS 14 SUBANG JAYA,47500,SUBANG JAYA,SELANGOR,,
,,,,9,JALAN SS 14/1B,SS 14 SUBANG JAYA,47500,SUBANG JAYA,SELANGOR,,
,,,,62,JALAN SS 14/2A,SS 14 SUBANG JAYA,47500,SUBANG JAYA,SELANGOR,,
,,,,1,JALAN SS 14/2A,SS 14 SUBANG JAYA,47500,SUBANG JAYA,SELANGOR,,
,,,,45,JALAN SS 14/2C,SS 14 SUBANG JAYA,47500,SUBANG JAYA,SELANGOR,,
,,,,138,JALAN SS 14/3,SS 14 SUBANG JAYA,47500,SUBANG JAYA,SELANGOR,,
,,,,26,JALAN SS 14/3A,SS 14 SUBANG JAYA,47500,SUBANG JAYA,SELANGOR,,
,,,,,JALAN SS 14/4B,SS 14 SUBANG JAYA,47500,SUBANG JAYA,SELANGOR,,
,,,,14,JALAN SS 14/5A,SS 14 SUBANG JAYA,47500,SUBANG JAYA,SELANGOR,,
,,,,78,JALAN SS 14/5E,SS 14 SUBANG JAYA,47500,SUBANG JAYA,SELANGOR,,
,,,,38,JALAN SS 14/5E,SS 14 SUBANG JAYA,47500,SUBANG JAYA,SELANGOR,,
,,,,6,JALAN SS 14/5F,SS 14 SUBANG JAYA,47500,SUBANG JAYA,SELANGOR,,
,,,,24,JALAN SS 14/5F,SS 14 SUBANG JAYA,47500,SUBANG JAYA,SELANGOR,,
,,,,9,JALAN SS 14/5J,SS 14 SUBANG JAYA,47500,SUBANG JAYA,SELANGOR,,
,,,,7,JALAN SS 14,SS 14 SUBANG JAYA,47500,SUBANG JAYA,SELANGOR,,
,,,,8,JALAN SS 14/6,SS 14 SUBANG JAYA,47500,SUBANG JAYA,SELANGOR,,
,,,,2,JALAN SS 14/6A,SS 14 SUBANG JAYA,47500,SUBANG JAYA,SELANGOR,,
,,,,4,JALAN SS 14/6B,SS 14 SUBANG JAYA,47500,SUBANG JAYA,SELANGOR,,
,,,,7,JALAN SS 14/6M,SS 14 SUBANG JAYA,47500,SUBANG JAYA,SELANGOR,,
,,,,11,JALAN SS 14/7A,SS 14 SUBANG JAYA,47500,SUBANG JAYA,SELANGOR,,
,,,,29,JALAN SS 14/7C,SS 14 SUBANG JAYA,47500,SUBANG JAYA,SELANGOR,,
,,,,3,JALAN SS 14/7C,SS 14 SUBANG JAYA,47500,SUBANG JAYA,SELANGOR,,
,,,,3,JALAN SS 14/7G,SS 14 SUBANG JAYA,47500,SUBANG JAYA,SELANGOR,,
,,,,13,JALAN SS 14/7G,SS 14 SUBANG JAYA,47500,SUBANG JAYA,SELANGOR,,
,,,,7,JALAN SS 14/8,SS 14 SUBANG JAYA,47500,SUBANG JAYA,SELANGOR,,
,,,,6,JALAN SS 14/8B,SS 14 SUBANG JAYA,47500,SUBANG JAYA,SELANGOR,,
,,,,28,JALAN SS 14/8C,SS 14 SUBANG JAYA,47500,SUBANG JAYA,SELANGOR,,
,,,,3,JALAN SS 14/8E,SS 14 SUBANG JAYA,47500,SUBANG JAYA,SELANGOR,,
,,,,13,JALAN SS 14/8F,SS 14 SUBANG JAYA,47500,SUBANG JAYA,SELANGOR,,
,,,,43,JALAN SS 14/8G,SS 14 SUBANG JAYA,47500,SUBANG JAYA,SELANGOR,,
,1,,ALLIANCE DIRECT MARKETING SDN. BHD.,,JALAN SS 15/2A,SS 15 SUBANG JAYA,47500,SUBANG JAYA,SELANGOR,,
,,,WISMA PROJASS,3,JALAN SS 15/2A,SS 15 SUBANG JAYA,47500,SUBANG JAYA,SELANGOR,,
,,,,28,JALAN SS 15/2B,SS 15 SUBANG JAYA,47500,SUBANG JAYA,SELANGOR,,
,,,,54,JALAN SS 15/2D,SS 15 SUBANG JAYA,47500,SUBANG JAYA,SELANGOR,,
,,,,56,JALAN SS 15/2E,SS 15 SUBANG JAYA,47500,SUBANG JAYA,SELANGOR,,
,,,,36,JALAN SS 15/2E,SS 15 SUBANG JAYA,47500,SUBANG JAYA,SELANGOR,,
,,,,22,JALAN SS 15/2E,SS 15 SUBANG JAYA,47500,SUBANG JAYA,SELANGOR,,
,,,,4,JALAN SS 15/2F,SS 15 SUBANG JAYA,47500,SUBANG JAYA,SELANGOR,,
,,,,46,JALAN SS 15/3A,SS 15 SUBANG JAYA,47500,SUBANG JAYA,SELANGOR,,
,,,,11,JALAN SS 15/3A,SS 15 SUBANG JAYA,47500,SUBANG JAYA,SELANGOR,,
,,,,18,JALAN SS 15/3A,SS 15 SUBANG JAYA,47500,SUBANG JAYA,SELANGOR,,
,,,,2,JALAN SS 15/4B,SS 15 SUBANG JAYA,47500,SUBANG JAYA,SELANGOR,,
,,23,,,JALAN SS 15/4,SS 15 SUBANG JAYA,47500,SUBANG JAYA,SELANGOR,,
,1,48,BLACK FOREST REFLEXOLOGY,,JALAN SS 15/4,SS 15 SUBANG JAYA,47500,SUBANG JAYA,SELANGOR,,
,1,,,16,JALAN SS 15/4,SS 15 SUBANG JAYA,47500,SUBANG JAYA,SELANGOR,,
,,,,2,JALAN SS 15/4,SS 15 SUBANG JAYA,47500,SUBANG JAYA,SELANGOR,,
,,,,79,JALAN SS 15/4,SS 15 SUBANG JAYA,47500,SUBANG JAYA,SELANGOR,,
,,,,16-Jan,JALAN SS 15/4D,SS 15 SUBANG JAYA,47500,SUBANG JAYA,SELANGOR,,
,,196,APARTMENT BNM,,JALAN SS 15/4E,SS 15 SUBANG JAYA,47500,SUBANG JAYA,SELANGOR,,
,,,,41,JALAN SS 15/4E,SS 15 SUBANG JAYA,47500,SUBANG JAYA,SELANGOR,,
,,,,1,JALAN SS 15/4E,SS 15 SUBANG JAYA,47500,SUBANG JAYA,SELANGOR,,
,,,,37,JALAN SS 15/4E,SS 15 SUBANG JAYA,47500,SUBANG JAYA,SELANGOR,,
,,,CORPORATE TOWER,,JALAN SS 15/4G,SS 15 SUBANG JAYA,47500,SUBANG JAYA,SELANGOR,,
,G,,SS15 COURTYARD,LOT G-08,JALAN SS 15/4G,SS 15 SUBANG JAYA,47500,SUBANG JAYA,SELANGOR,,
E,,5,SUBANG SQUARE BUSINESS CENTRE,,JALAN SS 15/3B,SS 15 SUBANG JAYA,47500,SUBANG JAYA,SELANGOR,,
,,,,137,JALAN SS 15/5A,SS 15 SUBANG JAYA,47500,SUBANG JAYA,SELANGOR,,
,,,,45,JALAN SS 15/5A,SS 15 SUBANG JAYA,47500,SUBANG JAYA,SELANGOR,,
,,,,9,JALAN SS 15/5A,SS 15 SUBANG JAYA,47500,SUBANG JAYA,SELANGOR,,
,,,RESTORAN SILVA'S CURRY HOUSE,121,JALAN SS 15/5A,SS 15 SUBANG JAYA,47500,SUBANG JAYA,SELANGOR,,
,,,,19,JALAN SS 15/5A,SS 15 SUBANG JAYA,47500,SUBANG JAYA,SELANGOR,,
,,35,THE PENTHOUSE RESTAURANT & WINE BAR,,JALAN SS 15/5A,SS 15 SUBANG JAYA,47500,SUBANG JAYA,SELANGOR,,
,,,,30,JALAN SS 15/5C,SS 15 SUBANG JAYA,47500,SUBANG JAYA,SELANGOR,,
,,,,21,JALAN SS 15/5D,SS 15 SUBANG JAYA,47500,SUBANG JAYA,SELANGOR,,
,,,,2,JALAN SS 15/5D,SS 15 SUBANG JAYA,47500,SUBANG JAYA,SELANGOR,,
,,,,21,JALAN SS 15/5E,SS 15 SUBANG JAYA,47500,SUBANG JAYA,SELANGOR,,
,,,,38,JALAN SS 15/5F,SS 15 SUBANG JAYA,47500,SUBANG JAYA,SELANGOR,,
,,,,36,JALAN SS 15/6,SS 15 SUBANG JAYA,47500,SUBANG JAYA,SELANGOR,,
,,,,28,JALAN SS 15/6,SS 15 SUBANG JAYA,47500,SUBANG JAYA,SELANGOR,,
,,,,23,JALAN SS 15/6,SS 15 SUBANG JAYA,47500,SUBANG JAYA,SELANGOR,,
,,,,154,JALAN SS 15/7,SS 15 SUBANG JAYA,47500,SUBANG JAYA,SELANGOR,,
,,7,SELSET EDUCATION CENTRE,,JALAN SS 15/7,SS 15 SUBANG JAYA,47500,SUBANG JAYA,SELANGOR,,
,,,,,JALAN SS 15/8A,SS 15 SUBANG JAYA,47500,SUBANG JAYA,SELANGOR,,
,,3,KAFE SIMPLE CHICKEN RICE AND NOODLE,,JALAN SS 15/8A,SS 15 SUBANG JAYA,47500,SUBANG JAYA,SELANGOR,,
,,,,1 & 3G,JALAN SS 15/8B,SS 15 SUBANG JAYA,47500,SUBANG JAYA,SELANGOR,,
,4,,WISMA CONSPLANT 2,,JALAN SS 16/1,SS 16 SUBANG JAYA,47500,SUBANG JAYA,SELANGOR,,
C,20,12B,CASA TIARA SERVICE SUITES,,JALAN KEMAJUAN SUBANG,SS 16 SUBANG JAYA,47500,SUBANG JAYA,SELANGOR,,
,,3,AEON BIG (M) SDN BHD,3,JALAN KEMAJUAN SUBANG,SS 16 SUBANG JAYA,47500,SUBANG JAYA,SELANGOR,,
D,,,CASA TIARA SERVICE SUITES,,JALAN KEMAJUAN SUBANG,SS 16 SUBANG JAYA,47500,SUBANG JAYA,SELANGOR,,
,,,CASA TIARA,,JALAN KEMAJUAN SUBANG,SS 16 SUBANG JAYA,47500,SUBANG JAYA,SELANGOR,,
A,16,10,CASA TIARA SERVICE SUITES,,JALAN KEMAJUAN SUBANG,SS 16 SUBANG JAYA,47500,SUBANG JAYA,SELANGOR,,
B,21,5,CASA TIARA SERVICE SUITES,,JALAN KEMAJUAN SUBANG,SS 16 SUBANG JAYA,47500,SUBANG JAYA,SELANGOR,,
D,12B,8,CASA TIARA SERVICE SUITES,,JALAN KEMAJUAN SUBANG,SS 16 SUBANG JAYA,47500,SUBANG JAYA,SELANGOR,,
B,7,7,CASA TIARA SERVICE SUITES,,JALAN KEMAJUAN SUBANG,SS 16 SUBANG JAYA,47500,SUBANG JAYA,SELANGOR,,
,,,E-TIARA SERVICED APARTMENT,,JALAN KEMAJUAN SUBANG,SS 16 SUBANG JAYA,47500,SUBANG JAYA,SELANGOR,,
L,5,7,E-TIARA SERVICED APARTMENT,,JALAN KEMAJUAN SUBANG,SS 16 SUBANG JAYA,47500,SUBANG JAYA,SELANGOR,,
L,12B,9,CASA TIARA SERVICE APARTMENTS,,JALAN SS 16/1,SS 16 SUBANG JAYA,47500,SUBANG JAYA,SELANGOR,,
E,7,12A,ONE SOHO,,JALAN KEMAJUAN SUBANG,SS 16 SUBANG JAYA,47500,SUBANG JAYA,SELANGOR,,
D,11,6,SUBANG AVENUE SERVICED APARTMENTS,,JALAN KEMAJUAN SUBANG,SS 16 SUBANG JAYA,47500,SUBANG JAYA,SELANGOR,,
,1,23,SUBANG PARADE,F,JALAN KEMAJUAN SUBANG,SS 16 SUBANG JAYA,47500,SUBANG JAYA,SELANGOR,,
A,19,7,CASA TIARA SERVICE SUITES,,JALAN SS 16/1,SS 16 SUBANG JAYA,47500,SUBANG JAYA,SELANGOR,,
B,17,11,CASA TIARA SERVICE SUITES,,JALAN SS 16/1,SS 16 SUBANG JAYA,47500,SUBANG JAYA,SELANGOR,,
D,5,12A,CASA TIARA SERVICE SUITES,,JALAN KEMAJUAN SUBANG,SS 16 SUBANG JAYA,47500,SUBANG JAYA,SELANGOR,,
,3,,EMPIRE HOTEL SUBANG,,JALAN SS 16/1,SS 16 SUBANG JAYA,47500,SUBANG JAYA,SELANGOR,,
,G,,EMPIRE SHOPPING GALLERY,8 & 8A,JALAN SS 16/1,SS 16 SUBANG JAYA,47500,SUBANG JAYA,SELANGOR,,
,G,,EMPIRE SHOPPING GALLERY,17,JALAN SS 16/1,SS 16 SUBANG JAYA,47500,SUBANG JAYA,SELANGOR,,
B,8,1,EMPIRE SUBANG,,JALAN SS 16/1,SS 16 SUBANG JAYA,47500,SUBANG JAYA,SELANGOR,,
,,,KTMB SUBANG JAYA,,JALAN SS 16/1,SS 16 SUBANG JAYA,47500,SUBANG JAYA,SELANGOR,,
K,2,1,OLIVES RESIDENCE SUBANG,1,JALAN SS 16/1,SS 16 SUBANG JAYA,47500,SUBANG JAYA,SELANGOR,,
,,,OLIVES RESIDENCE SUBANG,2,JALAN SS 16/1,SS 16 SUBANG JAYA,47500,SUBANG JAYA,SELANGOR,,
R,4,2,OLIVES RESIDENCE SUBANG,,JALAN SS 16/1,SS 16 SUBANG JAYA,47500,SUBANG JAYA,SELANGOR,,
P,15,1,OLIVES RESIDENCE SUBANG,1,JALAN SS 16/1,SS 16 SUBANG JAYA,47500,SUBANG JAYA,SELANGOR,,
Q,14,3,OLIVES RESIDENCE SUBANG,,JALAN SS 16/1,SS 16 SUBANG JAYA,47500,SUBANG JAYA,SELANGOR,,
B,7,11,SAUJANA RESIDENCY,11,JALAN SS 16/1,SS 16 SUBANG JAYA,47500,SUBANG JAYA,SELANGOR,,
,8,10,SAUJANA RESIDENCY,10,JALAN SS 16/1,SS 16 SUBANG JAYA,47500,SUBANG JAYA,SELANGOR,,
,3,6,SAUJANA RESIDENCY,,JALAN SS 16/1,SS 16 SUBANG JAYA,47500,SUBANG JAYA,SELANGOR,,
BT,15,2,SAUJANA RESIDENCY,2,JALAN SS 16/1,SS 16 SUBANG JAYA,47500,SUBANG JAYA,SELANGOR,,
,1,,SUBANG PARADE,F35,JALAN SS 16/1,SS 16 SUBANG JAYA,47500,SUBANG JAYA,SELANGOR,,
EAST WING,1,7,WISMA CONSPLANT 2,7,JALAN SS 16/1,SS 16 SUBANG JAYA,47500,SUBANG JAYA,SELANGOR,,
EAST WING,G/1ST,7,WISMA CONSPLANT 2,7,JALAN SS 16/1,SS 16 SUBANG JAYA,47500,SUBANG JAYA,SELANGOR,,
EAST WING,G/1ST,,WISMA CONSPLANT 2,7,JALAN SS 16/1,SS 16 SUBANG JAYA,47500,SUBANG JAYA,SELANGOR,,
,,,TOYOTA MALAYSIA SUBANG,LOT 61716,JALAN SS 16/1,SS 16 SUBANG JAYA,47500,SUBANG JAYA,SELANGOR,,
WEST TOWER,10,2,WISMA CONSPLANT 1,2,JALAN KEMAJUAN SUBANG,SS 16 SUBANG JAYA,47500,SUBANG JAYA,SELANGOR,,
,,,,155,JALAN SS 17/1A,SS 17 SUBANG JAYA,47500,SUBANG JAYA,SELANGOR,,
,,,,28,JALAN SS 17/1B,SS 17 SUBANG JAYA,47500,SUBANG JAYA,SELANGOR,,
,,,,60,JALAN SS 17/1B,SS 17 SUBANG JAYA,47500,SUBANG JAYA,SELANGOR,,
,,,,11A,JALAN SS 17/1C,SS 17 SUBANG JAYA,47500,SUBANG JAYA,SELANGOR,,
,,,,31,JALAN SS 17/1D,SS 17 SUBANG JAYA,47500,SUBANG JAYA,SELANGOR,,
,,,,22,JALAN SS 17/1D,SS 17 SUBANG JAYA,47500,SUBANG JAYA,SELANGOR,,
,,,,56,JALAN SS 17/1E,SS 17 SUBANG JAYA,47500,SUBANG JAYA,SELANGOR,,
,,,,54,JALAN SS 17/1E,SS 17 SUBANG JAYA,47500,SUBANG JAYA,SELANGOR,,
5,0,7,SUBANG JAYA LAFITE,7,JALAN SS 17/1G,SS 17 SUBANG JAYA,47500,SUBANG JAYA,SELANGOR,,
,,,SUBANG JAYA LAFITE,,JALAN SS 17/1G,SS 17 SUBANG JAYA,47500,SUBANG JAYA,SELANGOR,,
,,,LAFITE APARTMENT,406,JALAN SS 17/1G,SS 17 SUBANG JAYA,47500,SUBANG JAYA,SELANGOR,,
,,,,7,JALAN SS 17/1H,SS 17 SUBANG JAYA,47500,SUBANG JAYA,SELANGOR,,
,,,,27,JALAN SS 17/1H,SS 17 SUBANG JAYA,47500,SUBANG JAYA,SELANGOR,,
,,G-1A,JAYA SQUARE,LOT 7343,JALAN SS 17/2,SS 17 SUBANG JAYA,47500,SUBANG JAYA,SELANGOR,,
,4,LOT 4-1B,JAYA SQUARE,LOT 7343,JALAN SS 17/2,SS 17 SUBANG JAYA,47500,SUBANG JAYA,SELANGOR,,
,,,,81,JALAN SS 17/2,SS 17 SUBANG JAYA,47500,SUBANG JAYA,SELANGOR,,
,,,,45,JALAN SS 17/2,SS 17 SUBANG JAYA,47500,SUBANG JAYA,SELANGOR,,
,,,,75,JALAN SS 17/2,SS 17 SUBANG JAYA,47500,SUBANG JAYA,SELANGOR,,
,,,,2,JALAN SS 17/2A,SS 17 SUBANG JAYA,47500,SUBANG JAYA,SELANGOR,,
,,,,21,JALAN SS 17/2C,SS 17 SUBANG JAYA,47500,SUBANG JAYA,SELANGOR,,
,,,,28,JALAN SS 17/2F,SS 17 SUBANG JAYA,47500,SUBANG JAYA,SELANGOR,,
,,,,24,JALAN SS 17/2L,SS 17 SUBANG JAYA,47500,SUBANG JAYA,SELANGOR,,
,,,,38,JALAN SS 17/3A,SS 17 SUBANG JAYA,47500,SUBANG JAYA,SELANGOR,,
,,,,16,JALAN SS 17/3A,SS 17 SUBANG JAYA,47500,SUBANG JAYA,SELANGOR,,
,,,,107,JALAN SS 17/3B,SS 17 SUBANG JAYA,47500,SUBANG JAYA,SELANGOR,,
,,,,83,JALAN SS 17/3B,SS 17 SUBANG JAYA,47500,SUBANG JAYA,SELANGOR,,
,,,,24,JALAN SS 17/3B,SS 17 SUBANG JAYA,47500,SUBANG JAYA,SELANGOR,,
,,,,104,JALAN SS 17/3B,SS 17 SUBANG JAYA,47500,SUBANG JAYA,SELANGOR,,
,,,,,JALAN SS 17/3B,SS 17 SUBANG JAYA,47500,SUBANG JAYA,SELANGOR,,
,,,,25,JALAN SS 17/3E,SS 17 SUBANG JAYA,47500,SUBANG JAYA,SELANGOR,,
,,,,,JALAN SS 18/1,SS 18 SUBANG JAYA,47500,SUBANG JAYA,SELANGOR,,
,,,,83,JALAN SS 18/1,SS 18 SUBANG JAYA,47500,SUBANG JAYA,SELANGOR,,
,,,,123,JALAN SS 18/1,SS 18 SUBANG JAYA,47500,SUBANG JAYA,SELANGOR,,
,,,,2,JALAN SS 18/1A,SS 18 SUBANG JAYA,47500,SUBANG JAYA,SELANGOR,,
,,,,12,JALAN SS 18/1A,SS 18 SUBANG JAYA,47500,SUBANG JAYA,SELANGOR,,
,,,,43,JALAN SS 18/1B,SS 18 SUBANG JAYA,47500,SUBANG JAYA,SELANGOR,,
,,,,115,JALAN SS 18/1B,SS 18 SUBANG JAYA,47500,SUBANG JAYA,SELANGOR,,
,,,,57,JALAN SS 18/1B,SS 18 SUBANG JAYA,47500,SUBANG JAYA,SELANGOR,,
,,,,51,JALAN SS 18/1C,SS 18 SUBANG JAYA,47500,SUBANG JAYA,SELANGOR,,
,,,,139,JALAN SS 18/1C,SS 18 SUBANG JAYA,47500,SUBANG JAYA,SELANGOR,,
,,,,133,JALAN SS 18/1C,SS 18 SUBANG JAYA,47500,SUBANG JAYA,SELANGOR,,
,,,,106,JALAN SS 18/1C,SS 18 SUBANG JAYA,47500,SUBANG JAYA,SELANGOR,,
,,,,59,JALAN SS 18/2,SS 18 SUBANG JAYA,47500,SUBANG JAYA,SELANGOR,,
,,,,45,JALAN SS 18/2,SS 18 SUBANG JAYA,47500,SUBANG JAYA,SELANGOR,,
,,,,14,JALAN SS 18/2A,SS 18 SUBANG JAYA,47500,SUBANG JAYA,SELANGOR,,
,,,,17,JALAN SS 18/2A,SS 18 SUBANG JAYA,47500,SUBANG JAYA,SELANGOR,,
,,,,38,JALAN SS 18/2B,SS 18 SUBANG JAYA,47500,SUBANG JAYA,SELANGOR,,
,,,,15,JALAN SS 18/2B,SS 18 SUBANG JAYA,47500,SUBANG JAYA,SELANGOR,,
,,,,8,JALAN SS 18/2C,SS 18 SUBANG JAYA,47500,SUBANG JAYA,SELANGOR,,
,,,,50,JALAN SS 18/3,SS 18 SUBANG JAYA,47500,SUBANG JAYA,SELANGOR,,
,,,,36,JALAN SS 18/3A,SS 18 SUBANG JAYA,47500,SUBANG JAYA,SELANGOR,,
,,,,2,JALAN SS 18/3A,SS 18 SUBANG JAYA,47500,SUBANG JAYA,SELANGOR,,
,,,,49,JALAN SS 18/3C,SS 18 SUBANG JAYA,47500,SUBANG JAYA,SELANGOR,,
,,,,42,JALAN SS 18/3E,SS 18 SUBANG JAYA,47500,SUBANG JAYA,SELANGOR,,
,,,,20,JALAN SS 18/3E,SS 18 SUBANG JAYA,47500,SUBANG JAYA,SELANGOR,,
,,,,24,JALAN SS 18/4,SS 18 SUBANG JAYA,47500,SUBANG JAYA,SELANGOR,,
,,,,121,JALAN SS 18/4,SS 18 SUBANG JAYA,47500,SUBANG JAYA,SELANGOR,,
,,,,21,JALAN SS 18/4,SS 18 SUBANG JAYA,47500,SUBANG JAYA,SELANGOR,,
,,,,55,JALAN SS 18/4,SS 18 SUBANG JAYA,47500,SUBANG JAYA,SELANGOR,,
,,,,44,JALAN SS 18/4,SS 18 SUBANG JAYA,47500,SUBANG JAYA,SELANGOR,,
,,,,34,JALAN SS 18/4A,SS 18 SUBANG JAYA,47500,SUBANG JAYA,SELANGOR,,
,,,,50,JALAN SS 18/4A,SS 18 SUBANG JAYA,47500,SUBANG JAYA,SELANGOR,,
,,,,39,JALAN SS 18/4B,SS 18 SUBANG JAYA,47500,SUBANG JAYA,SELANGOR,,
,,,,38,JALAN SS 18/4B,SS 18 SUBANG JAYA,47500,SUBANG JAYA,SELANGOR,,
,,,,29,JALAN SS 18/4B,SS 18 SUBANG JAYA,47500,SUBANG JAYA,SELANGOR,,
,,,,41,JALAN SS 18/4B,SS 18 SUBANG JAYA,47500,SUBANG JAYA,SELANGOR,,
,,,,12,JALAN SS 18/4C,SS 18 SUBANG JAYA,47500,SUBANG JAYA,SELANGOR,,
,,,,36,JALAN SS 18/4C,SS 18 SUBANG JAYA,47500,SUBANG JAYA,SELANGOR,,
,,,,70,JALAN SS 18/4E,SS 18 SUBANG JAYA,47500,SUBANG JAYA,SELANGOR,,
,,,,13,JALAN SS 18/4E,SS 18 SUBANG JAYA,47500,SUBANG JAYA,SELANGOR,,
,,,,82,JALAN SS 18/4F,SS 18 SUBANG JAYA,47500,SUBANG JAYA,SELANGOR,,
,,,,77,JALAN SS 18/4F,SS 18 SUBANG JAYA,47500,SUBANG JAYA,SELANGOR,,
,,,,60,JALAN SS 18/4F,SS 18 SUBANG JAYA,47500,SUBANG JAYA,SELANGOR,,
,,,,124,JALAN SS 18/4G,SS 18 SUBANG JAYA,47500,SUBANG JAYA,SELANGOR,,
,,,,11A,JALAN SS 18/5,SS 18 SUBANG JAYA,47500,SUBANG JAYA,SELANGOR,,
,,,,29,JALAN SS 18/5A,SS 18 SUBANG JAYA,47500,SUBANG JAYA,SELANGOR,,
,,,,17,JALAN SS 18/5B,SS 18 SUBANG JAYA,47500,SUBANG JAYA,SELANGOR,,
,,,,5,JALAN SS 18/5D,SS 18 SUBANG JAYA,47500,SUBANG JAYA,SELANGOR,,
,,,,32,JALAN SS 18/5E,SS 18 SUBANG JAYA,47500,SUBANG JAYA,SELANGOR,,
,,,,29,JALAN SS 18/5F,SS 18 SUBANG JAYA,47500,SUBANG JAYA,SELANGOR,,
,,,,40,JALAN SS 18/5G,SS 18 SUBANG JAYA,47500,SUBANG JAYA,SELANGOR,,
,,,,33,JALAN SS 18/5G,SS 18 SUBANG JAYA,47500,SUBANG JAYA,SELANGOR,,
,,,,26,JALAN SS 18/5H,SS 18 SUBANG JAYA,47500,SUBANG JAYA,SELANGOR,,
,,,,34,JALAN SS 18/5H,SS 18 SUBANG JAYA,47500,SUBANG JAYA,SELANGOR,,
,,,,29,JALAN SS 18/5H,SS 18 SUBANG JAYA,47500,SUBANG JAYA,SELANGOR,,
,,,,23,JALAN SS 18/5H,SS 18 SUBANG JAYA,47500,SUBANG JAYA,SELANGOR,,
,,,,18,JALAN SS 18/3C,SS 18 SUBANG JAYA,47500,SUBANG JAYA,SELANGOR,,
,,,,94,JALAN SS 19/1G,SS 19 SUBANG JAYA,47500,SUBANG JAYA,SELANGOR,,
,,,,26,JALAN SS 19/6,SS 19 SUBANG JAYA,47500,SUBANG JAYA,SELANGOR,,
A,2,12,SUBANG PARKHOMES,12,JALAN KEMAJUAN SUBANG,SS 19 SUBANG JAYA,47500,SUBANG JAYA,SELANGOR,,
F,6,1,SUBANG PARKHOMES,1,JALAN KEMAJUAN SUBANG,SS 19 SUBANG JAYA,47500,SUBANG JAYA,SELANGOR,,
C,2,2,PANGSAPURI SS19,202,JALAN SS 19/7A,SS 19 SUBANG JAYA,47500,SUBANG JAYA,SELANGOR,,
,,,,18,JALAN SS 19/1,SS 19 SUBANG JAYA,47500,SUBANG JAYA,SELANGOR,,
,,,,18,JALAN SS 19/1B,SS 19 SUBANG JAYA,47500,SUBANG JAYA,SELANGOR,,
,,,,39,JALAN SS 19/1B,SS 19 SUBANG JAYA,47500,SUBANG JAYA,SELANGOR,,
,,,,23,JALAN SS 19/1B,SS 19 SUBANG JAYA,47500,SUBANG JAYA,SELANGOR,,
,,,,8,JALAN SS 19/1C,SS 19 SUBANG JAYA,47500,SUBANG JAYA,SELANGOR,,
,,,,47,JALAN SS 19/1C,SS 19 SUBANG JAYA,47500,SUBANG JAYA,SELANGOR,,
,,,,146,JALAN SS 19/1F,SS 19 SUBANG JAYA,47500,SUBANG JAYA,SELANGOR,,
,,,,64,JALAN SS 19/1F,SS 19 SUBANG JAYA,47500,SUBANG JAYA,SELANGOR,,
,,,,177,JALAN SS 19/1F,SS 19 SUBANG JAYA,47500,SUBANG JAYA,SELANGOR,,
,,,,84,JALAN SS 19/1F,SS 19 SUBANG JAYA,47500,SUBANG JAYA,SELANGOR,,
,,,,142,JALAN SS 19/1F,SS 19 SUBANG JAYA,47500,SUBANG JAYA,SELANGOR,,
,,,,112,JALAN SS 19/1F,SS 19 SUBANG JAYA,47500,SUBANG JAYA,SELANGOR,,
,,,,141,JALAN SS 19/1F,SS 19 SUBANG JAYA,47500,SUBANG JAYA,SELANGOR,,
,,,,183,JALAN SS 19/1F,SS 19 SUBANG JAYA,47500,SUBANG JAYA,SELANGOR,,
,,,,102,JALAN SS 19/1G,SS 19 SUBANG JAYA,47500,SUBANG JAYA,SELANGOR,,
,,,,73,JALAN SS 19/1G,SS 19 SUBANG JAYA,47500,SUBANG JAYA,SELANGOR,,
,,,,49,JALAN SS 19/1H,SS 19 SUBANG JAYA,47500,SUBANG JAYA,SELANGOR,,
,,,,26,JALAN SS 19/1H,SS 19 SUBANG JAYA,47500,SUBANG JAYA,SELANGOR,,
,,,,9,JALAN SS 19/1K,SS 19 SUBANG JAYA,47500,SUBANG JAYA,SELANGOR,,
,,,,1,JALAN SS 19/1L,SS 19 SUBANG JAYA,47500,SUBANG JAYA,SELANGOR,,
,,,,11,JALAN SS 19/2,SS 19 SUBANG JAYA,47500,SUBANG JAYA,SELANGOR,,
,,,KERANJI APARTMENT,,JALAN SS 19/3A,SS 19 SUBANG JAYA,47500,SUBANG JAYA,SELANGOR,,
G,3,451,KERANJI APARTMENT,,JALAN SS 19/3A,SS 19 SUBANG JAYA,47500,SUBANG JAYA,SELANGOR,,
,,,,2,JALAN SS 19/3A,SS 19 SUBANG JAYA,47500,SUBANG JAYA,SELANGOR,,
,,,,9,JALAN SS 19/3C,SS 19 SUBANG JAYA,47500,SUBANG JAYA,SELANGOR,,
,,,,3,JALAN SS 19/3C,SS 19 SUBANG JAYA,47500,SUBANG JAYA,SELANGOR,,
,,,,20,JALAN SS 19/4,SS 19 SUBANG JAYA,47500,SUBANG JAYA,SELANGOR,,
,,,,61,JALAN SS 19/4,SS 19 SUBANG JAYA,47500,SUBANG JAYA,SELANGOR,,
,,,,17,JALAN SS 19/4,SS 19 SUBANG JAYA,47500,SUBANG JAYA,SELANGOR,,
,,,,69,JALAN SS 19/4,SS 19 SUBANG JAYA,47500,SUBANG JAYA,SELANGOR,,
,,,,45,JALAN SS 19/4A,SS 19 SUBANG JAYA,47500,SUBANG JAYA,SELANGOR,,
,,,,16,JALAN SS 19/4B,SS 19 SUBANG JAYA,47500,SUBANG JAYA,SELANGOR,,
,,,,14,JALAN SS 19/4B,SS 19 SUBANG JAYA,47500,SUBANG JAYA,SELANGOR,,
,,,,5,JALAN SS 19/4B,SS 19 SUBANG JAYA,47500,SUBANG JAYA,SELANGOR,,
,,,,26,JALAN SS 19/4,SS 19 SUBANG JAYA,47500,SUBANG JAYA,SELANGOR,,
,,,,6,JALAN SS 19/4G,SS 19 SUBANG JAYA,47500,SUBANG JAYA,SELANGOR,,
,,,,37,JALAN SS 19/4G,SS 19 SUBANG JAYA,47500,SUBANG JAYA,SELANGOR,,
,,,,25,JALAN SS 19/5,SS 19 SUBANG JAYA,47500,SUBANG JAYA,SELANGOR,,
,,,,57,JALAN SS 19/5,SS 19 SUBANG JAYA,47500,SUBANG JAYA,SELANGOR,,
,,,,2,JALAN SS 19/5A,SS 19 SUBANG JAYA,47500,SUBANG JAYA,SELANGOR,,
,,,,44,JALAN SS 19/5B,SS 19 SUBANG JAYA,47500,SUBANG JAYA,SELANGOR,,
,,,,91,JALAN SS 19/5B,SS 19 SUBANG JAYA,47500,SUBANG JAYA,SELANGOR,,
,,,,127,JALAN SS 19/5B,SS 19 SUBANG JAYA,47500,SUBANG JAYA,SELANGOR,,
,,,,30,JALAN SS 19/5C,SS 19 SUBANG JAYA,47500,SUBANG JAYA,SELANGOR,,
,,,,18,JALAN SS 19/5C,SS 19 SUBANG JAYA,47500,SUBANG JAYA,SELANGOR,,
,,,,18,JALAN SS 19/6N,SS 19 SUBANG JAYA,47500,SUBANG JAYA,SELANGOR,,
,,,,28,JALAN SS 19/1J,SS 19 SUBANG JAYA,47500,SUBANG JAYA,SELANGOR,,
,,,,26,JALAN SS 19/6L,SS 19 SUBANG JAYA,47500,SUBANG JAYA,SELANGOR,,
,,,,7,JALAN SS 19/5F,SS 19 SUBANG JAYA,47500,SUBANG JAYA,SELANGOR,,
,,,,12,JALAN SS 19/5F,SS 19 SUBANG JAYA,47500,SUBANG JAYA,SELANGOR,,
,,,,8,JALAN SS 19/5F,SS 19 SUBANG JAYA,47500,SUBANG JAYA,SELANGOR,,
,,20,GERAI KAK INA,20,JALAN SS 19/6,SS 19 SUBANG JAYA,47500,SUBANG JAYA,SELANGOR,,
,,,,30,JALAN SS 19/6U,SS 19 SUBANG JAYA,47500,SUBANG JAYA,SELANGOR,,
,,,,137,JALAN SS 19/6A,SS 19 SUBANG JAYA,47500,SUBANG JAYA,SELANGOR,,
,,,,82,JALAN SS 19/6B,SS 19 SUBANG JAYA,47500,SUBANG JAYA,SELANGOR,,
,,,,45,JALAN SS 19/6B,SS 19 SUBANG JAYA,47500,SUBANG JAYA,SELANGOR,,
,,,,36,JALAN SS 19/6C,SS 19 SUBANG JAYA,47500,SUBANG JAYA,SELANGOR,,
,,,,11A,JALAN SS 19/6C,SS 19 SUBANG JAYA,47500,SUBANG JAYA,SELANGOR,,
,,,,18,JALAN SS 19/6E,SS 19 SUBANG JAYA,47500,SUBANG JAYA,SELANGOR,,
,,,,56,JALAN SS 19/6F,SS 19 SUBANG JAYA,47500,SUBANG JAYA,SELANGOR,,
,,,,3,JALAN SS 19/6G,SS 19 SUBANG JAYA,47500,SUBANG JAYA,SELANGOR,,
,,,,29,JALAN SS 19/6G,SS 19 SUBANG JAYA,47500,SUBANG JAYA,SELANGOR,,
,,,,23,JALAN SS 19/6H,SS 19 SUBANG JAYA,47500,SUBANG JAYA,SELANGOR,,
,,,,31,JALAN SS 19/6J,SS 19 SUBANG JAYA,47500,SUBANG JAYA,SELANGOR,,
,,,,8,JALAN SS 19/6K,SS 19 SUBANG JAYA,47500,SUBANG JAYA,SELANGOR,,
,,,,20,JALAN SS 19/6Q,SS 19 SUBANG JAYA,47500,SUBANG JAYA,SELANGOR,,
,,,,15,JALAN SS 19/6R,SS 19 SUBANG JAYA,47500,SUBANG JAYA,SELANGOR,,
,,,,58,JALAN SS 19/6S,SS 19 SUBANG JAYA,47500,SUBANG JAYA,SELANGOR,,
E,1,209,,,JALAN SS 19/7A,SS 19 SUBANG JAYA,47500,SUBANG JAYA,SELANGOR,,
,,,,25,JALAN SS 19/6A,SS 19 SUBANG JAYA,47500,SUBANG JAYA,SELANGOR,,
,,,,51,JALAN SHT 1,SUBANG HEIGHTS EAST,47500,SUBANG JAYA,SELANGOR,,
,,,,15,JALAN SHT 2,SUBANG HEIGHTS EAST,47500,SUBANG JAYA,SELANGOR,,
,,,,8,JALAN SHB 10,SUBANG HEIGHTS WEST,47500,SUBANG JAYA,SELANGOR,,
,,,,19,JALAN SHB 5,SUBANG HEIGHTS WEST,47500,SUBANG JAYA,SELANGOR,,
,,,,22,JALAN SHB 8,SUBANG HEIGHTS WEST,47500,SUBANG JAYA,SELANGOR,,
B,28,5,PALOMA SERVICED RESIDENCES AND COURTYARD VILLAS,5,JALAN MP1,SUBANG HI-TECH INDUSTRIAL PARK,47500,SUBANG JAYA,SELANGOR,,
,,,,14,JALAN SS 14/5F,SS 14 SUBANG JAYA,47500,SUBANG JAYA,SELANGOR,,
,,,,76,JALAN SS 15/2D,SS 15 SUBANG JAYA,47500,SUBANG JAYA,SELANGOR,,
I,6,2,,6,JALAN SS 13/1E,SS 13 SUBANG JAYA,47500,SUBANG JAYA,SELANGOR,,
A,,1,EMERSON AUTOMATION SOLUTIONS,,JALAN SS 13/5,SUBANG JAYA INDUSTRIAL ESTATE,47500,SUBANG JAYA,SELANGOR,,
,,,HITACHI CONSTRUCTION MACHINERY (M) SDN BHD,LOT 7,JALAN SS 13/2,SUBANG JAYA INDUSTRIAL ESTATE,47500,SUBANG JAYA,SELANGOR,,
A,25,5,CASA SUBANG APARTMENT,5,JALAN SUBANG 1,SUBANG LIGHT INDUSTRIAL PARK,47500,SUBANG JAYA,SELANGOR,,
,,32,,32,JALAN USJ CENTRAL 3,SUBANG LIGHT INDUSTRIAL PARK,47600,SUBANG JAYA,SELANGOR,,
C,17,3A,LACOSTA,3A,JALAN TASIK SELATAN,BANDAR SUNWAY,47500,SUBANG JAYA,SELANGOR,,
A,22,3A,SUNWAY GEO RESIDENCES,3A,PERSIARAN TASIK TIMUR,SUNWAY SOUTH QUAY,47500,SUBANG JAYA,SELANGOR,,
,1,17,PANGSAPURI MUTIARA SUBANG,LOT 17,JALAN MUTIARA SUBANG 6,TAMAN MUTIARA SUBANG,47500,SUBANG JAYA,SELANGOR,,
,,,,2,JALAN MUTIARA SUBANG 2,TAMAN MUTIARA SUBANG,47500,SUBANG JAYA,SELANGOR,,
,,,,58,JALAN MUTIARA SUBANG 2,TAMAN MUTIARA SUBANG,47500,SUBANG JAYA,SELANGOR,,
,,,,49,JALAN MUTIARA SUBANG 2,TAMAN MUTIARA SUBANG,47500,SUBANG JAYA,SELANGOR,,
,,,,42,JALAN MUTIARA SUBANG 3,TAMAN MUTIARA SUBANG,47500,SUBANG JAYA,SELANGOR,,
,,,,26,JALAN MUTIARA SUBANG 6,TAMAN MUTIARA SUBANG,47500,SUBANG JAYA,SELANGOR,,
,,604,,LOT 604,JALAN LAGOON SELATAN,TAMAN PERINDUSTRIAN SUBANG,47500,SUBANG JAYA,SELANGOR,,
,,604,,LOT 604,JALAN LAGOON SELATAN,TAMAN PERINDUSTRIAN SUBANG,47500,SUBANG JAYA,SELANGOR,,
,,6,,6,JALAN TS 6/9,TAMAN PERINDUSTRIAN SUBANG,47500,SUBANG JAYA,SELANGOR,,
,,36,,36,JALAN INDUSTRI USJ 1/12,TAMAN PERINDUSTRIAN USJ 1,47600,SUBANG JAYA,SELANGOR,,
A,10,7,USJ ONE PARK CONDOMINIUM,7,JALAN USJ 1/1,TAMAN SUBANG MEWAH,47500,SUBANG JAYA,SELANGOR,,
,,11,USJ ONE PARK CONDOMINIUM,11,JALAN USJ 1/1,TAMAN SUBANG MEWAH,47500,SUBANG JAYA,SELANGOR,,
,,,,5,JALAN USJ 1/3A,TAMAN SUBANG MEWAH,47500,SUBANG JAYA,SELANGOR,,
,,109,,109,JALAN USJ 1/4G,TAMAN SUBANG MEWAH,47500,SUBANG JAYA,SELANGOR,,
,,,PANGSAPURI ANGSANA,,PERSIARAN SUBANG MEWAH,TAMAN SUBANG MEWAH,47610,SUBANG JAYA,SELANGOR,,
H7,7,18,PANGSAPURI ANGSANA,18,PERSIARAN SUBANG MEWAH,TAMAN SUBANG MEWAH,47610,SUBANG JAYA,SELANGOR,,
H1,1,13,PANGSAPURI ANGSANA,13,PERSIARAN SUBANG MEWAH,TAMAN SUBANG MEWAH,47610,SUBANG JAYA,SELANGOR,,
H6,6,16,PANGSAPURI ANGSANA,16,PERSIARAN SUBANG MEWAH,TAMAN SUBANG MEWAH,47610,SUBANG JAYA,SELANGOR,,
G,12,7,PANGSAPURI ANGSANA,7,PERSIARAN SUBANG MEWAH,TAMAN SUBANG MEWAH,47610,SUBANG JAYA,SELANGOR,,
H3,3,20,PANGSAPURI ANGSANA,20,PERSIARAN SUBANG MEWAH,TAMAN SUBANG MEWAH,47610,SUBANG JAYA,SELANGOR,,
F3,3,20,PANGSAPURI ANGSANA,20,PERSIARAN SUBANG MEWAH,TAMAN SUBANG MEWAH,47610,SUBANG JAYA,SELANGOR,,
,8,12,PANGSAPURI ANGSANA,,PERSIARAN SUBANG MEWAH,TAMAN SUBANG MEWAH,47500,SUBANG JAYA,SELANGOR,,
C,9,2,REGINA USJ CONDO,,JALAN SUBANG PERMAI,TAMAN SUBANG PERMAI,47500,SUBANG JAYA,SELANGOR,,
A,8,2,REGINA USJ CONDO,,JALAN SUBANG PERMAI,TAMAN SUBANG PERMAI,47500,SUBANG JAYA,SELANGOR,,
B,10,1,REGINA USJ CONDO,,JALAN SUBANG PERMAI,TAMAN SUBANG PERMAI,47500,SUBANG JAYA,SELANGOR,,
C,2,9,PANGSAPURI PERMAI,,JALAN SUBANG PERMAI,USJ 1,47500,SUBANG JAYA,SELANGOR,,
,,,,41,JALAN USJ 1/25,TAMAN SUBANG PERMAI,47600,SUBANG JAYA,SELANGOR,,
,,,,34,JALAN USJ 1/6,TAMAN SUBANG PERMAI,47500,SUBANG JAYA,SELANGOR,,
P,3,12,PANGSAPURI JATI 1,,PERSIARAN SUBANG MEWAH,TAMAN SUBANG PERMAI,47500,SUBANG JAYA,SELANGOR,,
P,4,6,PANGSAPURI JATI 1,,PERSIARAN SUBANG MEWAH,TAMAN SUBANG PERMAI,47500,SUBANG JAYA,SELANGOR,,
B,13,6,USJ ONE AVENUE,,PERSIARAN SUBANG MEWAH,TAMAN SUBANG PERMAI,47500,SUBANG JAYA,SELANGOR,,
A,1,8,USJ ONE AVENUE,,PERSIARAN SUBANG MEWAH,TAMAN SUBANG PERMAI,47500,SUBANG JAYA,SELANGOR,,
B,6,9,USJ ONE AVENUE,,PERSIARAN SUBANG MEWAH,TAMAN SUBANG PERMAI,47500,SUBANG JAYA,SELANGOR,,
C,8,3,USJ ONE AVENUE,,PERSIARAN SUBANG MEWAH,TAMAN SUBANG PERMAI,47500,SUBANG JAYA,SELANGOR,,
P,8,6,JATI I APARTMENT,,PERSIARAN SUBANG MEWAH,TAMAN SUBANG PERMAI,47500,SUBANG JAYA,SELANGOR,,
B,7,6,LAMAN BAIDURI,,PERSIARAN WANGSA BAIDURI 12/1,TAMAN SUBANG RIA,47500,SUBANG JAYA,SELANGOR,,
,,,,5,PERSIARAN WANGSA BAIDURI 1,TAMAN WANGSA BAIDURI,47500,SUBANG JAYA,SELANGOR,,
,,,,46,PESIARAN WANGSA BAIDURI 9,TAMAN WANGSA BAIDURI,47500,SUBANG JAYA,SELANGOR,,
,,,,21,PERSIARAN WANGSA BAIDURI 1,TAMAN WANGSA BAIDURI,47500,SUBANG JAYA,SELANGOR,,
,,,SPRING SUMMER VILLA CONDOMINIUM,,PERSIARAN WANGSA BAIDURI 12/1,TAMAN WANGSA BAIDURI,47500,SUBANG JAYA,SELANGOR,,
,13,11,SPRING SUMMER VILLA CONDOMINIUM,,PERSIARAN WANGSA BAIDURI 12/1,TAMAN WANGSA BAIDURI,47500,SUBANG JAYA,SELANGOR,,
,,,,29,PERSIARAN WANGSA BAIDURI 2,TAMAN WANGSA BAIDURI,47500,SUBANG JAYA,SELANGOR,,
,,,,47,PERSIARAN WANGSA BAIDURI 3,TAMAN WANGSA BAIDURI,47500,SUBANG JAYA,SELANGOR,,
,,,,83,PERSIARAN WANGSA BAIDURI 3,TAMAN WANGSA BAIDURI,47500,SUBANG JAYA,SELANGOR,,
,,,,60,PERSIARAN WANGSA BAIDURI 3,TAMAN WANGSA BAIDURI,47500,SUBANG JAYA,SELANGOR,,
,,,,9,PERSIARAN WANGSA BAIDURI 4,TAMAN WANGSA BAIDURI,47500,SUBANG JAYA,SELANGOR,,
,,,,10,PERSIARAN WANGSA BAIDURI 5,TAMAN WANGSA BAIDURI,47500,SUBANG JAYA,SELANGOR,,
,,,,38,PERSIARAN WANGSA BAIDURI 6,TAMAN WANGSA BAIDURI,47500,SUBANG JAYA,SELANGOR,,
,,,,7,PERSIARAN WANGSA BAIDURI 6,TAMAN WANGSA BAIDURI,47500,SUBANG JAYA,SELANGOR,,
,,,,25,PERSIARAN WANGSA BAIDURI 9,TAMAN WANGSA BAIDURI,47500,SUBANG JAYA,SELANGOR,,
,,,,54,PERSIARAN WANGSA BAIDURI 9,TAMAN WANGSA BAIDURI,47500,SUBANG JAYA,SELANGOR,,
,,,,14,PERSIARAN WANGSA BAIDURI 9,TAMAN WANGSA BAIDURI,47500,SUBANG JAYA,SELANGOR,,
,,,,14,PESIARAN WANGSA BAIDURI 6,TAMAN WANGSA BAIDURI,47500,SUBANG JAYA,SELANGOR,,
,,,,34,PESIARAN WANGSA BAIDURI 8,TAMAN WANGSA BAIDURI,47500,SUBANG JAYA,SELANGOR,,
,,,,12A,JALAN MUTIARA SUBANG 2,TAMAN MUTIARA SUBANG,47500,SUBANG JAYA,SELANGOR,,
,,,,13A,JALAN USJ 1/1M,USJ PARK ONE,47500,SUBANG JAYA,SELANGOR,,
,,,,,PERSIARAN SUBANG MEWAH,USJ 1,47500,SUBANG JAYA,SELANGOR,,
,,,PERMAI APARTMENT COURT,,JALAN SUBANG 3,TAMAN SUBANG PERMAI,47600,SUBANG JAYA,SELANGOR,,
A,,303,PANGSAPURI PERMAI,,JALAN SUBANG PERMAI,USJ 1,47500,SUBANG JAYA,SELANGOR,,
J,,,MERANTI APARTMENT,,PERSIARAN SUBANG MEWAH,USJ 1,47500,SUBANG JAYA,SELANGOR,,
K,,,MERANTI APARTMENT,,PERSIARAN SUBANG MEWAH,USJ 1,47500,SUBANG JAYA,SELANGOR,,
J,,,MERANTI APARTMENT,,PERSIARAN SUBANG MEWAH,USJ 1,47500,SUBANG JAYA,SELANGOR,,
K,,,MERANTI APARTMENT,,PERSIARAN SUBANG MEWAH,USJ 1,47500,SUBANG JAYA,SELANGOR,,
J,,,MERANTI APARTMENT,,PERSIARAN SUBANG MEWAH,USJ 1,47500,SUBANG JAYA,SELANGOR,,
K,3,5,MERANTI APARTMENT,,PERSIARAN SUBANG MEWAH,USJ 1,47500,SUBANG JAYA,SELANGOR,,
K,,,MERANTI APARTMENT,,PERSIARAN SUBANG MEWAH,USJ 1,47500,SUBANG JAYA,SELANGOR,,
,,,USJ ONE,,PERSIARAN SUBANG PERMAI,USJ 1,47500,SUBANG JAYA,SELANGOR,,
,,,,1,JALAN USJ HEIGHTS 2/1B,USJ HEIGHTS,47500,SUBANG JAYA,SELANGOR,,
,,,,8,JALAN USJ HEIGHTS 2/1C,USJ HEIGHTS,47500,SUBANG JAYA,SELANGOR,,
,,,,16,JALAN USJ HEIGHTS 2/1D,USJ HEIGHTS,47500,SUBANG JAYA,SELANGOR,,
,,,,11A,JALAN USJ HEIGHTS 2/2A,USJ HEIGHTS,47500,SUBANG JAYA,SELANGOR,,
,,,,16,JALAN USJ HEIGHTS 2/2C,USJ HEIGHTS,47500,SUBANG JAYA,SELANGOR,,
,,,,2,JALAN USJ HEIGHTS 2/2F,USJ HEIGHTS,47500,SUBANG JAYA,SELANGOR,,
,,,,1,JALAN USJ HEIGHTS 3/1A,USJ HEIGHTS,47500,SUBANG JAYA,SELANGOR,,
,,,,2,JALAN USJ HEIGHTS 3/2E,USJ HEIGHTS,47500,SUBANG JAYA,SELANGOR,,
,,,,3,JALAN USJ HEIGHTS 3/2F,USJ HEIGHTS,47500,SUBANG JAYA,SELANGOR,,
,,,,43,JALAN USJ HEIGHTS 4/2A,USJ HEIGHTS,47500,SUBANG JAYA,SELANGOR,,
,,,,2,JALAN USJ HEIGHTS 4/2A,USJ HEIGHTS,47500,SUBANG JAYA,SELANGOR,,
,,,,11A,JALAN USJ HEIGHTS 6/1A,USJ HEIGHTS,47500,SUBANG JAYA,SELANGOR,,
,,,,21,JALAN USJ HEIGHTS 6/1C,USJ HEIGHTS,47500,SUBANG JAYA,SELANGOR,,
,,,,78,JALAN USJ HEIGHTS 8/1A,USJ HEIGHTS,47500,SUBANG JAYA,SELANGOR,,
,,,,19,JALAN USJ HEIGHTS 8/1A,USJ HEIGHTS,47500,SUBANG JAYA,SELANGOR,,
,,,,10,JALAN USJ HEIGHTS 8/1B,USJ HEIGHTS,47500,SUBANG JAYA,SELANGOR,,
V1,0,8,,,PERSIARAN KEWAJIPAN,USJ,47600,SUBANG JAYA,SELANGOR,,
,7,25,PANGSAPURI SERI NIPAH,,JALAN SM2,TAMAN PINGGIRAN USJ,47600,SUBANG JAYA,SELANGOR,,
,,,,48,0,KAMPUNG LEMBAH SUBANG AIRPORT,47600,SUBANG JAYA,SELANGOR,,
,,,,KM 33.8,WESTBOUND SHAH ALAM EXPRESSWAY,TAMAN PERINDUSTRIAN UEP,47600,SUBANG JAYA,SELANGOR,,
,,,CENTRE OF EXCELLENCE COMPLEX,KM 33.8,WESTBOUND SHAH ALAM EXPRESSWAY,TAMAN PERINDUSTRIAN UEP,47600,SUBANG JAYA,SELANGOR,,
,,,,14,0,SUBANG JAYA - USJ 1 - 4,47600,SUBANG JAYA,SELANGOR,,
,G,17,,,JALAN USJ SENTRAL 3,SUBANG LIGHT INDUSTRIAL PARK,47620,SUBANG JAYA,SELANGOR,,
,,,,23,JALAN PUTRA MAHKOTA 7/9A,PUSAT BANDAR PUTRA POINT,47650,SUBANG JAYA,SELANGOR,,
,,,,41,JALAN SS 19/6B,SS 19 SUBANG JAYA,47500,SUBANG JAYA,SELANGOR,,
,,,,11A,JALAN USJ 14/1B,USJ 14,47630,SUBANG JAYA,SELANGOR,,
,,,,1,JALAN TIARA,USJ 9,47600,SUBANG JAYA,SELANGOR,,
,,,CENTRE OF EXCELLENCE COMPLEX,,WESTBOUND SHAH ALAM EXPRESSWAY,TAMAN PERINDUSTRIAN UEP,47600,SUBANG JAYA,SELANGOR,,
,,,CENTRE OF EXCELLENCE COMPLEX,KM 33.8,WESTBOUND SHAH ALAM EXPRESSWAY,TAMAN PERINDUSTRIAN UEP,47600,SUBANG JAYA,SELANGOR,,
,,,,,WESTBOUND SHAH ALAM EXPRESSWAY,TAMAN PERINDUSTRIAN UEP,47600,SUBANG JAYA,SELANGOR,,
,,,CENTRE OF EXCELLENCE COMPLEX,KM 33.8,WESTBOUND SHAH ALAM EXPRESSWAY,TAMAN PERINDUSTRIAN UEP,47600,SUBANG JAYA,SELANGOR,,
,,,CENTRE OF EXCELLENCE COMPLEX,KM 33.8,WESTBOUND SHAH ALAM EXPRESSWAY,TAMAN PERINDUSTRIAN UEP,47600,SUBANG JAYA,SELANGOR,,
,,,CENTRE OF EXCELLENCE COMPLEX,,WESTBOUND SHAH ALAM EXPRESSWAY,TAMAN PERINDUSTRIAN UEP,47600,SUBANG JAYA,SELANGOR,,
,,,CENTRE OF EXCELLENCE COMPLEX,KM 33.8,WESTBOUND SHAH ALAM EXPRESSWAY,TAMAN PERINDUSTRIAN UEP,47600,SUBANG JAYA,SELANGOR,,
,,,WISMA REDLAND,,JALAN USJ 1/1C,REGALIA BUSINESS CENTRE,47500,SUBANG JAYA,SELANGOR,,
,,,,7,JALAN TP 1/7,TAMAN PERINDUSTRIAN USJ,47600,SUBANG JAYA,SELANGOR,,
,,,,22,JALAN INDUSTRI USJ 1/15,TAMAN PERINDUSTRIAN USJ 1,47600,SUBANG JAYA,SELANGOR,,
,,,,21,JALAN TP1/1,TAMAN PERINDUSTRIAN USJ,47600,SUBANG JAYA,SELANGOR,,
,,,,25,JALAN TP 1/2,TAMAN PERINDUSTRIAN USJ RESIDENTIAL AREA,47600,SUBANG JAYA,SELANGOR,,
,,,,11,JALAN TP 1/2,TAMAN PERINDUSTRIAN USJ,47600,SUBANG JAYA,SELANGOR,,
,,,,26,JALAN TP 1/6,TAMAN PERINDUSTRIAN USJ RESIDENTIAL AREA,47600,SUBANG JAYA,SELANGOR,,
,,,,30,JALAN TP 1/6,TAMAN PERINDUSTRIAN UEP,47600,SUBANG JAYA,SELANGOR,,
,,,,3,JALAN PINGGIRAN USJ 1/11,TAMAN PINGGIRAN USJ,47600,SUBANG JAYA,SELANGOR,,
,,,,32A,JALAN PINGGIRAN USJ 1/12,TAMAN PERINDUSTRIAN USJ,47600,SUBANG JAYA,SELANGOR,,
,,,,7,JALAN PINGGIRAN USJ 1/13,TAMAN PINGGIRAN USJ,47600,SUBANG JAYA,SELANGOR,,
,,,,7,JALAN PINGGIRAN USJ 1/18,TAMAN PINGGIRAN USJ,47600,SUBANG JAYA,SELANGOR,,
,,,,20,JALAN PINGGIRAN USJ 1/20,TAMAN PINGGIRAN USJ,47600,SUBANG JAYA,SELANGOR,,
,,,,29,JALAN PINGGIRAN USJ 1/3,TAMAN PINGGIRAN USJ,47600,SUBANG JAYA,SELANGOR,,
,,,,37,JALAN PINGGIRAN USJ 1/4,TAMAN PINGGIRAN USJ,47600,SUBANG JAYA,SELANGOR,,
,,,,8,JALAN PINGGIRAN USJ 1/4,TAMAN PINGGIRAN USJ,47600,SUBANG JAYA,SELANGOR,,
,,,,12A,JALAN PINGGIRAN USJ 1/7,TAMAN PINGGIRAN USJ,47600,SUBANG JAYA,SELANGOR,,
,,,,23,JALAN PINGGIRAN USJ 1/9,TAMAN PINGGIRAN USJ,47600,SUBANG JAYA,SELANGOR,,
,,,,33,JALAN PINGGIRAN USJ 2/2,TAMAN PINGGIRAN USJ,47600,SUBANG JAYA,SELANGOR,,
,,,,41,JALAN PINGGIRAN USJ 2/3,TAMAN PINGGIRAN USJ,47600,SUBANG JAYA,SELANGOR,,
,,,,52,JALAN PINGGIRAN USJ 2/3,TAMAN PINGGIRAN USJ,47600,SUBANG JAYA,SELANGOR,,
,,,,29,JALAN PINGGIRAN USJ 2/3,TAMAN PINGGIRAN USJ,47600,SUBANG JAYA,SELANGOR,,
,,,,12,JALAN PINGGIRAN USJ 2/5,TAMAN PINGGIRAN USJ,47600,SUBANG JAYA,SELANGOR,,
,,,,112,JALAN PINGGIRAN USJ 3/1,TAMAN PINGGIRAN USJ,47600,SUBANG JAYA,SELANGOR,,
,,,,117,JALAN PINGGIRAN USJ 3/2,TAMAN PINGGIRAN USJ,47600,SUBANG JAYA,SELANGOR,,
,,,,99,JALAN PINGGIRAN USJ 3/2,TAMAN PINGGIRAN USJ,47600,SUBANG JAYA,SELANGOR,,
,,,,1,JALAN PINGGIRAN USJ 3/2,TAMAN PINGGIRAN USJ,47600,SUBANG JAYA,SELANGOR,,
,,,,113,JALAN PINGGIRAN USJ 3/3,TAMAN PINGGIRAN USJ,47600,SUBANG JAYA,SELANGOR,,
,,,,115,JALAN PINGGIRAN USJ 3/3,TAMAN PINGGIRAN USJ,47600,SUBANG JAYA,SELANGOR,,
,,,,50,JALAN PINGGIRAN USJ 3/3,TAMAN PINGGIRAN USJ,47600,SUBANG JAYA,SELANGOR,,
,,,,19,JALAN PINGGIRAN USJ 3/4,TAMAN PINGGIRAN USJ,47600,SUBANG JAYA,SELANGOR,,
,,,,112,JALAN USJ 3/4,USJ 3,47600,SUBANG JAYA,SELANGOR,,
,,,,49,JALAN PINGGIRAN USJ 3/5,TAMAN PINGGIRAN USJ,47600,SUBANG JAYA,SELANGOR,,
,,,,33,JALAN PINGGIRAN USJ 3/7,TAMAN PINGGIRAN USJ,47600,SUBANG JAYA,SELANGOR,,
,,,,35,JALAN PINGGIRAN USJ 3/8,TAMAN PINGGIRAN USJ,47600,SUBANG JAYA,SELANGOR,,
,,,PANGSAPURI SERI NIPAH,,JALAN SM2,TAMAN PINGGIRAN USJ,47600,SUBANG JAYA,SELANGOR,,
,,,PANGSAPURI SERI NIPAH,,JALAN SM2,TAMAN PINGGIRAN USJ,47600,SUBANG JAYA,SELANGOR,,
SN,6,28,PANGSAPURI SERI NIPAH,,JALAN SM2,TAMAN PINGGIRAN USJ,47600,SUBANG JAYA,SELANGOR,,
,,,,10,JALAN USJ 1/1G,TAMAN SUBANG MEWAH,47600,SUBANG JAYA,SELANGOR,,
,,,,22A,JALAN USJ 1/1F,TAMAN SUBANG MEWAH,47600,SUBANG JAYA,SELANGOR,,
,,,,9,JALAN USJ 1/1G,TAMAN SUBANG MEWAH,47600,SUBANG JAYA,SELANGOR,,
,,,,8,JALAN USJ 1/1G,TAMAN SUBANG MEWAH,47600,SUBANG JAYA,SELANGOR,,
,,,,12,JALAN USJ 1/1G,TAMAN SUBANG MEWAH,47600,SUBANG JAYA,SELANGOR,,
,,,,5,JALAN USJ 1/1H,TAMAN SUBANG MEWAH,47600,SUBANG JAYA,SELANGOR,,
,,,,23,JALAN USJ 1/1J,TAMAN SUBANG MEWAH,47600,SUBANG JAYA,SELANGOR,,
,,,,26,JALAN USJ 1/1J,TAMAN SUBANG MEWAH,47600,SUBANG JAYA,SELANGOR,,
,,,,1,JALAN USJ 1/2,SUBANG JAYA,47500,SUBANG JAYA,SELANGOR,,
,,,,12,JALAN USJ 1/2C,TAMAN SUBANG PERMAI,47600,SUBANG JAYA,SELANGOR,,
,,,,10,JALAN USJ 1/2J,TAMAN SUBANG PERMAI,47600,SUBANG JAYA,SELANGOR,,
,,,,8,JALAN USJ 1/3A,TAMAN SUBANG MEWAH,47600,SUBANG JAYA,SELANGOR,,
,,,GRANDVILLE,10,JALAN USJ 1/3,USJ 1,47600,SUBANG JAYA,SELANGOR,,
,,,,30,JALAN USJ 1/4E,TAMAN SUBANG MEWAH,47600,SUBANG JAYA,SELANGOR,,
,,,,39,JALAN USJ 1/4F,TAMAN SUBANG MEWAH,47600,SUBANG JAYA,SELANGOR,,
,,,,22,JALAN USJ 1/4J,TAMAN SUBANG MEWAH,47600,SUBANG JAYA,SELANGOR,,
,,,,23,JALAN USJ 1/4N,TAMAN SUBANG MEWAH,47600,SUBANG JAYA,SELANGOR,,
J,,,J8,8,PERSIARAN SUBANG MEWAH,TAMAN SUBANG PERMAI,47600,SUBANG JAYA,SELANGOR,,
,,,,20,JALAN USJ 1/11,TAMAN SUBANG PERMAI,47600,SUBANG JAYA,SELANGOR,,
,,,,48,JALAN USJ 1/12,TAMAN SUBANG PERMAI,47600,SUBANG JAYA,SELANGOR,,
,,,,16,JALAN USJ 1/15,TAMAN SUBANG PERMAI,47600,SUBANG JAYA,SELANGOR,,
,,,,3,JALAN USJ 1/15,TAMAN SUBANG PERMAI,47600,SUBANG JAYA,SELANGOR,,
,,,,30,JALAN USJ 1/16,TAMAN SUBANG PERMAI,47600,SUBANG JAYA,SELANGOR,,
,,,,4,JALAN USJ 1/17,TAMAN SUBANG PERMAI,47600,SUBANG JAYA,SELANGOR,,
,,,,53,JALAN USJ 1/21,TAMAN SUBANG PERMAI,47600,SUBANG JAYA,SELANGOR,,
,,,,59,JALAN USJ 1/22,TAMAN SUBANG PERMAI,47600,SUBANG JAYA,SELANGOR,,
,,,,41,JALAN USJ 1/25,TAMAN SUBANG PERMAI,47600,SUBANG JAYA,SELANGOR,,
,,,,57,JALAN USJ 1/26,TAMAN SUBANG PERMAI,47600,SUBANG JAYA,SELANGOR,,
,,,,8,JALAN USJ 1/27,TAMAN SUBANG PERMAI,47600,SUBANG JAYA,SELANGOR,,
,,,,4,JALAN USJ 1/27,TAMAN SUBANG PERMAI,47600,SUBANG JAYA,SELANGOR,,
,,,,31,JALAN USJ 1/27,TAMAN SUBANG PERMAI,47600,SUBANG JAYA,SELANGOR,,
,,,,19,JALAN USJ 1/28,TAMAN SUBANG PERMAI,47600,SUBANG JAYA,SELANGOR,,
,,,,88,JALAN USJ 1/2A,TAMAN SUBANG PERMAI,47600,SUBANG JAYA,SELANGOR,,
,,,,17,JALAN USJ 1/2B,TAMAN SUBANG PERMAI,47600,SUBANG JAYA,SELANGOR,,
,,,,5,JALAN USJ 1/2E,TAMAN SUBANG PERMAI,47600,SUBANG JAYA,SELANGOR,,
,,,,9,JALAN USJ 1/2F,TAMAN SUBANG PERMAI,47600,SUBANG JAYA,SELANGOR,,
,,,,41,JALAN USJ 1/31,TAMAN SUBANG PERMAI,47600,SUBANG JAYA,SELANGOR,,
,,,,22,JALAN USJ 1/6B,TAMAN SUBANG PERMAI,47600,SUBANG JAYA,SELANGOR,,
,,,,35,JALAN USJ 1/9,TAMAN SUBANG PERMAI,47600,SUBANG JAYA,SELANGOR,,
,,,,17,JALAN USJ 1/9,TAMAN SUBANG PERMAI,47600,SUBANG JAYA,SELANGOR,,
,,,,15,JALAN USJ 2/2K,USJ 2,47600,SUBANG JAYA,SELANGOR,,
,,,,12,JALAN USJ 1/3B,,47600,SUBANG JAYA,SELANGOR,,
,,,,28,JALAN TP 1/2,TAMAN PERINDUSTRIAN USJ RESIDENTIAL AREA,47600,SUBANG JAYA,SELANGOR,,
,,,SUBANG PERDANA GOODYEAR COURT 1,,JALAN USJ 6/1,USJ 6,47610,SUBANG JAYA,SELANGOR,,
,,,IMPIAN MERIDIAN CONDOMINIUM,,JALAN SUBANG 1,USJ 1,47600,SUBANG JAYA,SELANGOR,,
,,,WISMA BNG,1 & 3,JALAN USJ 1/19,TAMAN SUBANG PERMAI,47600,SUBANG JAYA,SELANGOR,,
,G,,,11,JALAN USJ 1/19,USJ 1,47600,SUBANG JAYA,SELANGOR,,
,,,,55,JALAN USJ 1/26,TAMAN SUBANG PERMAI,47600,SUBANG JAYA,SELANGOR,,
,,,,1,JALAN USJ 1/4K,TAMAN SUBANG MEWAH,47600,SUBANG JAYA,SELANGOR,,
,,,,80,JALAN USJ 1/2A,USJ 1,47600,SUBANG JAYA,SELANGOR,,
,LG,19,DAMEN USJ,1,PERSIARAN KEWAJIPAN,USJ 1,47600,SUBANG JAYA,SELANGOR,,
,LG,16,DA MEN MALL,1,PERSIARAN KEWAJIPAN,USJ 1,47600,SUBANG JAYA,SELANGOR,,
,15,,MENARA SUMMIT,,PERSIARAN KEWAJIPAN,USJ 1,47600,SUBANG JAYA,SELANGOR,,
,,,SEGI COLLEGE SUBANG JAYA,,PERSIARAN KEWAJIPAN USJ 1,TAMAN PERINDUSTRIAN UEP,47600,SUBANG JAYA,SELANGOR,,
K,10,11,MERANTI APARTMENT,,PERSIARAN SUBANG MEWAH,USJ 1,47600,SUBANG JAYA,SELANGOR,,
,,,,23,JALAN USJ 2/1,USJ 2,47600,SUBANG JAYA,SELANGOR,,
,,,,147,JALAN USJ 2/1,USJ 2,47600,SUBANG JAYA,SELANGOR,,
,,,,9,JALAN USJ 2/1,USJ 2,47600,SUBANG JAYA,SELANGOR,,
,,,,12,JALAN USJ 2/2A,USJ 2,47600,SUBANG JAYA,SELANGOR,,
,,,,69,JALAN USJ 2/2D,USJ 2,47600,SUBANG JAYA,SELANGOR,,
,,,,73,JALAN USJ 2/2D,USJ 2,47600,SUBANG JAYA,SELANGOR,,
,,,,57,JALAN USJ 2/2D,USJ 2,47600,SUBANG JAYA,SELANGOR,,
,,,,49,JALAN USJ 2/2D,USJ 2,47600,SUBANG JAYA,SELANGOR,,
,,,,17,JALAN USJ 2/2D,USJ 2,47600,SUBANG JAYA,SELANGOR,,
,,,,41,JALAN USJ 2/2D,USJ 2,47600,SUBANG JAYA,SELANGOR,,
,,,,17,JALAN USJ 2/2E,USJ 2,47600,SUBANG JAYA,SELANGOR,,
,,,,43,JALAN USJ 2/2F,USJ 2,47600,SUBANG JAYA,SELANGOR,,
,,,,18,JALAN USJ 2/2G,USJ 2,47600,SUBANG JAYA,SELANGOR,,
,,,,50,JALAN USJ 2/2G,USJ 2,47600,SUBANG JAYA,SELANGOR,,
,,,,60,JALAN USJ 2/2G,USJ 2,47600,SUBANG JAYA,SELANGOR,,
,,,,48,JALAN USJ 2/2G,USJ 2,47600,SUBANG JAYA,SELANGOR,,
,,,,48,JALAN USJ 2/2G,USJ 2,47600,SUBANG JAYA,SELANGOR,,
,,,,17,JALAN USJ 2/2J,USJ 2,47600,SUBANG JAYA,SELANGOR,,
,,,,19,jALAN USJ 2/2L,USJ 2,47600,SUBANG JAYA,SELANGOR,,
,,,,42A,JALAN USJ 2/2L,USJ 2,47600,SUBANG JAYA,SELANGOR,,
,,,,11A,JALAN USJ 2/2M,USJ 2,47600,SUBANG JAYA,SELANGOR,,
,,,,143,JALAN USJ 2/3,USJ 2,47600,SUBANG JAYA,SELANGOR,,
,,,,59,JALAN USJ 2/3,USJ 2,47600,SUBANG JAYA,SELANGOR,,
,,,,18,JALAN USJ 2/4,USJ 2,47600,SUBANG JAYA,SELANGOR,,
,,,,6,JALAN USJ 2/4M,USJ 2,47600,SUBANG JAYA,SELANGOR,,
,,,,47,JALAN USJ 2/4,USJ 2,47600,SUBANG JAYA,SELANGOR,,
,,,,6,JALAN USJ 2/4A,USJ 2,47600,SUBANG JAYA,SELANGOR,,
,,,,3,JALAN USJ 2/4A,USJ 2,47600,SUBANG JAYA,SELANGOR,,
,,,,19,JALAN USJ 2/4C,USJ 2,47600,SUBANG JAYA,SELANGOR,,
,,,,17,JALAN USJ 2/4C,USJ 2,47600,SUBANG JAYA,SELANGOR,,
,,,,15,JALAN USJ 2/4D,USJ 2,47600,SUBANG JAYA,SELANGOR,,
,,,,6,JALAN USJ 2/4D,USJ 2,47600,SUBANG JAYA,SELANGOR,,
,,,,10,JALAN USJ 2/4G,USJ 2,47600,SUBANG JAYA,SELANGOR,,
,,,,47,JALAN USJ 2/4G,USJ 2,47600,SUBANG JAYA,SELANGOR,,
,,,,7,JALAN USJ 2/4J,USJ 2,47600,SUBANG JAYA,SELANGOR,,
,,,,8,JALAN USJ 2/4L,USJ 2,47600,SUBANG JAYA,SELANGOR,,
,,,,18,JALAN USJ 2/4L,USJ 2,47600,SUBANG JAYA,SELANGOR,,
,,,,22,JALAN USJ 2/4L,USJ 2,47600,SUBANG JAYA,SELANGOR,,
,,,,,JALAN USJ 2/4L,USJ 2,47600,SUBANG JAYA,SELANGOR,,
,,,,77,JALAN USJ 2/4M,USJ 2,47600,SUBANG JAYA,SELANGOR,,
,,,,5,JALAN USJ 2/4N,USJ 2,47600,SUBANG JAYA,SELANGOR,,
,,,,43,JALAN USJ 2/4N,TAMAN SEAFIELD,47600,SUBANG JAYA,SELANGOR,,
,,,,101,JALAN USJ 2/4P,USJ 2,47600,SUBANG JAYA,SELANGOR,,
,,,,40,JALAN USJ 2/4P,USJ 2,47600,SUBANG JAYA,SELANGOR,,
,,,,99,JALAN USJ 2/4P,USJ 2,47600,SUBANG JAYA,SELANGOR,,
,,,,17,JALAN USJ 2/4P,USJ 2,47600,SUBANG JAYA,SELANGOR,,
,,,,28,JALAN USJ 2/4P,USJ 2,47600,SUBANG JAYA,SELANGOR,,
,,,,79,JALAN USJ 2/4Q,USJ 2,47600,SUBANG JAYA,SELANGOR,,
,,,,88,JALAN USJ 2/4Q,USJ 2,47600,SUBANG JAYA,SELANGOR,,
,,,,48,JALAN USJ 2/4R,USJ 2,47600,SUBANG JAYA,SELANGOR,,
,,,,5,JALAN USJ 2/4R,USJ 2,47600,SUBANG JAYA,SELANGOR,,
,,,,25,JALAN USJ 2/4R,USJ 2,47600,SUBANG JAYA,SELANGOR,,
,,,,17,JALAN USJ 2/4S,USJ 2,47600,SUBANG JAYA,SELANGOR,,
,,,,95,JALAN USJ 2/5,USJ 2,47600,SUBANG JAYA,SELANGOR,,
,,,,69,JALAN USJ 2/5,USJ 2,47600,SUBANG JAYA,SELANGOR,,
,,,,53,JALAN USJ 2/5A,USJ 2,47600,SUBANG JAYA,SELANGOR,,
,,,,29,JALAN USJ 2/5A,USJ 2,47600,SUBANG JAYA,SELANGOR,,
,,,,71,JALAN USJ 2/5A,USJ 2,47600,SUBANG JAYA,SELANGOR,,
,,,,46,JALAN USJ 2/5A,USJ 2,47600,SUBANG JAYA,SELANGOR,,
,,,,26,JALAN USJ 2/5B,USJ 2,47600,SUBANG JAYA,SELANGOR,,
,,,,18,JALAN USJ 2/5C,USJ 2,47600,SUBANG JAYA,SELANGOR,,
,,,,9,JALAN USJ 2/5C,USJ 2,47600,SUBANG JAYA,SELANGOR,,
,,,,2,JALAN USJ 2/5C,USJ 2,47600,SUBANG JAYA,SELANGOR,,
,,,,66,JALAN USJ 2/5D,USJ 2,47600,SUBANG JAYA,SELANGOR,,
,,,,50,JALAN USJ 2/5D,USJ 2,47600,SUBANG JAYA,SELANGOR,,
,,,,51,JALAN USJ 2/5D,USJ 2,47600,SUBANG JAYA,SELANGOR,,
,,,,54,JALAN USJ 2/5D,USJ 2,47600,SUBANG JAYA,SELANGOR,,
,,,,,JALAN USJ 2/5E,USJ 2,47600,SUBANG JAYA,SELANGOR,,
,,,,70,JALAN USJ 2/5E,USJ 2,47600,SUBANG JAYA,SELANGOR,,
,,,,15,JALAN USJ 2/5F,USJ 2,47600,SUBANG JAYA,SELANGOR,,
,,,,88,JALAN PJS 10/11A,USJ 2,47600,SUBANG JAYA,SELANGOR,,
,,,,49,JALAN USJ 2/5F,USJ 2,47600,SUBANG JAYA,SELANGOR,,
,,,,8,JALAN USJ 2/5F,USJ 2,47600,SUBANG JAYA,SELANGOR,,
,,,,82,JALAN USJ 2/5F,USJ 2,47600,SUBANG JAYA,SELANGOR,,
,,,,11,JALAN USJ 2/5H,USJ 2,47600,SUBANG JAYA,SELANGOR,,
,,,,54,JALAN USJ 2/5H,USJ 2,47600,SUBANG JAYA,SELANGOR,,
,,,,37,JALAN USJ 2/5H,USJ 2,47600,SUBANG JAYA,SELANGOR,,
,,,,42,JALAN USJ 2/5H,USJ 2,47600,SUBANG JAYA,SELANGOR,,
,,,,22,JALAN USJ 2/5J,USJ 2,47600,SUBANG JAYA,SELANGOR,,
,,,,20,JALAN USJ 2/5J,USJ 2,47600,SUBANG JAYA,SELANGOR,,
,,,,12,JALAN USJ 2/5K,USJ 2,47600,SUBANG JAYA,SELANGOR,,
,,,,61,JALAN USJ 2/5K,USJ 2,47600,SUBANG JAYA,SELANGOR,,
,,,,28,JALAN USJ 2/5L,USJ 2,47600,SUBANG JAYA,SELANGOR,,
,,,,75,JALAN USJ 2/6,USJ 2,47600,SUBANG JAYA,SELANGOR,,
,,,,8,JALAN USJ 2/6A,USJ 2,47600,SUBANG JAYA,SELANGOR,,
,,,,3,JALAN USJ 2/6B,USJ 2,47600,SUBANG JAYA,SELANGOR,,
,,,,16,JALAN USJ 2/6G USJ 2,USJ 2,47600,SUBANG JAYA,SELANGOR,,
,,,,17,JALAN USJ 2/6G,USJ 2,47600,SUBANG JAYA,SELANGOR,,
,,,,103,JALAN USJ 3/2,USJ 3,47600,SUBANG JAYA,SELANGOR,,
,,,,25,JALAN USJ 2/5,USJ 2,47600,SUBANG JAYA,SELANGOR,,
,,,,230,JALAN USJ 3/4,USJ 3,47600,SUBANG JAYA,SELANGOR,,
,,,,19,JALAN USJ 3A/10,USJ 3A,47600,SUBANG JAYA,SELANGOR,,
,,,,25,JALAN USJ 3/1,USJ 3,47600,SUBANG JAYA,SELANGOR,,
,,,,9,JALAN USJ 3/1A,USJ 3,47600,SUBANG JAYA,SELANGOR,,
,,,,4,JALAN USJ 3/1B,USJ 3,47600,SUBANG JAYA,SELANGOR,,
,,,,12,JALAN USJ 3/1C,USJ 3,47600,SUBANG JAYA,SELANGOR,,
,,,,7,JALAN USJ 3/1D,USJ 3,47600,SUBANG JAYA,SELANGOR,,
,,,,39,JALAN USJ 3/1E,USJ 3,47600,SUBANG JAYA,SELANGOR,,
,,,,12,JALAN USJ 3/1F,USJ 3,47600,SUBANG JAYA,SELANGOR,,
,,,,50,JALAN USJ 3/1F,USJ 3,47600,SUBANG JAYA,SELANGOR,,
,,,,45,JALAN USJ 3/1F,USJ 3,47600,SUBANG JAYA,SELANGOR,,
,,,,44,JALAN USJ 3/1F,USJ 3,47600,SUBANG JAYA,SELANGOR,,
,,,,4,JALAN USJ 3/1G,USJ 3,47600,SUBANG JAYA,SELANGOR,,
,,,,5,JALAN USJ 3/1G,USJ 3,47600,SUBANG JAYA,SELANGOR,,
,,,,49,JALAN USJ 3/1G,USJ 3,47600,SUBANG JAYA,SELANGOR,,
,,,,15,JALAN USJ 3/1G,USJ 3,47600,SUBANG JAYA,SELANGOR,,
,,,,47,JALAN USJ 3/1H,USJ 3,47600,SUBANG JAYA,SELANGOR,,
,,,,1,JALAN USJ 3/2,USJ 3,47600,SUBANG JAYA,SELANGOR,,
,,,,11A,JALAN USJ 3/2A,USJ 3,47600,SUBANG JAYA,SELANGOR,,
,,,,27,JALAN USJ 3/2A,USJ 3,47600,SUBANG JAYA,SELANGOR,,
,,,,15,JALAN USJ 3/2B,USJ 3,47600,SUBANG JAYA,SELANGOR,,
,,,,50,JALAN USJ 3/2C,USJ 3,47600,SUBANG JAYA,SELANGOR,,
,,,,29,JALAN USJ 3/2C,USJ 3,47600,SUBANG JAYA,SELANGOR,,
,,,,21,JALAN USJ 3/2C,USJ 3,47600,SUBANG JAYA,SELANGOR,,
,,,,12,JALAN USJ 3/2D,USJ 3,47600,SUBANG JAYA,SELANGOR,,
,,,,9,JALAN USJ 3/2G,USJ 3,47600,SUBANG JAYA,SELANGOR,,
,,,,53,JALAN USJ 3/3,USJ 3,47600,SUBANG JAYA,SELANGOR,,
,,,,55,JALAN USJ 3/3,USJ 3,47600,SUBANG JAYA,SELANGOR,,
,,,,19,JALAN USJ 3/3A,USJ 3,47600,SUBANG JAYA,SELANGOR,,
,,,,5,JALAN USJ 3/3A,USJ 3,47600,SUBANG JAYA,SELANGOR,,
,,,,26,JALAN USJ 3/3H,USJ 3,47600,SUBANG JAYA,SELANGOR,,
,,,,14,JALAN USJ 3/3L,USJ 3,47600,SUBANG JAYA,SELANGOR,,
,,,,11,JALAN USJ 3/3P,USJ 3,47600,SUBANG JAYA,SELANGOR,,
,,,,19,JALAN USJ 3/3R,USJ 3,47600,SUBANG JAYA,SELANGOR,,
,,,,8,JALAN USJ 3/4,USJ 3,47600,SUBANG JAYA,SELANGOR,,
,,,,142,JALAN USJ 3/4,USJ 3,47600,SUBANG JAYA,SELANGOR,,
,,,,14,JALAN USJ 3/4,USJ 3,47600,SUBANG JAYA,SELANGOR,,
,,,,38,JALAN USJ 3/4,USJ 3,47600,SUBANG JAYA,SELANGOR,,
,,,,36,JALAN USJ 3/4A,USJ 3,47600,SUBANG JAYA,SELANGOR,,
,,,,29,JALAN USJ 3/4B,USJ 3,47600,SUBANG JAYA,SELANGOR,,
,,,,73,JALAN USJ 3/4B,USJ 3,47600,SUBANG JAYA,SELANGOR,,
,,,,231,JALAN USJ 3/4B,USJ 3,47600,SUBANG JAYA,SELANGOR,,
,,,,28,JALAN USJ 3/4H,USJ 3,47600,SUBANG JAYA,SELANGOR,,
,,,,15,JALAN USJ 3/4L,USJ 3,47600,SUBANG JAYA,SELANGOR,,
,,,,5,JALAN USJ 3/4M,USJ 3,47600,SUBANG JAYA,SELANGOR,,
,,,,6,JALAN USJ 3/4P,USJ 3,47600,SUBANG JAYA,SELANGOR,,
,,,,24,JALAN USJ 3/4P,USJ 3,47600,SUBANG JAYA,SELANGOR,,
,,,,4,JALAN USJ 3/4S,USJ 3,47600,SUBANG JAYA,SELANGOR,,
,,,,11,JALAN USJ 3/4W,USJ 3,47600,SUBANG JAYA,SELANGOR,,
,,,,10,JALAN USJ 3/4W,USJ 3,47600,SUBANG JAYA,SELANGOR,,
,,,,17,JALAN USJ 3/4X,USJ 3,47600,SUBANG JAYA,SELANGOR,,
,,,,7,JALAN USJ 3/4X,USJ 3,47600,SUBANG JAYA,SELANGOR,,
,,,,6,JALAN USJ 3/4Y,USJ 3,47600,SUBANG JAYA,SELANGOR,,
,,,,48,JALAN USJ 3/1F,USJ 3,47600,SUBANG JAYA,SELANGOR,,
,,,,16,JALAN USJ 3A/4,USJ 3,47600,SUBANG JAYA,SELANGOR,,
,,,,2,JALAN USJ 3A/4,USJ 3,47600,SUBANG JAYA,SELANGOR,,
,,,,11,JALAN USJ 3A/4,USJ 3,47600,SUBANG JAYA,SELANGOR,,
,,,,37,JALAN USJ 3A/5,USJ 3,47600,SUBANG JAYA,SELANGOR,,
,,,,12,JALAN USJ 3A/5,USJ 3,47600,SUBANG JAYA,SELANGOR,,
,,,,26,JALAN USJ 3A/5,USJ 3,47600,SUBANG JAYA,SELANGOR,,
,,,,56,JALAN USJ 3A/7,USJ 3,47600,SUBANG JAYA,SELANGOR,,
,,,,69,JALAN USJ 3A/7,USJ 3,47600,SUBANG JAYA,SELANGOR,,
,,,,31,JALAN USJ 3A/8,USJ 3,47600,SUBANG JAYA,SELANGOR,,
,,,,60,JALAN USJ 3A/8,USJ 3,47600,SUBANG JAYA,SELANGOR,,
,,,,21,JALAN USJ 3A/9,USJ 3,47600,SUBANG JAYA,SELANGOR,,
,,,,17,JALAN USJ 3A/9,USJ 3,47600,SUBANG JAYA,SELANGOR,,
,,,,28,JALAN USJ 3A/9,USJ 3,47600,SUBANG JAYA,SELANGOR,,
,,,,2,JALAN USJ 3B/2,USJ 3,47600,SUBANG JAYA,SELANGOR,,
,,,,3,JALAN USJ 3B/4,USJ 3,47600,SUBANG JAYA,SELANGOR,,
,,,,2,JALAN USJ 3C/2,USJ 3,47600,SUBANG JAYA,SELANGOR,,
,,,,10,JALAN USJ 3C/2,USJ 3,47600,SUBANG JAYA,SELANGOR,,
,,,,62A,JALAN USJ 3C/4,USJ 3,47600,SUBANG JAYA,SELANGOR,,
,,,,40,JALAN USJ 3C/4,USJ 3,47600,SUBANG JAYA,SELANGOR,,
,,,,17,JALAN USJ 3C/5,USJ 3,47600,SUBANG JAYA,SELANGOR,,
,,,,2,JALAN USJ 3C/6,USJ 3,47600,SUBANG JAYA,SELANGOR,,
,,,,40,JALAN USJ 3C/7,USJ 3,47600,SUBANG JAYA,SELANGOR,,
,,,,8,JALAN USJ 3C/7,USJ 3,47600,SUBANG JAYA,SELANGOR,,
,,,,42,JALAN USJ 3D/2,USJ 3,47600,SUBANG JAYA,SELANGOR,,
,,,,17,JALAN USJ 3D/3,USJ 3,47600,SUBANG JAYA,SELANGOR,,
,,,,LOT 26070,JALAN USJ 3D/6,USJ 3,47600,SUBANG JAYA,SELANGOR,,
,,,,47,JALAN USJ 3D/6,USJ 3,47600,SUBANG JAYA,SELANGOR,,
,,,,19,JALAN USJ 3B/6,USJ 3,47600,SUBANG JAYA,SELANGOR,,
,,,,36,JALAN USJ 4/9D,USJ 4,47600,SUBANG JAYA,SELANGOR,,
,,,,21,JALAN USJ 4/1A,USJ 4,47600,SUBANG JAYA,SELANGOR,,
,,,,40,JALAN USJ 4/1D,USJ 4,47600,SUBANG JAYA,SELANGOR,,
,,,,39,JALAN USJ 4/1F,USJ 4,47600,SUBANG JAYA,SELANGOR,,
,,,,17,JALAN USJ 4/1F,USJ 4,47600,SUBANG JAYA,SELANGOR,,
,,,,40,JALAN USJ 4/1G,USJ 4,47600,SUBANG JAYA,SELANGOR,,
,,,,33,JALAN USJ 4/1G,USJ 4,47600,SUBANG JAYA,SELANGOR,,
,,,,51,JALAN USJ 4/1G,USJ 4,47600,SUBANG JAYA,SELANGOR,,
,,,,8,JALAN USJ 4/1H,USJ 4,47600,SUBANG JAYA,SELANGOR,,
,,,,48,JALAN USJ 4/1H,USJ 4,47600,SUBANG JAYA,SELANGOR,,
,,,,11,JALAN USJ 4/1J,USJ 4,47600,SUBANG JAYA,SELANGOR,,
,,,,52,JALAN USJ 4/1J,USJ 4,47600,SUBANG JAYA,SELANGOR,,
,,,,38,JALAN USJ 4/1J,USJ 4,47600,SUBANG JAYA,SELANGOR,,
,,,,15,JALAN USJ 4/1K,USJ 4,47600,SUBANG JAYA,SELANGOR,,
,,,,1,JALAN USJ 4/1L,USJ 4,47600,SUBANG JAYA,SELANGOR,,
,,,,8,JALAN USJ 4/2,USJ 4,47600,SUBANG JAYA,SELANGOR,,
,,,,44,JALAN USJ 4/3,USJ 4,47600,SUBANG JAYA,SELANGOR,,
,,,,10,JALAN USJ 4/3,USJ 4,47600,SUBANG JAYA,SELANGOR,,
,,,,21,JALAN USJ 4/4A,USJ 4,47600,SUBANG JAYA,SELANGOR,,
,,,,46,JALAN USJ 4/4A,USJ 4,47600,SUBANG JAYA,SELANGOR,,
,,,,50,JALAN USJ 4/4B,USJ 4,47600,SUBANG JAYA,SELANGOR,,
,,,,53,JALAN USJ 4/4B,USJ 4,47600,SUBANG JAYA,SELANGOR,,
,,,,32,JALAN USJ 4/4B,USJ 4,47600,SUBANG JAYA,SELANGOR,,
,,,,34,JALAN USJ 4/4B,USJ 4,47600,SUBANG JAYA,SELANGOR,,
,,,,54,JALAN USJ 4/4C,USJ 4,47600,SUBANG JAYA,SELANGOR,,
,,,,42,JALAN USJ 4/4C,USJ 4,47600,SUBANG JAYA,SELANGOR,,
,,,,,JALAN USJ 4/6B,USJ 4,47600,SUBANG JAYA,SELANGOR,,
,,,,5,JALAN USJ 4/6E,USJ 4,47600,SUBANG JAYA,SELANGOR,,
,,,,50,JALAN USJ 4/6E,USJ 4,47600,SUBANG JAYA,SELANGOR,,
,,,,52,JALAN USJ 4/6E,USJ 4,47600,SUBANG JAYA,SELANGOR,,
,,,,6,JALAN USJ 4/6G,USJ 4,47600,SUBANG JAYA,SELANGOR,,
,,,,20,JALAN USJ 4/7,USJ 4,47600,SUBANG JAYA,SELANGOR,,
,,,,37,JALAN USJ 4/9A,USJ 4,47600,SUBANG JAYA,SELANGOR,,
,,,,56,JALAN USJ 4/9C,USJ 4,47600,SUBANG JAYA,SELANGOR,,
Q,3,5,SUBANG PERDANA GOODYEAR COURT,,JALAN USJ 6/1,USJ 6,47610,SUBANG JAYA,SELANGOR,,
D3,3,20,,20,JALAN KEWAJIPAN,USJ 8,47600,SUBANG JAYA,SELANGOR,,
,,,SUBANG PERDANA GOODYEAR COURT 4,,PERSIARAN KEWAJIPAN,USJ 8,47610,SUBANG JAYA,SELANGOR,,
F,,,PANGSAPURI ANGSANA,,0,TAMAN SUBANG MEWAH,47610,SUBANG JAYA,SELANGOR,,
H,10,3,PANGSAPURI ANGSANA,,PERSIARAN SUBANG MEWAH,TAMAN SUBANG MEWAH,47500,SUBANG JAYA,SELANGOR,,
,,,,17,JALAN USJ HEIGHTS 2/2C,USJ HEIGHTS,47500,SUBANG JAYA,SELANGOR,,
,,,TAMAN BUKIT PELANGI APARTMENT,,0,TAMAN BUKIT PELANGI,40150,SHAH ALAM,SELANGOR,,
,,,,97,JALAN PINGGIRAN USJ 3/4,TAMAN PINGGIRAN USJ,47600,SUBANG JAYA,SELANGOR,,
,,,,19,JALAN PINGGIRAN USJ 3/8,TAMAN PINGGIRAN USJ,47600,SUBANG JAYA,SELANGOR,,
D6,6,5,PANGSAPURI ANGSANA,,PERSIARAN SUBANG MEWAH,USJ 1,47500,SUBANG JAYA,SELANGOR,,
E,3,7,PANGSAPURI ANGSANA,7,PERSIARAN SUBANG MEWAH,TAMAN SUBANG MEWAH,47610,SUBANG JAYA,SELANGOR,,
,,,PANGSAPURI ANGSANA,17,PERSIARAN SUBANG MEWAH,TAMAN SUBANG MEWAH,47610,SUBANG JAYA,SELANGOR,,
A4,4,3,PANGSAPURI ANGSANA,3,PERSIARAN SUBANG MEWAH,TAMAN SUBANG MEWAH,47610,SUBANG JAYA,SELANGOR,,
G1,1,4,PANGSAPURI ANGSANA,4,PERSIARAN SUBANG MEWAH,TAMAN SUBANG MEWAH,47610,SUBANG JAYA,SELANGOR,,
A5,5,8,PANGSAPURI ANGSANA,8,PERSIARAN SUBANG MEWAH,TAMAN SUBANG MEWAH,47610,SUBANG JAYA,SELANGOR,,
G2,2,3,PANGSAPURI ANGSANA,3,PERSIARAN SUBANG MEWAH,TAMAN SUBANG MEWAH,47610,SUBANG JAYA,SELANGOR,,
C11,11,13,PANGSAPURI ANGSANA,13,PERSIARAN SUBANG MEWAH,TAMAN SUBANG MEWAH,47610,SUBANG JAYA,SELANGOR,,
A5,5,9,PANGSAPURI ANGSANA,9,PERSIARAN SUBANG MEWAH,TAMAN SUBANG MEWAH,47610,SUBANG JAYA,SELANGOR,,
F2,2,20,PANGSAPURI ANGSANA,20,PERSIARAN SUBANG MEWAH,TAMAN SUBANG MEWAH,47610,SUBANG JAYA,SELANGOR,,
,,,PANGSAPURI ANGSANA,,0,TAMAN SUBANG MEWAH,47610,SUBANG JAYA,SELANGOR,,
G10,10,5,PANGSAPURI ANGSANA,5,PERSIARAN SUBANG MEWAH,TAMAN SUBANG MEWAH,47610,SUBANG JAYA,SELANGOR,,
H4,4,15,PANGSAPURI ANGSANA,15,PERSIARAN SUBANG MEWAH,TAMAN SUBANG MEWAH,47610,SUBANG JAYA,SELANGOR,,
B,,,TAMAN BUKIT PELANGI APARTMENT,,JALAN TBP 2,TAMAN BUKIT PELANGI,47610,SUBANG JAYA,SELANGOR,,
,3,1A-D,PUSAT PERNIAGAAN USJ 10,1A-D,JALAN USJ 10/1A,USJ 10,47610,SUBANG JAYA,SELANGOR,,
H,,,,520,PERSIARAN SUBANG MEWAH,TAMAN SUBANG PERMAI,47600,SUBANG JAYA,SELANGOR,,
,,,GOODYEAR COURT 7,,JALAN USJ 14/1,USJ 14,47610,SUBANG JAYA,SELANGOR,,
,,,GOODYEAR COURT 7,,JALAN USJ 14/1,USJ 14,47610,SUBANG JAYA,SELANGOR,,
,,,GOODYEAR COURT 7,,JALAN USJ 14/1,USJ 14,47610,SUBANG JAYA,SELANGOR,,
,,,GOODYEAR COURT 7,,JALAN USJ 14/1,USJ 14,47610,SUBANG JAYA,SELANGOR,,
,,,GOODYEAR COURT 7,,JALAN USJ 14/1,USJ 14,47610,SUBANG JAYA,SELANGOR,,
,,,GOODYEAR COURT 7,,JALAN USJ 14/1,USJ 14,47610,SUBANG JAYA,SELANGOR,,
,,,GOODYEAR COURT 7,,JALAN USJ 14/1,USJ 14,47610,SUBANG JAYA,SELANGOR,,
,,,GOODYEAR COURT 7,,JALAN USJ 14/1,USJ 14,47610,SUBANG JAYA,SELANGOR,,
,,,GOODYEAR COURT 7,,JALAN USJ 14/1,USJ 14,47610,SUBANG JAYA,SELANGOR,,
,,,GOODYEAR COURT 7,,JALAN USJ 14/1,USJ 14,47610,SUBANG JAYA,SELANGOR,,
,,,GOODYEAR COURT 7,,JALAN USJ 14/1,USJ 14,47610,SUBANG JAYA,SELANGOR,,
N1,2,12,GOODYEAR COURT 7,,JALAN USJ 14/1,USJ 14,47610,SUBANG JAYA,SELANGOR,,
,,,,20,JALAN USJ 5/1,USJ 5,47610,SUBANG JAYA,SELANGOR,,
,,,,42,JALAN USJ 5/1,USJ 5,47610,SUBANG JAYA,SELANGOR,,
,,,,12,JALAN USJ 5/1,USJ 5,47610,SUBANG JAYA,SELANGOR,,
,,,,56,JALAN USJ 5/1,USJ 5,47610,SUBANG JAYA,SELANGOR,,
,,,,29,JALAN USJ 5/1A,USJ 5,47610,SUBANG JAYA,SELANGOR,,
,,,,62,JALAN USJ 5/1A,USJ 5,47610,SUBANG JAYA,SELANGOR,,
,,,,25,JALAN USJ 5/1A,USJ 5,47610,SUBANG JAYA,SELANGOR,,
,,,,9,JALAN USJ 5/1A,USJ 5,47610,SUBANG JAYA,SELANGOR,,
,,,,61,JALAN USJ 5/1A,USJ 5,47610,SUBANG JAYA,SELANGOR,,
,,,,17,JALAN USJ 5/1A,USJ 5,47610,SUBANG JAYA,SELANGOR,,
,,,,59,JALAN USJ 5/1A,USJ 5,47610,SUBANG JAYA,SELANGOR,,
,,,,68,JALAN USJ 5/1A,USJ 5,47610,SUBANG JAYA,SELANGOR,,
,,,,15,JALAN USJ 5/1C,USJ 5,47610,SUBANG JAYA,SELANGOR,,
,,,,41,JALAN USJ 5/1E,USJ 5,47610,SUBANG JAYA,SELANGOR,,
,,,,27,JALAN USJ 5/1G,USJ 5,47610,SUBANG JAYA,SELANGOR,,
,,,,1,JALAN USJ 5/1H,USJ 5,47610,SUBANG JAYA,SELANGOR,,
,,,,16,JALAN USJ 5/1K,USJ 5,47610,SUBANG JAYA,SELANGOR,,
,,,,3,JALAN USJ 5/1K,USJ 5,47610,SUBANG JAYA,SELANGOR,,
,,,,43,JALAN USJ 5/1K,USJ 5,47610,SUBANG JAYA,SELANGOR,,
,,,,25,JALAN USJ 5/2,USJ 5,47610,SUBANG JAYA,SELANGOR,,
,,,,35,JALAN USJ 5/2,USJ 5,47610,SUBANG JAYA,SELANGOR,,
,,,,18,JALAN USJ 5/2B,USJ 5,47610,SUBANG JAYA,SELANGOR,,
,,,,16,JALAN USJ 5/2C,USJ 5,47610,SUBANG JAYA,SELANGOR,,
,,,KUATERS SAMBEST,2732-2,JALAN USJ 5/1,USJ 5,47610,SUBANG JAYA,SELANGOR,,
,,,,5,JALAN USJ 5/3,USJ 5,47610,SUBANG JAYA,SELANGOR,,
,,,,46,JALAN USJ 5/3,USJ 5,47610,SUBANG JAYA,SELANGOR,,
,,,,42,JALAN USJ 5/3,USJ 5,47610,SUBANG JAYA,SELANGOR,,
,,,,2,JALAN USJ 5/3,USJ 5,47610,SUBANG JAYA,SELANGOR,,
,,,,2A,JALAN USJ 5/3B,USJ 5,47610,SUBANG JAYA,SELANGOR,,
,,,,18,JALAN USJ 5/3C,USJ 5,47610,SUBANG JAYA,SELANGOR,,
,,,,7,JALAN USJ 5/3D,USJ 5,47610,SUBANG JAYA,SELANGOR,,
,,,,7,JALAN USJ 5/3F,USJ 5,47610,SUBANG JAYA,SELANGOR,,
,,,,11A,JALAN USJ 5/4,USJ 5,47610,SUBANG JAYA,SELANGOR,,
,,,,2A,JALAN USJ 5/4,USJ 5,47610,SUBANG JAYA,SELANGOR,,
,,,,16,JALAN USJ 5/4B,USJ 5,47610,SUBANG JAYA,SELANGOR,,
,,,,6,JALAN USJ 5/1L,USJ 5,47610,SUBANG JAYA,SELANGOR,,
,,,MAJLIS PERBANDARAN SUBANG JAYA,,PERSIARAN PERPADUAN,USJ 5,47610,SUBANG JAYA,SELANGOR,,
,,,MAJLIS PERBANDARAN SUBANG JAYA,,PERSIARAN PERPADUAN,USJ 5,47610,SUBANG JAYA,SELANGOR,,
,,,"PEJABAT DATO'YDP, MPSJ",,PERSIARAN PERPADUAN,USJ 5,47610,SUBANG JAYA,SELANGOR,,
,,,MAJLIS PERBANDARAN SUBANG JAYA,,PERSIARAN PERPADUAN,USJ 5,47610,SUBANG JAYA,SELANGOR,,
,,,,,PERSIARAN PERPADUAN,USJ 5,47610,SUBANG JAYA,SELANGOR,,
,2,,MAJLIS PERBANDARAN SUBANG JAYA,,PERSIARAN PERPADUAN,USJ 5,47610,SUBANG JAYA,SELANGOR,,
,2,,MAJLIS PERBANDARAN SUBANG JAYA,,PERSIARAN PERPADUAN,USJ 5,47610,SUBANG JAYA,SELANGOR,,
,,,,59,JALAN USJ 6/4A,USJ 6,47610,SUBANG JAYA,SELANGOR,,
P,,,SUBANG PERDANA GOODYEAR COURT 2,,JALAN USJ 6/1,USJ 6,47610,SUBANG JAYA,SELANGOR,,
C,3,4,KUARTERS INSTITUSI PENDIDIKAN,,JALAN USJ 6/3,USJ 6,47610,SUBANG JAYA,SELANGOR,,
,,,SUBANG PERDANA GOODYEAR COURT 2,,JALAN USJ 6/1,USJ 6,47610,SUBANG JAYA,SELANGOR,,
1,3,7,SUBANG PERDANA GOODYEAR COURT 1,7,JALAN USJ 6/1,USJ 6,47610,SUBANG JAYA,SELANGOR,,
J,2,7,SUBANG PERDANA GOODYEAR COURT 1,7,JALAN USJ 6/1,USJ 6,47610,SUBANG JAYA,SELANGOR,,
K,1,7,SUBANG PERDANA GOODYEAR COURT 1,7,JALAN USJ 6/1,USJ 6,47610,SUBANG JAYA,SELANGOR,,
H,2,4,SUBANG PERDANA GOODYEAR COURT 1,4,JALAN USJ 6/1,USJ 6,47610,SUBANG JAYA,SELANGOR,,
P,1,6,SUBANG PERDANA GOODYEAR COURT 2,6,JALAN USJ 6/1,USJ 6,47610,SUBANG JAYA,SELANGOR,,
V,0,8,SUBANG PERDANA GOODYEAR COURT 2,8,JALAN USJ 6/1,USJ 6,47610,SUBANG JAYA,SELANGOR,,
M,1,3,SUBANG PERDANA GOODYEAR COURT 2,3,JALAN USJ 6/1,USJ 6,47610,SUBANG JAYA,SELANGOR,,
P,3,4,SUBANG PERDANA GOODYEAR COURT 2,4,JALAN USJ 6/1,USJ 6,47610,SUBANG JAYA,SELANGOR,,
,,,,40,JALAN USJ 6/1,USJ 6,47610,SUBANG JAYA,SELANGOR,,
,,,,104,JALAN USJ 6/1,USJ 6,47610,SUBANG JAYA,SELANGOR,,
,,,,78,JALAN USJ 6/1,USJ 6,47610,SUBANG JAYA,SELANGOR,,
,,,,43,JALAN USJ 6/1,USJ 6,47610,SUBANG JAYA,SELANGOR,,
,,,,2,JALAN USJ 6/1A,USJ 6,47610,SUBANG JAYA,SELANGOR,,
,,,,8,JALAN USJ 6/1D,USJ 6,47610,SUBANG JAYA,SELANGOR,,
,,,,43,JALAN USJ 6/2A,USJ 6,47610,SUBANG JAYA,SELANGOR,,
,,,,97,JALAN USJ 6/2A,USJ 6,47610,SUBANG JAYA,SELANGOR,,
,,,,2,JALAN USJ 6/2A,USJ 6,47610,SUBANG JAYA,SELANGOR,,
,,,,8,JALAN USJ 6/2A,USJ 6,47610,SUBANG JAYA,SELANGOR,,
,,,,79,JALAN USJ 6/2D,USJ 6,47610,SUBANG JAYA,SELANGOR,,
,,,,26,JALAN USJ 6/2E,USJ 6,47610,SUBANG JAYA,SELANGOR,,
,,,,,JALAN USJ 6/2G,USJ 6,47610,SUBANG JAYA,SELANGOR,,
,,,,10,JALAN USJ 6/2G,USJ 6,47610,SUBANG JAYA,SELANGOR,,
,,,,27,JALAN USJ 6/2G,USJ 6,47610,SUBANG JAYA,SELANGOR,,
,,,,33,JALAN USJ 6/2H,USJ 6,47610,SUBANG JAYA,SELANGOR,,
,,,,19,JALAN USJ 6/2H,USJ 6,47610,SUBANG JAYA,SELANGOR,,
,,,,57,JALAN USJ 6/2K,USJ 6,47610,SUBANG JAYA,SELANGOR,,
B,9,2,INDERA SUBANG,2,JALAN USJ 6/2L,USJ 6,47610,SUBANG JAYA,SELANGOR,,
,,,INDERA SUBANG,,,USJ 6,47610,SUBANG JAYA,SELANGOR,,
,,,INDERA SUBANG,,JALAN USJ 6/2L,USJ 6,47610,SUBANG JAYA,SELANGOR,,
,,,,12,JALAN USJ 6/2M,USJ 6,47610,SUBANG JAYA,SELANGOR,,
,,,,26,JALAN USJ 6/2R,USJ 6,47610,SUBANG JAYA,SELANGOR,,
,,,,10,JALAN USJ 6/2S,USJ 6,47610,SUBANG JAYA,SELANGOR,,
K,2,3,KUARTERS INSTITUSI PENDIDIKAN,3,JALAN USJ 6/3,USJ 6,47610,SUBANG JAYA,SELANGOR,,
D,,,KUARTERS INSTITUSI PENDIDIKAN,,JALAN USJ 6/3,USJ 6,47610,SUBANG JAYA,SELANGOR,,
,,,,34,JALAN USJ 6/3B,USJ 6,47610,SUBANG JAYA,SELANGOR,,
,,,,8,JALAN USJ 6/3B,USJ 6,47610,SUBANG JAYA,SELANGOR,,
,,,,51,JALAN USJ 6/3C,USJ 6,47610,SUBANG JAYA,SELANGOR,,
,,,,33,JALAN USJ 6/3D,USJ 6,47610,SUBANG JAYA,SELANGOR,,
,,,,63,JALAN USJ 6/3D,USJ 6,47610,SUBANG JAYA,SELANGOR,,
,,,,11,JALAN USJ 6/3D,USJ 6,47610,SUBANG JAYA,SELANGOR,,
,,,,149,JALAN USJ 6/4,USJ 6,47610,SUBANG JAYA,SELANGOR,,
,,,,137,JALAN USJ 6/4,USJ 6,47610,SUBANG JAYA,SELANGOR,,
,,,,23,JALAN USJ 6/4,USJ 6,47610,SUBANG JAYA,SELANGOR,,
,,,,34,JALAN USJ 6/4B,USJ 6,47610,SUBANG JAYA,SELANGOR,,
,,,,18,JALAN USJ 6/4D,USJ 6,47610,SUBANG JAYA,SELANGOR,,
,,,,24,JALAN USJ 6/4E,USJ 6,47610,SUBANG JAYA,SELANGOR,,
,,,,5,JALAN USJ 6/4E,USJ 6,47610,SUBANG JAYA,SELANGOR,,
,,,,21,JALAN USJ 6/4F,USJ 6,47610,SUBANG JAYA,SELANGOR,,
,,,,40,JALAN USJ 6/4F,USJ 6,47610,SUBANG JAYA,SELANGOR,,
,,,,41,JALAN USJ 6/4H,USJ 6,47610,SUBANG JAYA,SELANGOR,,
,,,,43,JALAN USJ 6/4H,USJ 6,47610,SUBANG JAYA,SELANGOR,,
,,,,11A,JALAN USJ 6/4K,USJ 6,47610,SUBANG JAYA,SELANGOR,,
,,,,15,JALAN USJ 6/5,USJ 6,47610,SUBANG JAYA,SELANGOR,,
,,,,117,JALAN USJ 6/6,USJ 6,47610,SUBANG JAYA,SELANGOR,,
,,,,125,JALAN USJ 6/6,USJ 6,47610,SUBANG JAYA,SELANGOR,,
,,,,35,JALAN USJ 6/6,USJ 6,47610,SUBANG JAYA,SELANGOR,,
,,,,6,JALAN USJ 6/6A,USJ 6,47610,SUBANG JAYA,SELANGOR,,
,,,,35,JALAN USJ 6/6A,USJ 6,47610,SUBANG JAYA,SELANGOR,,
,,,,34,JALAN USJ 6/6E,USJ 6,47610,SUBANG JAYA,SELANGOR,,
,,,,17,JALAN USJ 6/6G,USJ 6,47610,SUBANG JAYA,SELANGOR,,
,,,,21,JALAN USJ 6/6G,USJ 6,47610,SUBANG JAYA,SELANGOR,,
,,,,19,JALAN USJ 6/6K,USJ 6,47610,SUBANG JAYA,SELANGOR,,
,,,,17,JALAN USJ 6/6N,USJ 6,47610,SUBANG JAYA,SELANGOR,,
,,,,14,JALAN USJ 6/6N,USJ 6,47610,SUBANG JAYA,SELANGOR,,
,,,,11A,JALAN USJ 6/2J,USJ 6,47610,SUBANG JAYA,SELANGOR,,
,,,,19,JALAN USJ 6/2J,USJ 6,47610,SUBANG JAYA,SELANGOR,,
N,3,4,SUBANG PERDANA GOODYEAR COURT 2,,JALAN USJ 6/1,USJ 6,47610,SUBANG JAYA,SELANGOR,,
F1,4,1,SUBANG PERDANA GOODYEAR COURT 6,1,JALAN KEWAJIPAN,USJ 8,47610,SUBANG JAYA,SELANGOR,,
F4,1,6,SUBANG PERDANA GOODYEAR COURT 6,6,JALAN KEWAJIPAN,USJ 8,47610,SUBANG JAYA,SELANGOR,,
E,2,9,KUARTERS POLIS USJ 8,9,JALAN USJ 8/2,USJ 8,47610,SUBANG JAYA,SELANGOR,,
D,10,7,KUARTERS POLIS USJ 8,,JALAN USJ 8/2,USJ 8,47610,SUBANG JAYA,SELANGOR,,
,,2,,2,JALAN USJ 8/2A,USJ 8,47610,SUBANG JAYA,SELANGOR,,
,,,,23,JALAN USJ 8/2E,USJ 8,47610,SUBANG JAYA,SELANGOR,,
,,,SUBANG PERDANA GOODYEAR COURT 6,,OFF JALAN KEWAJIPAN USJ 8,USJ 8,47610,SUBANG JAYA,SELANGOR,,
H4,2,4,SUBANG PERDANA GOODYEAR COURT 6,,JALAN KEWAJIPAN,USJ 8,47610,SUBANG JAYA,SELANGOR,,
C,2,5,IPD SUBANG JAYA,5,PERSIARAN KEWAJIPAN,USJ 8,47610,SUBANG JAYA,SELANGOR,,
A1,2,5,SUBANG PERDANA GOODYEAR COURT 3,5,PERSIARAN KEWAJIPAN,USJ 8,47610,SUBANG JAYA,SELANGOR,,
,,1,SUBANG PERDANA GOODYEAR COURT 3,,PERSIARAN KEWAJIPAN,USJ 8,47610,SUBANG JAYA,SELANGOR,,
J3,3,4,SUBANG PERDANA GOODYEAR COURT 3,4,PERSIARAN KEWAJIPAN,USJ 8,47610,SUBANG JAYA,SELANGOR,,
C2,3,5,SUBANG PERDANA GOODYEAR COURT 3,5,PERSIARAN KEWAJIPAN,USJ 8,47610,SUBANG JAYA,SELANGOR,,
C4,1,2,SUBANG PERDANA GOODYEAR COURT 3,2,PERSIARAN KEWAJIPAN,USJ 8,47610,SUBANG JAYA,SELANGOR,,
C5,4,7,SUBANG PERDANA GOODYEAR COURT 3,,PERSIARAN KEWAJIPAN,USJ 8,47610,SUBANG JAYA,SELANGOR,,
C8,4,7,SUBANG PERDANA GOODYEAR COURT 3,7,PERSIARAN KEWAJIPAN,USJ 8,47610,SUBANG JAYA,SELANGOR,,
C2,1,8,SUBANG PERDANA GOODYEAR COURT 3,8,PERSIARAN KEWAJIPAN,USJ 8,47610,SUBANG JAYA,SELANGOR,,
C1,0,8,SUBANG PERDANA GOODYEAR COURT 3,8,PERSIARAN KEWAJIPAN,USJ 8,47610,SUBANG JAYA,SELANGOR,,
A1,2,4,SUBANG PERDANA GOODYEAR COURT 3,4,PERSIARAN KEWAJIPAN,USJ 8,47610,SUBANG JAYA,SELANGOR,,
B1,2,3,SUBANG PERDANA GOODYEAR COURT 3,3,PERSIARAN KEWAJIPAN,USJ 8,47610,SUBANG JAYA,SELANGOR,,
C2,3,3,SUBANG PERDANA GOODYEAR COURT 3,3,PERSIARAN KEWAJIPAN,USJ 8,47610,SUBANG JAYA,SELANGOR,,
D1,0,5,SUBANG PERDANA GOODYEAR COURT 4,5,PERSIARAN KEWAJIPAN,USJ 8,47610,SUBANG JAYA,SELANGOR,,
D1,1,1,SUBANG PERDANA GOODYEAR COURT 4,1,PERSIARAN KEWAJIPAN,USJ 8,47610,SUBANG JAYA,SELANGOR,,
D1,2,18,SUBANG PERDANA GOODYEAR COURT 4,18,PERSIARAN KEWAJIPAN,USJ 8,47610,SUBANG JAYA,SELANGOR,,
E2,1,6,SUBANG PERDANA GOODYEAR COURT 5,6,PERSIARAN KEWAJIPAN,USJ 8,47610,SUBANG JAYA,SELANGOR,,
F2,4,16,SUBANG PERDANA GOODYEAR COURT 6,,JALAN KEWAJIPAN,USJ 8,47610,SUBANG JAYA,SELANGOR,,
D2,3,1,SUBANG PERDANA GOODYEAR COURT 6,1,JALAN KEWAJIPAN,USJ 8,47610,SUBANG JAYA,SELANGOR,,
F2,1,4,SUBANG PERDANA GOODYEAR COURT 6,4,JALAN KEWAJIPAN,USJ 8,47610,SUBANG JAYA,SELANGOR,,
,,,,47,JALAN USJ 9/E,,47610,SUBANG JAYA,SELANGOR,,
,,,,18,JALAN USJ HEIGHTS 2/1B,USJ HEIGHTS,47500,SUBANG JAYA,SELANGOR,,
,,,,2A,JALAN USJ 1/1G,TAMAN SUBANG MEWAH,47600,SUBANG JAYA,SELANGOR,,
,,7,,7,JALAN USJ 10/1,TAIPAN BUSINESS CENTRE,47620,SUBANG JAYA,SELANGOR,,
,,,,52G,JALAN USJ 10/1B,TAMAN PERINDUSTRIAN UEP,47620,SUBANG JAYA,SELANGOR,,
,,26,,,JALAN USJ 10/1B,TAIPAN BUSINESS CENTRE,47620,SUBANG JAYA,SELANGOR,,
,,,,54,JALAN USJ 10/1E,TAIPAN BUSINESS CENTRE,47620,SUBANG JAYA,SELANGOR,,
,,,,15,JALAN USJ P/3C,,47620,SUBANG JAYA,SELANGOR,,
C,2,3,,,JALAN SM 1,TAMAN SUBANG MAS,47620,SUBANG JAYA,SELANGOR,,
,,,PANGSAPURI ANGSANA,,PERSIARAN SUBANG MEWAH,TAMAN SUBANG MEWAH,47610,SUBANG JAYA,SELANGOR,,
,,,,9,JALAN USJ 1/3,TAMAN SUBANG MEWAH,47600,SUBANG JAYA,SELANGOR,,
,,,,39-1 & 41-1,JALAN USJ 9/5P,SUBANG BUSINESS CENTRE,47620,SUBANG JAYA,SELANGOR,,
,1,34,,,JALAN USJ 9/5Q,SUBANG BUSINESS CENTRE,47620,SUBANG JAYA,SELANGOR,,
,,,PERODUA SERVICE CENTER SUBANG JAYA,678,PERSIARAN SUBANG PERMAI,SUNGAI PENAGA INDUSTRIAL PARK,47620,SUBANG JAYA,SELANGOR,,
,1,,RHB BANK UEP SUBANG JAYA,47 & 49,JALAN USJ 1/10,TAIPAN BUSINESS CENTRE,47620,SUBANG JAYA,SELANGOR,,
,,,,62-B,JALAN USJ 10/1B,TAIPAN BUSINESS CENTRE,47620,SUBANG JAYA,SELANGOR,,
,MEZZANINE FLOOR,,TAIPAN BUSINESS CENTRE,,JALAN USJ 10/1B,UEP SUBANG JAYA,47620,SUBANG JAYA,SELANGOR,,
,,,,66,JALAN USJ 10/1B,TAIPAN BUSINESS CENTRE,47620,SUBANG JAYA,SELANGOR,,
,,1,,1,JALAN USJ 10/1C,TAIPAN BUSINESS CENTRE,47620,SUBANG JAYA,SELANGOR,,
,,,,,JALAN USJ 10/1D,TAIPAN BUSINESS CENTRE,47620,SUBANG JAYA,SELANGOR,,
,,,,1,JALAN USJ 10/1F,TAIPAN BUSINESS CENTRE,47620,SUBANG JAYA,SELANGOR,,
,,,HOTEL NGINAP,55,JALAN USJ 10/1G,TAIPAN BUSINESS CENTRE,47620,SUBANG JAYA,SELANGOR,,
,,,FOLLOW ME,10,JALAN TP2,UEP SUBANG JAYA,47620,SUBANG JAYA,SELANGOR,,
,,,,38,JALAN TP 7/E,TAMAN PERINDUSTRIAN UEP,40400,SHAH ALAM,SELANGOR,,
,,,,32,JALAN TP 7/E,TAMAN PERINDUSTRIAN UEP,47620,SUBANG JAYA,SELANGOR,,
,7,7,,,JALAN USJ 9/5Q,SUBANG BUSINESS CENTRE,47620,SUBANG JAYA,SELANGOR,,
D,,,,,JALAN SM 1,TAMAN SUBANG MAS,47620,SUBANG JAYA,SELANGOR,,
C,2,7,,,JALAN SM1,TAMAN SUBANG MAS,47620,SUBANG JAYA,SELANGOR,,
,,,MENARA GENO,,JALAN SUBANG MAS,TAMAN SUBANG MAS,47620,SUBANG JAYA,SELANGOR,,
,,,MENARA GENO,,JALAN SUBANG MAS,TAMAN SUBANG MAS,47620,SUBANG JAYA,SELANGOR,,
,,,MENARA GENO,14-19,JALAN SUBANG MAS,TAMAN SUBANG MAS,47620,SUBANG JAYA,SELANGOR,,
A,4,1,MENARA SURIA,,JALAN SUBANG MAS,TAMAN SUBANG MAS,47620,SUBANG JAYA,SELANGOR,,
,,,FLAT TAMAN MAS SUBANG,,JALAN SM1,TAMAN SUBANG MAS,47620,SUBANG JAYA,SELANGOR,,
A,,,MENARA SURIA (V12 SOVO),,JALAN SUBANG MAS,TAMAN SUBANG MAS,47620,SUBANG JAYA,SELANGOR,,
,,,,,JALAN SUBANG MAS,TAMAN SUBANG MAS,47620,SUBANG JAYA,SELANGOR,,
,,,GLOBAL MULTI VENTURES ENTERPRISE,18,JALAN USJ 1/6,SUBANG MEWAH,47600,SUBANG JAYA,SELANGOR,,
N,,,PANGSAPURI JATI 1,,PERSIARAN SUBANG MEWAH,USJ 1,47620,SUBANG JAYA,SELANGOR,,
,,,PANGSAPURI JATI 1,,PERSIARAN SUBANG MEWAH,USJ 1,47620,SUBANG JAYA,SELANGOR,,
,,,PANGSAPURI JATI 2,,PERSIARAN SUBANG MEWAH,TAMAN SUBANG PERMAI,47620,SUBANG JAYA,SELANGOR,,
M,,,PANGSAPURI JATI 2,,PERSIARAN SUBANG MEWAH,USJ 1,47620,SUBANG JAYA,SELANGOR,,
,,,PANGSAPURI JATI 2,,PERSIARAN SUBANG MEWAH,TAMAN SUBANG PERMAI,47620,SUBANG JAYA,SELANGOR,,
C,,,SRI BAYU CONDOMINIUM,,JALAN USJ 11/7,USJ 11,47620,SUBANG JAYA,SELANGOR,,
,,,MCDONALD'S TAIPAN,4,JALAN USJ 10/1,TAIPAN USJ,47620,SUBANG JAYA,SELANGOR,,
,,,TAIPAN BUSINESS CENTRE USJ 10,,JALAN USJ 10/1C,UEP SUBANG JAYA,47620,SUBANG JAYA,SELANGOR,,
,,,,32,JALAN USJ 11/1F,USJ 11,47620,SUBANG JAYA,SELANGOR,,
,,,,74,JALAN USJ 11/3B,USJ 11,47620,SUBANG JAYA,SELANGOR,,
,,,,9,JALAN USJ 11/1A,USJ 11,47620,SUBANG JAYA,SELANGOR,,
,,,,,JALAN USJ 11/1A,USJ 11,47620,SUBANG JAYA,SELANGOR,,
,,,,40,JALAN USJ 11/1A,USJ 11,47620,SUBANG JAYA,SELANGOR,,
,,,,41,JALAN USJ 11/1B,USJ 11,47620,SUBANG JAYA,SELANGOR,,
,,,,50,JALAN USJ 11/1B,USJ 11,47620,SUBANG JAYA,SELANGOR,,
,,,,63,JALAN USJ 11/1B,USJ 11,47620,SUBANG JAYA,SELANGOR,,
,,,,26,JALAN USJ 11/1B,USJ 11,47620,SUBANG JAYA,SELANGOR,,
,,,,29,JALAN USJ 11/1C,USJ 11,47620,SUBANG JAYA,SELANGOR,,
,,,,61,JALAN USJ 11/1E,USJ 11,47620,SUBANG JAYA,SELANGOR,,
,,,,36,JALAN USJ 11/1F,USJ 11,47620,SUBANG JAYA,SELANGOR,,
,,,,,JALAN USJ 11/1F,USJ 11,47620,SUBANG JAYA,SELANGOR,,
,,,,20,JALAN USJ 11/1F,USJ 11,47620,SUBANG JAYA,SELANGOR,,
,,,,84,JALAN USJ 11/1F,USJ 11,47620,SUBANG JAYA,SELANGOR,,
,,,ARCADIA APARTMENTS,,JALAN USJ 11/1G,USJ 11,47620,SUBANG JAYA,SELANGOR,,
,1,,ARCADIA APARTMENTS,,JALAN USJ 11/1G,USJ 11,47620,SUBANG JAYA,SELANGOR,,
,,,ARCADIA APARTMENTS,,JALAN USJ 11/1G,USJ 11,47620,SUBANG JAYA,SELANGOR,,
H,,,ARCADIA APARTMENTS,,JALAN USJ 11/1G,USJ 11,47620,SUBANG JAYA,SELANGOR,,
,,,,49,JALAN USJ 11/1G,USJ 11,47620,SUBANG JAYA,SELANGOR,,
,,,,7A,JALAN USJ 11/1J,USJ 11,47620,SUBANG JAYA,SELANGOR,,
,,,,29,JALAN USJ 11/2,USJ 11,47620,SUBANG JAYA,SELANGOR,,
,,,,41,JALAN USJ 11/2A,USJ 11,47620,SUBANG JAYA,SELANGOR,,
,,,,45,JALAN USJ 11/2A,USJ 11,47620,SUBANG JAYA,SELANGOR,,
,,,,14,JALAN USJ 11/2A,USJ 11,47620,SUBANG JAYA,SELANGOR,,
,,,,4,JALAN USJ 11/2A,USJ 11,47620,SUBANG JAYA,SELANGOR,,
,,,,33,JALAN USJ 11/2A,USJ 11,47620,SUBANG JAYA,SELANGOR,,
,,,,44,JALAN USJ 11/2A,USJ 11,47620,SUBANG JAYA,SELANGOR,,
,,,,62,JALAN USJ 11/2B,USJ 11,47620,SUBANG JAYA,SELANGOR,,
,,,,2,JALAN USJ 11/2B,USJ 11,47620,SUBANG JAYA,SELANGOR,,
,,,,5,JALAN USJ 11/2C,USJ 11,47620,SUBANG JAYA,SELANGOR,,
,,,,,JALAN USJ 11/2D,USJ 11,47620,SUBANG JAYA,SELANGOR,,
,,,,,JALAN USJ 11/2E,USJ 11,47620,SUBANG JAYA,SELANGOR,,
,,,,14,JALAN USJ 11/2F,USJ 11,47620,SUBANG JAYA,SELANGOR,,
,,,,19,JALAN USJ 11/2H,USJ 11,47620,SUBANG JAYA,SELANGOR,,
,,,,8,JALAN USJ 11/2H,USJ 11,47620,SUBANG JAYA,SELANGOR,,
,,,,73,JALAN USJ 11/3A,USJ 11,47620,SUBANG JAYA,SELANGOR,,
,,,,56,JALAN USJ 11/3B,USJ 11,47620,SUBANG JAYA,SELANGOR,,
,,,,60,JALAN USJ 11/3B,USJ 11,47620,SUBANG JAYA,SELANGOR,,
,,,,12,JALAN USJ 11/3B,USJ 11,47620,SUBANG JAYA,SELANGOR,,
,,,,20,JALAN USJ 11/3B,USJ 11,47620,SUBANG JAYA,SELANGOR,,
,,,,75,JALAN USJ 11/3C,USJ 11,47620,SUBANG JAYA,SELANGOR,,
,,,,65,JALAN USJ 11/3C,USJ 11,47620,SUBANG JAYA,SELANGOR,,
,,,,73,JALAN USJ 11/3D,USJ 11,47620,SUBANG JAYA,SELANGOR,,
,,,,28,JALAN USJ 11/3D,USJ 11,47620,SUBANG JAYA,SELANGOR,,
,,,,39,JALAN USJ 11/3E,USJ 11,47620,SUBANG JAYA,SELANGOR,,
,,,,4,JALAN USJ 11/3E,USJ 11,47620,SUBANG JAYA,SELANGOR,,
,,,,80,JALAN USJ 11/3F,USJ 11,47620,SUBANG JAYA,SELANGOR,,
,,,,26,JALAN USJ 11/3F,USJ 11,47620,SUBANG JAYA,SELANGOR,,
,,,,11,JALAN USJ 11/3L,USJ 11,47620,SUBANG JAYA,SELANGOR,,
,,,,67,JALAN USJ 11/3L,USJ 11,47620,SUBANG JAYA,SELANGOR,,
,,,,19,JALAN USJ 11/3L,USJ 11,47620,SUBANG JAYA,SELANGOR,,
,,,,66,JALAN USJ 11/3M,USJ 11,47620,SUBANG JAYA,SELANGOR,,
,,,,63,JALAN USJ 11/3M,USJ 11,47620,SUBANG JAYA,SELANGOR,,
,,,,31,JALAN USJ 11/3M,USJ 11,47620,SUBANG JAYA,SELANGOR,,
,,,,44,JALAN USJ 11/3N,USJ 11,47620,SUBANG JAYA,SELANGOR,,
,,,,28,JALAN USJ 11/3N,USJ 11,47620,SUBANG JAYA,SELANGOR,,
,,,,14,JALAN USJ 11/3P,USJ 11,47620,SUBANG JAYA,SELANGOR,,
,,,,20,JALAN USJ 11/4B,USJ 11,47620,SUBANG JAYA,SELANGOR,,
,,,,44,JALAN USJ 11/4C,USJ 11,47620,SUBANG JAYA,SELANGOR,,
,,,,2,JALAN USJ 11/4C,USJ 11,47620,SUBANG JAYA,SELANGOR,,
,,,,34,JALAN USJ 11/4D,USJ 11,47620,SUBANG JAYA,SELANGOR,,
,,,,,JALAN USJ 11/4D,USJ 11,47620,SUBANG JAYA,SELANGOR,,
,,,,11A,JALAN USJ 11/4D,USJ 11,47620,SUBANG JAYA,SELANGOR,,
,,,,63,jALAN USJ 11/4D,USJ 11,47620,SUBANG JAYA,SELANGOR,,
,,,,44,JALAN USJ 11/4D,USJ 11,47620,SUBANG JAYA,SELANGOR,,
,,,,11A,JALAN USJ 11/4E,USJ 11,47620,SUBANG JAYA,SELANGOR,,
,,,,9,JALAN USJ 11/4E,USJ 11,47620,SUBANG JAYA,SELANGOR,,
,,,,23,JALAN USJ 11/4G,USJ 11,47620,SUBANG JAYA,SELANGOR,,
,,,,14,JALAN USJ 11/4J,USJ 11,47620,SUBANG JAYA,SELANGOR,,
,,,,10,JALAN USJ 11/4J,USJ 11,47620,SUBANG JAYA,SELANGOR,,
,,,,12,JALAN USJ 11/4J,USJ 11,47620,SUBANG JAYA,SELANGOR,,
,,,,7,JALAN USJ 11/4J,USJ 11,47620,SUBANG JAYA,SELANGOR,,
,,,,30,JALAN USJ 11/4J,USJ 11,47620,SUBANG JAYA,SELANGOR,,
,,,,84,JALAN USJ 11/4K,USJ 11,47620,SUBANG JAYA,SELANGOR,,
,,,,6,JALAN USJ 11/4K,USJ 11,47620,SUBANG JAYA,SELANGOR,,
,,,,80,JALAN USJ 11/4L,USJ 11,47620,SUBANG JAYA,SELANGOR,,
,,,,62,JALAN USJ 11/4L,USJ 11,47620,SUBANG JAYA,SELANGOR,,
,,,,65,JALAN USJ 11/4L,USJ 11,47620,SUBANG JAYA,SELANGOR,,
,,,,14,JALAN USJ 11/4M,USJ 11,47620,SUBANG JAYA,SELANGOR,,
,,,,4,JALAN USJ 11/4N,USJ 11,47620,SUBANG JAYA,SELANGOR,,
,,,,4,JALAN USJ 11/5,USJ 11,47620,SUBANG JAYA,SELANGOR,,
B,,,SRI BAYU CONDOMINIUM,,JALAN USJ 11/7,USJ 11,47620,SUBANG JAYA,SELANGOR,,
D4,4,4,SRI BAYU CONDOMINIUM,,JALAN USJ 11/7,USJ 11,47620,SUBANG JAYA,SELANGOR,,
D,,,SRI BAYU CONDOMINIUM,,JALAN USJ 11/7,USJ 11,47620,SUBANG JAYA,SELANGOR,,
,,,,48,JALAN USJ 11/7,USJ 11,47620,SUBANG JAYA,SELANGOR,,
C,7,13,APARTMENT SRI TANJUNG,,,USJ 16,47630,SUBANG JAYA,SELANGOR,,
,G,,THE 19 USJ CITY MALL,,PERSIARAN KEWAJIPAN,USJ 19,47620,SUBANG JAYA,SELANGOR,,
,,,,69,JALAN PINGGIRAN USJ 3/2,TAMAN PINGGIRAN USJ,47600,SUBANG JAYA,SELANGOR,,
,,,,39,JALAN USJ 9/5B,USJ 9,47620,SUBANG JAYA,SELANGOR,,
,,,,3,JALAN USJ 1/9,TAMAN SUBANG PERMAI,47600,SUBANG JAYA,SELANGOR,,
,,,,55,JALAN USJ 9/2,USJ 9,47620,SUBANG JAYA,SELANGOR,,
,,,,25,JALAN USJ 9/2,USJ 9,47620,SUBANG JAYA,SELANGOR,,
,,,,21,JALAN USJ 9/3A,USJ 9,47620,SUBANG JAYA,SELANGOR,,
,,,,29,JALAN USJ 9/3A,USJ 9,47620,SUBANG JAYA,SELANGOR,,
,,,,3,JALAN USJ 9/3A,USJ 9,47620,SUBANG JAYA,SELANGOR,,
,,,,11A,JALAN USJ 9/3A,USJ 9,47620,SUBANG JAYA,SELANGOR,,
,,,,45,JALAN USJ 9/3A,USJ 9,47620,SUBANG JAYA,SELANGOR,,
,,,,26,JALAN USJ 9/3B,USJ 9,47620,SUBANG JAYA,SELANGOR,,
,,,,32,JALAN USJ 9/3C,USJ 9,47620,SUBANG JAYA,SELANGOR,,
,,,,47,JALAN USJ 9/3C,USJ 9,47620,SUBANG JAYA,SELANGOR,,
,,,,36,JALAN USJ 9/3D,USJ 9,47620,SUBANG JAYA,SELANGOR,,
,,,,17,JALAN USJ 9/3D,USJ 9,47620,SUBANG JAYA,SELANGOR,,
,,,,1A,JALAN USJ 9/3D,USJ 9,47620,SUBANG JAYA,SELANGOR,,
,,,,63,JALAN USJ 9/3E,USJ 9,47620,SUBANG JAYA,SELANGOR,,
,,,,23,JALAN USJ 9/3E,USJ 9,47620,SUBANG JAYA,SELANGOR,,
,,,,61,JALAN USJ 9/3E,USJ 9,47620,SUBANG JAYA,SELANGOR,,
,,,,59,JALAN USJ 9/3E,USJ 9,47620,SUBANG JAYA,SELANGOR,,
,,,,14,JALAN USJ 9/3G,USJ 9,47620,SUBANG JAYA,SELANGOR,,
,,,,16,JALAN USJ 9/3K,USJ 9,47620,SUBANG JAYA,SELANGOR,,
,,,,38,JALAN USJ 9/3K,USJ 9,47620,SUBANG JAYA,SELANGOR,,
,,,,59,JALAN USJ 9/3L,USJ 9,47620,SUBANG JAYA,SELANGOR,,
,,,,14,JALAN USJ 9/3L,USJ 9,47620,SUBANG JAYA,SELANGOR,,
,,,,55,JALAN USJ 9/3L,USJ 9,47620,SUBANG JAYA,SELANGOR,,
,,,,42,JALAN USJ 9/3N,USJ 9,47620,SUBANG JAYA,SELANGOR,,
,,,,4,JALAN USJ 9/3P,USJ 9,47620,SUBANG JAYA,SELANGOR,,
,,,,87,JALAN USJ 9/4,USJ 9,47620,SUBANG JAYA,SELANGOR,,
,,,,39,JALAN USJ 9/4,USJ 9,47620,SUBANG JAYA,SELANGOR,,
,,,,1,JALAN USJ 9/5B,USJ 9,47620,SUBANG JAYA,SELANGOR,,
,,,,85,JALAN USJ 9/5B,USJ 9,47620,SUBANG JAYA,SELANGOR,,
,,,,11A,JALAN USJ 9/5B,USJ 9,47620,SUBANG JAYA,SELANGOR,,
,,,,47,JALAN USJ 9/5C,USJ 9,47620,SUBANG JAYA,SELANGOR,,
,,,,40,JALAN USJ 9/5D,USJ 9,47620,SUBANG JAYA,SELANGOR,,
,,,,25,JALAN USJ 9/5D,USJ 9,47620,SUBANG JAYA,SELANGOR,,
,,,,16,JALAN USJ 9/5E,USJ 9,47620,SUBANG JAYA,SELANGOR,,
,,,,28,JALAN USJ 9/5G,USJ 9,47620,SUBANG JAYA,SELANGOR,,
,,,,26,JALAN USJ 9/5H,USJ 9,47620,SUBANG JAYA,SELANGOR,,
,,,,62,JALAN USJ 9/5H,USJ 9,47620,SUBANG JAYA,SELANGOR,,
,,,,24,JALAN USJ 9/5J,USJ 9,47620,SUBANG JAYA,SELANGOR,,
N1,2,9,GOODYEAR COURT 7,,JALAN USJ 14/1,USJ 14,47610,SUBANG JAYA,SELANGOR,,
AL,4,6,SUBANG PERDANA GOODYEAR COURT 10,6,PERSIARAN MULIA,USJ 14,47630,SUBANG JAYA,SELANGOR,,
,,,BOILERMECH SDN BHD,LOT 875,JALAN SUBANG 8,TAMAN PERINDUSTRIAN SUBANG,47620,SUBANG JAYA,SELANGOR,,
,,1,,1,JALAN TIARA 3,TAMAN PERINDUSTRIAN UEP,47600,SUBANG JAYA,SELANGOR,,
,,,,153,JALAN USJ 12/1,USJ 12,47630,SUBANG JAYA,SELANGOR,,
,,,,130,JALAN USJ 12/1,USJ 12,47630,SUBANG JAYA,SELANGOR,,
,,,,119,JALAN USJ 12/1,USJ 12,47630,SUBANG JAYA,SELANGOR,,
,,,,30,JALAN USJ 12/1,USJ 12,47630,SUBANG JAYA,SELANGOR,,
,,,,11A,JALAN USJ 12/1A,USJ 12,47630,SUBANG JAYA,SELANGOR,,
,,,,20,JALAN USJ 12/1D,USJ 12,47630,SUBANG JAYA,SELANGOR,,
,,,,16,JALAN USJ 12/1F,USJ 12,47630,SUBANG JAYA,SELANGOR,,
,,,,107,JALAN USJ 12/1N,USJ 12,47630,SUBANG JAYA,SELANGOR,,
,,,,69,JALAN USJ 12/1N,USJ 12,47630,SUBANG JAYA,SELANGOR,,
,,,,7,JALAN USJ 12/1N,USJ 12,47630,SUBANG JAYA,SELANGOR,,
,,,,12,JALAN USJ 12/2,USJ 12,47630,SUBANG JAYA,SELANGOR,,
,,,,129,JALAN USJ 12/2A,USJ 12,47630,SUBANG JAYA,SELANGOR,,
,,,,114,JALAN USJ 12/2A,USJ 12,47630,SUBANG JAYA,SELANGOR,,
,,,,4,JALAN USJ 12/2B,USJ 12,47630,SUBANG JAYA,SELANGOR,,
,,,,52,JALAN USJ 12/2F,USJ 12,47630,SUBANG JAYA,SELANGOR,,
,,,,41,JALAN USJ 12/3,USJ 12,47630,SUBANG JAYA,SELANGOR,,
,,,,1,JALAN USJ 12/3,USJ 12,47630,SUBANG JAYA,SELANGOR,,
,,,,33,JALAN USJ 12/3A,USJ 12,47630,SUBANG JAYA,SELANGOR,,
,,,,56,JALAN USJ 12/3A,USJ 12,47630,SUBANG JAYA,SELANGOR,,
,,,,44,JALAN USJ 12/3B,USJ 12,47630,SUBANG JAYA,SELANGOR,,
,,,,2,JALAN USJ 12/3B,USJ 12,47630,SUBANG JAYA,SELANGOR,,
,,,,16,JALAN USJ 12/3B,USJ 12,47630,SUBANG JAYA,SELANGOR,,
,,,,11,JALAN USJ 12/3B,USJ 12,47630,SUBANG JAYA,SELANGOR,,
,,,,33,JALAN USJ 13/4,USJ 13,47630,SUBANG JAYA,SELANGOR,,
,,,,46,JALAN USJ 13/1B,USJ 13,47630,SUBANG JAYA,SELANGOR,,
,,,,5,JALAN USJ 13/1B,USJ 13,47630,SUBANG JAYA,SELANGOR,,
,,,,9,JALAN USJ 13/1C,USJ 13,47630,SUBANG JAYA,SELANGOR,,
,,,,22,JALAN USJ 13/1F,USJ 13,47630,SUBANG JAYA,SELANGOR,,
,,,,51,JALAN USJ 13/2,USJ 13,47630,SUBANG JAYA,SELANGOR,,
,,,,33,JALAN USJ 13/2,USJ 13,47630,SUBANG JAYA,SELANGOR,,
,,,,14,JALAN USJ 13/2,USJ 13,47630,SUBANG JAYA,SELANGOR,,
,,,,83,JALAN USJ 13/3,USJ 13,47630,SUBANG JAYA,SELANGOR,,
,,,,41,JALAN USJ 13/3A,USJ 13,47630,SUBANG JAYA,SELANGOR,,
,,,,46,JALAN USJ 13/3A,USJ 13,47630,SUBANG JAYA,SELANGOR,,
,,,,52,JALAN USJ 13/3B,USJ 13,47630,SUBANG JAYA,SELANGOR,,
,,,,47,JALAN USJ 13/3D,USJ 13,47630,SUBANG JAYA,SELANGOR,,
,,,,3,JALAN USJ 13/3D,USJ 13,47630,SUBANG JAYA,SELANGOR,,
,,,,35,JALAN USJ 13/3D,USJ 13,47630,SUBANG JAYA,SELANGOR,,
,,,,36,JALAN USJ 13/3G,USJ 13,47630,SUBANG JAYA,SELANGOR,,
,,,,54,JALAN USJ 13/3G,USJ 13,47630,SUBANG JAYA,SELANGOR,,
,,,,88,JALAN USJ 13/3G,USJ 13,47630,SUBANG JAYA,SELANGOR,,
,,,,1,JALAN USJ 13/3G,USJ 13,47630,SUBANG JAYA,SELANGOR,,
,,,,99,JALAN USJ 13/5G,USJ 13,47630,SUBANG JAYA,SELANGOR,,
,,,,43,JALAN USJ 13/5G,USJ 13,47630,SUBANG JAYA,SELANGOR,,
,,,,29,JALAN USJ 13/5F,USJ 13,47630,SUBANG JAYA,SELANGOR,,
AF,4,6,SUBANG PERDANA GOODYEAR COURT 10,6,PERSIARAN MULIA,USJ 14,47630,SUBANG JAYA,SELANGOR,,
R1,2,6,GOODYEAR COURT 8 APARTMENT,,PERSIARAN MULIA,USJ 14,47630,SUBANG JAYA,SELANGOR,,
R1,4,1,SUBANG PERDANA GOODYEAR COURT 8,,PERSIARAN MULIA,USJ 14,47630,SUBANG JAYA,SELANGOR,,
,,,SUBANG PERDANA GOODYEAR COURT 9,,JALAN MULIA,USJ 14,47630,SUBANG JAYA,SELANGOR,,
W3,2,6,SUBANG PERDANA GOODYEAR COURT 9,,,USJ 14,47630,SUBANG JAYA,SELANGOR,,
,,,SUBANG PERDANA GOODYEAR COURT 9,,JALAN MULIA,USJ 14,47630,SUBANG JAYA,SELANGOR,,
,,,SUBANG PERDANA GOODYEAR COURT 9,,JALAN MULIA,USJ 14,47630,SUBANG JAYA,SELANGOR,,
V3,3,2,SUBANG PERDANA GOODYEAR COURT 9,2,JALAN MULIA,USJ 14,47630,SUBANG JAYA,SELANGOR,,
W3,4,11,SUBANG PERDANA GOODYEAR COURT 9,11,JALAN MULIA,USJ 14,47630,SUBANG JAYA,SELANGOR,,
X2,3,5,SUBANG PERDANA GOODYEAR COURT 9,5,JALAN MULIA,USJ 14,47630,SUBANG JAYA,SELANGOR,,
W4,3,3,SUBANG PERDANA GOODYEAR COURT 9,3,JALAN MULIA,USJ 14,47630,SUBANG JAYA,SELANGOR,,
,,,,43,JALAN USJ 14/1A,USJ 14,47630,SUBANG JAYA,SELANGOR,,
,,,,55,JALAN USJ 14/1C,USJ 14,47630,SUBANG JAYA,SELANGOR,,
,,,,50,JALAN USJ 14/1C,USJ 14,47630,SUBANG JAYA,SELANGOR,,
,,,,40,JALAN USJ 14/1C,USJ 14,47630,SUBANG JAYA,SELANGOR,,
,,,,16,JALAN USJ 14/1D,USJ 14,47630,SUBANG JAYA,SELANGOR,,
,,,,59,JALAN USJ 14/1D,USJ 14,47630,SUBANG JAYA,SELANGOR,,
,,,,1,JALAN USJ 14/1E,USJ 14,47630,SUBANG JAYA,SELANGOR,,
,,,,25,JALAN USJ 14/1E,USJ 14,47630,SUBANG JAYA,SELANGOR,,
,,,RESTORAN SERI BADAR,2,JALAN USJ 14/1K,USJ 14,47630,SUBANG JAYA,SELANGOR,,
Y1,2,6,SUBANG PERDANA GOODYEAR COURT 9,6,JALAN MULIA,USJ 14,47630,SUBANG JAYA,SELANGOR,,
V4,0,4,SUBANG PERDANA GOODYEAR COURT 9C,,JALAN MULIA,USJ 14,47630,SUBANG JAYA,SELANGOR,,
W3,0,11,SUBANG PERDANA GOODYEAR COURT 9,11,JALAN MULIA,USJ 14,47630,SUBANG JAYA,SELANGOR,,
AD,1,14,GOODYEAR COURT 10 APARTMENT,,PERSIARAN MULIA,USJ 14,47630,SUBANG JAYA,SELANGOR,,
AG,4,3,SUBANG PERDANA GOODYEAR COURT 10,3,PERSIARAN MULIA,USJ 14,47630,SUBANG JAYA,SELANGOR,,
AE,4,4,SUBANG PERDANA GOODYEAR COURT 10,4,PERSIARAN MULIA,USJ 14,47630,SUBANG JAYA,SELANGOR,,
AN,4,1,SUBANG PERDANA GOODYEAR COURT 10,1,PERSIARAN MULIA,USJ 14,47630,SUBANG JAYA,SELANGOR,,
AQ,1,6,SUBANG GOODYEAR COURT 10A,,PERSIARAN MULIA,USJ 14,47630,SUBANG JAYA,SELANGOR,,
AD,0,7,SUBANG PERDANA GOODYEAR COURT 10,7,PERSIARAN MULIA,USJ 14,47630,SUBANG JAYA,SELANGOR,,
R1,2,9,SUBANG PERDANA GOODYEAR COURT 8,9,PERSIARAN MULIA,USJ 14,47630,SUBANG JAYA,SELANGOR,,
,,,SUBANG PERDANA GOODYEAR COURT 8,22,PERSIARAN MULIA,USJ 14,47630,SUBANG JAYA,SELANGOR,,
Q2,0,12,SUBANG PERDANA GOODYEAR COURT 8,12,PERSIARAN MULIA,USJ 14,47630,SUBANG JAYA,SELANGOR,,
T2,0,11,SUBANG PERDANA GOODYEAR COURT 8,,PERSIARAN MULIA,USJ 14,47630,SUBANG JAYA,SELANGOR,,
,,,SUBANG PERDANA GOODYEAR COURT 8,,PERSIARAN MULIA,USJ 14,47630,SUBANG JAYA,SELANGOR,,
S1,4,3,SUBANG PERDANA GOODYEAR COURT 8,3,PERSIARAN MULIA,USJ 14,47630,SUBANG JAYA,SELANGOR,,
W1,1,9,SUBANG PERDANA GOODYEAR COURT 9,9,JALAN MULIA,USJ 14,47630,SUBANG JAYA,SELANGOR,,
Z1,2,1,SUBANG PERDANA GOODYEAR COURT 9,1,JALAN MULIA,USJ 14,47630,SUBANG JAYA,SELANGOR,,
AL,2,10,SUBANG PERDANA GOODYEAR COURT 10,10,PERSIARAN MULIA,USJ 14,47630,SUBANG JAYA,SELANGOR,,
,,,ENERZ INDOOR EXTREME PARK,791,PERSIARAN SUBANG INDAH,USJ 14,47630,SUBANG JAYA,SELANGOR,,
,,,SUBANG PERDANA GOODYEAR COURT 7,,JALAN USJ 14/1,USJ 14,47630,SUBANG JAYA,SELANGOR,,
,,,SUBANG PERDANA APARTMENT,,JALAN KEWAJIPAN USJ,,47600,SUBANG JAYA,SELANGOR,,
W4,4,3,SUBANG PERDANA GOODYEAR COURT 1,,JALAN USJ 6/1,USJ 6,47610,SUBANG JAYA,SELANGOR,,
AG,0,5,SUBANG PERDANA GOODYEAR COURT 10A,,PERSIARAN MULIA,USJ 14,47630,SUBANG JAYA,SELANGOR,,
AK,0,10,SUBANG PERDANA GOODYEAR COURT 10A,,PERSIARAN MULIA,USJ 14,47630,SUBANG JAYA,SELANGOR,,
,,,SUBANG PERDANA GOODYEAR COURT 10A,,PERSIARAN MULIA,USJ 14,47630,SUBANG JAYA,SELANGOR,,
AD,4,4,SUBANG PERDANA GOODYEAR COURT 10A,,PERSIARAN MULIA,USJ 14,47630,SUBANG JAYA,SELANGOR,,
B,5,14,APARTMENT SRI TANJUNG,,,USJ 16,47630,SUBANG JAYA,SELANGOR,,
D,7,13,SRI TANJUNG FLAT,,JALAN USJ 16/07,USJ 16,47630,SUBANG JAYA,SELANGOR,,
C,7,17,APARTMENT SRI TANJUNG,,,USJ 16,47630,SUBANG JAYA,SELANGOR,,
,,,,11A,JALAN USJ 16/2A,USJ 16,47630,SUBANG JAYA,SELANGOR,,
,,,,6,JALAN USJ 16/2C,USJ 16,47630,SUBANG JAYA,SELANGOR,,
,,,,33,JALAN USJ 16/2E,USJ 16,47630,SUBANG JAYA,SELANGOR,,
,,,,5,JALAN USJ 16/3,USJ 16,47630,SUBANG JAYA,SELANGOR,,
,,,,55,JALAN USJ 16/3C,USJ 16,47630,SUBANG JAYA,SELANGOR,,
,,,,86,JALAN USJ 16/3C,USJ 16,47630,SUBANG JAYA,SELANGOR,,
,,,,38,JALAN USJ 16/3C,USJ 16,47630,SUBANG JAYA,SELANGOR,,
,,,,9,JALAN USJ 16/3D,USJ 16,47630,SUBANG JAYA,SELANGOR,,
,,,,19,JALAN USJ 16/3D,USJ 16,47630,SUBANG JAYA,SELANGOR,,
,,,,9,JALAN USJ 16/3D,USJ 16,47630,SUBANG JAYA,SELANGOR,,
,,,,11,JALAN USJ 16/3E,USJ 16,47630,SUBANG JAYA,SELANGOR,,
,,,,11A,JALAN USJ 16/3F,USJ 16,47630,SUBANG JAYA,SELANGOR,,
,,,,6,JALAN USJ 16/3F,USJ 16,47630,SUBANG JAYA,SELANGOR,,
,,,,51,JALAN USJ 16/5,USJ 16,47630,SUBANG JAYA,SELANGOR,,
,,,,55,JALAN USJ 16/5,USJ 16,47630,SUBANG JAYA,SELANGOR,,
,,,,9,JALAN USJ 16/5,USJ 16,47630,SUBANG JAYA,SELANGOR,,
B,5,17,SRI TANJUNG FLAT,,JALAN USJ 16/7,USJ 16,47630,SUBANG JAYA,SELANGOR,,
,,,SRI TANJUNG FLAT,,,USJ 16,47630,SUBANG JAYA,SELANGOR,,
D,,,APARTMENT SRI TANJUNG,,,USJ 16,47630,SUBANG JAYA,SELANGOR,,
C,9,16,APARTMENT SRI TANJUNG,,,USJ 16,47630,SUBANG JAYA,SELANGOR,,
A,7,12,SRI TANJUNG FLAT,,JALAN USJ 16/7,USJ 16,47630,SUBANG JAYA,SELANGOR,,
D,4,5,SRI TANJUNG FLAT,,JALAN USJ 16/7,USJ 16,47630,SUBANG JAYA,SELANGOR,,
C,7,22,SRI TANJUNG FLAT,,JALAN USJ 16/7,USJ 16,47630,SUBANG JAYA,SELANGOR,,
B,3,1,APARTMENT SRI TANJUNG,,,USJ 16,47630,SUBANG JAYA,SELANGOR,,
E,1,10,ALAF WAJA ENTERPRISE,,JALAN USJ 16/7,USJ 16,47620,SUBANG JAYA,SELANGOR,,
,,,,7,JALAN USJ 17/1,USJ 17,47630,SUBANG JAYA,SELANGOR,,
,,,,9,JALAN USJ 17/1,USJ 17,47630,SUBANG JAYA,SELANGOR,,
,,,,25,JALAN USJ 17/10,USJ 17,47630,SUBANG JAYA,SELANGOR,,
,,,,8,JALAN USJ 17/10A,USJ 17,47630,SUBANG JAYA,SELANGOR,,
,,,,20,JALAN USJ 17/10A,USJ 17,47630,SUBANG JAYA,SELANGOR,,
,,,,7,JALAN USJ 17/10A,USJ 17,47630,SUBANG JAYA,SELANGOR,,
,,,,7,JALAN USJ 17/13A,RESTREES USJ17,47630,SUBANG JAYA,SELANGOR,,
,,,,19,JALAN USJ 17/13A,USJ 17,47630,SUBANG JAYA,SELANGOR,,
,,,,17,JALAN USJ 17/16,USJ 17,47630,SUBANG JAYA,SELANGOR,,
,,,,12,JALAN USJ 17/16,USJ 17,47630,SUBANG JAYA,SELANGOR,,
,,,,32A,JALAN USJ 17/3A,USJ 17,47630,SUBANG JAYA,SELANGOR,,
,,,,38,JALAN USJ 17/3A,USJ 17,47630,SUBANG JAYA,SELANGOR,,
,,,,19,JALAN USJ 17/3C,USJ 17,47630,SUBANG JAYA,SELANGOR,,
,,,,48,JALAN USJ 17/3C,USJ 17,47630,SUBANG JAYA,SELANGOR,,
,,,,5,JALAN USJ 17/4,USJ 17,47630,SUBANG JAYA,SELANGOR,,
,,,,12,JALAN USJ 17/7B,USJ 17,47630,SUBANG JAYA,SELANGOR,,
,,,,10,JALAN USJ 17/7B,USJ 17,47630,SUBANG JAYA,SELANGOR,,
,,,,19,JALAN USJ 17/8,USJ 17,47630,SUBANG JAYA,SELANGOR,,
,,,,12A,JALAN USJ 17/10A,USJ 17,47630,SUBANG JAYA,SELANGOR,,
,,,,6,JALAN USJ 17/6,USJ 17,47630,SUBANG JAYA,SELANGOR,,
A,5,6,TROPICANA PARADISE CONDO,,JALAN USJ 17/8,USJ 17,47630,SUBANG JAYA,SELANGOR,,
A,7,10,TROPIKA PARADISE CONDOMINIUM,,PERSIARAN KEWAJIPAN,USJ 17,47630,SUBANG JAYA,SELANGOR,,
A,,,TROPIKA PARADISE CONDOMINIUM,,JALAN USJ 17/8,USJ 17,47630,SUBANG JAYA,SELANGOR,,
,,,,26,JALAN USJ 18/1,USJ 18,47630,SUBANG JAYA,SELANGOR,,
,,,,65,JALAN USJ 18/1,USJ 18,47630,SUBANG JAYA,SELANGOR,,
,,,,6,JALAN USJ 18/1,USJ 18,47630,SUBANG JAYA,SELANGOR,,
,,,,12A,JALAN USJ 18/1B,USJ 18,47630,SUBANG JAYA,SELANGOR,,
,,,,41,JALAN USJ 18/1B,USJ 18,47630,SUBANG JAYA,SELANGOR,,
,,,,43,JALAN USJ 18/1C,USJ 18,47630,SUBANG JAYA,SELANGOR,,
,,,,17,JALAN USJ 18/1C,USJ 18,47630,SUBANG JAYA,SELANGOR,,
,,,,31,JALAN USJ 18/2A,USJ 18,47630,SUBANG JAYA,SELANGOR,,
,,,,63,JALAN USJ 18/2A,USJ 18,47630,SUBANG JAYA,SELANGOR,,
,,,,62A,JALAN USJ 18/2A,USJ 18,47630,SUBANG JAYA,SELANGOR,,
,,,,22,JALAN USJ 18/2A,USJ 18,47630,SUBANG JAYA,SELANGOR,,
,,,,28,JALAN USJ 18/2B,USJ 18,47630,SUBANG JAYA,SELANGOR,,
,,,,63,JALAN USJ 18/2B,USJ 18,47630,SUBANG JAYA,SELANGOR,,
,,,,42,JALAN USJ 18/2B,USJ 18,47630,SUBANG JAYA,SELANGOR,,
,,,,18,JALAN USJ 18/2C,USJ 18,47630,SUBANG JAYA,SELANGOR,,
,,,,11,JALAN USJ 18/3,USJ 18,47630,SUBANG JAYA,SELANGOR,,
,,,,3,JALAN USJ 18/3,USJ 18,47630,SUBANG JAYA,SELANGOR,,
,,,,31,JALAN USJ 18/3A,USJ 18,47630,SUBANG JAYA,SELANGOR,,
,,,,37,JALAN USJ 18/3A,USJ 18,47630,SUBANG JAYA,SELANGOR,,
,,,,7,JALAN USJ 18/4,USJ 18,47630,SUBANG JAYA,SELANGOR,,
,,,,7,JALAN USJ 18/4A,USJ 18,47630,SUBANG JAYA,SELANGOR,,
,,,,33,JALAN USJ 18/5,USJ 18,47630,SUBANG JAYA,SELANGOR,,
D,12,2,RHYTHM AVENUE,,PERSIARAN KEWAJIPAN,USJ 19,47630,SUBANG JAYA,SELANGOR,,
A,7,15,STARVILLE,,JALAN USJ 19/6,USJ 19,47630,SUBANG JAYA,SELANGOR,,
,,,STARVILLE,,JALAN USJ 19/6,USJ 19,47630,SUBANG JAYA,SELANGOR,,
,,,STARVILLE,,JALAN USJ 19/6,USJ 19,47630,SUBANG JAYA,SELANGOR,,
C,7,11,STARVILLE,,JALAN USJ 19/6,USJ 19,47630,SUBANG JAYA,SELANGOR,,
B,,,STARVILLE,,JALAN USJ 19/6,USJ 19,47630,SUBANG JAYA,SELANGOR,,
,,,STARVILLE,,JALAN USJ 19/6,USJ 19,47630,SUBANG JAYA,SELANGOR,,
B,2,2,STARVILLE,,JALAN USJ 19/6,USJ 19,47630,SUBANG JAYA,SELANGOR,,
A,2,17,STARVILLE,,JALAN USJ 19/6,USJ 19,47630,SUBANG JAYA,SELANGOR,,
A,5,16,STARVILLE,,JALAN USJ 19/6,USJ 19,47630,SUBANG JAYA,SELANGOR,,
,,,RHYTHM AVENUE,,PERSIARAN KEWAJIPAN,USJ 19,47630,SUBANG JAYA,SELANGOR,,
,,,RHYTHM AVENUE,,"PERSIARAN KEWAJIPAN,",USJ 19,47630,SUBANG JAYA,SELANGOR,,
,,,,21,JALAN USJ 20/1A,USJ 20,47630,SUBANG JAYA,SELANGOR,,
,,,,12,JALAN USJ 20/1A,USJ 20,47630,SUBANG JAYA,SELANGOR,,
,,,,15,JALAN USJ 20/1B,USJ 20,47630,SUBANG JAYA,SELANGOR,,
,,,,23,JALAN USJ 20/1B,USJ 20,47630,SUBANG JAYA,SELANGOR,,
,,,,11,JALAN USJ 20/1B,USJ 20,47630,SUBANG JAYA,SELANGOR,,
,,,,2,JALAN USJ 20/1B,USJ 20,47630,SUBANG JAYA,SELANGOR,,
,,,,41,JALAN USJ 20/1D,USJ 20,47630,SUBANG JAYA,SELANGOR,,
,,,,25,JALAN USJ 20/1E,USJ 20,47630,SUBANG JAYA,SELANGOR,,
,,,,42A,JALAN USJ 20/1F,USJ 20,47640,SUBANG JAYA,SELANGOR,,
,,,,26,JALAN USJ 20/1F,USJ 20,47630,SUBANG JAYA,SELANGOR,,
,,,,17,JALAN USJ 20/1F,USJ 20,47630,SUBANG JAYA,SELANGOR,,
,,,,25,JALAN USJ 20/1F,USJ 20,47630,SUBANG JAYA,SELANGOR,,
,,,,1,JALAN USJ 20/3,USJ 20,47640,SUBANG JAYA,SELANGOR,,
,,,,17,JALAN USJ 20/6,USJ 20,47630,SUBANG JAYA,SELANGOR,,
,,,,7,JALAN USJ 20/6,USJ 20,47630,SUBANG JAYA,SELANGOR,,
,,,,2A,JALAN USJ 20/6A,USJ 20,47630,SUBANG JAYA,SELANGOR,,
,,,,25,JALAN USJ 20/6G,USJ 20,47630,SUBANG JAYA,SELANGOR,,
,,,,1,JALAN USJ 20/6G,USJ 20,47630,SUBANG JAYA,SELANGOR,,
,,,,31,JALAN USJ 20/6H,USJ 20,47630,SUBANG JAYA,SELANGOR,,
,,,,27,JALAN USJ 20/6J,USJ 20,47630,SUBANG JAYA,SELANGOR,,
,,,,16,JALAN USJ 20/6K,USJ 20,47630,SUBANG JAYA,SELANGOR,,
,,,,22,JALAN USJ 20/17,UEP SUBANG JAYA,47630,SUBANG JAYA,SELANGOR,,
,,,THE MAIN PLACE,,JALAN USJ 21/10,USJ 21,47630,SUBANG JAYA,SELANGOR,,
A,31,1,MAIN PLACE MALL,,JALAN USJ 21/10,USJ 21,47630,SUBANG JAYA,SELANGOR,,
D,31,6,MAIN PLACE RESIDENCE,,JALAN USJ 21/10,USJ 21,47630,SUBANG JAYA,SELANGOR,,
A,17,9,MAIN PLACE MALL,,JALAN USJ 21/10,USJ 21,47630,SUBANG JAYA,SELANGOR,,
1A,,,MAIN PLACE MALL,,JALAN USJ 21/10,USJ 21,47630,SUBANG JAYA,SELANGOR,,
D,20,12A,MAIN PLACE RESIDENCE,,JALAN USJ 21/10,USJ 21,47630,SUBANG JAYA,SELANGOR,,
C,21,5,MAIN PLACE RESIDENCE,,JALAN USJ 21/10,USJ 21,47630,SUBANG JAYA,SELANGOR,,
,,,,57-G,JALAN USJ 21/10,USJ 21,47630,SUBANG JAYA,SELANGOR,,
,,,,35-1,JALAN USJ 21/10,USJ 21,47630,SUBANG JAYA,SELANGOR,,
C,,5,FAIRVILLE APARTMENT,5,JALAN USJ 22/1,USJ 22,47630,SUBANG JAYA,SELANGOR,,
C,2,3,FAIRVILLE APARTMENT,3,JALAN USJ 22/1,USJ 22,47630,SUBANG JAYA,SELANGOR,,
A,2,3,FAIRVILLE APARTMENT,3,JALAN USJ 22/1,USJ 22,47630,SUBANG JAYA,SELANGOR,,
,,,,2,JALAN USJ 22/1B,USJ 22,47630,SUBANG JAYA,SELANGOR,,
,,,,25,JALAN USJ 22/2,USJ 22,47630,SUBANG JAYA,SELANGOR,,
,,,,22,JALAN USJ 22/2C,USJ 22,47630,SUBANG JAYA,SELANGOR,,
,,,,23,JALAN USJ 22/2D,USJ 22,47630,SUBANG JAYA,SELANGOR,,
,,,,16,JALAN USJ 22/2D,USJ 22,47630,SUBANG JAYA,SELANGOR,,
,,,,23,JALAN USJ 22/2D,USJ 22,47630,SUBANG JAYA,SELANGOR,,
,,,,11,JALAN USJ 23/3,USJ 23,47630,SUBANG JAYA,SELANGOR,,
,,,,8,JALAN USJ 24/1B,USJ 24,47630,SUBANG JAYA,SELANGOR,,
,,,,10,JALAN USJ 24/1B,USJ 24,47630,SUBANG JAYA,SELANGOR,,
,,,,7,JALAN USJ 26/1,USJ 26,47630,SUBANG JAYA,SELANGOR,,
,,,,2,JALAN USJ 26/1B,USJ 26,47630,SUBANG JAYA,SELANGOR,,
,,,,5,JALAN USJ 26/3B,USJ 26,47630,SUBANG JAYA,SELANGOR,,
,,,,18,JALAN USJ 27/1A,USJ 27,47630,SUBANG JAYA,SELANGOR,,
,,,SKYPARK ONE CITY,,JALAN USJ 25/1B,USJ 25,47650,SUBANG JAYA,SELANGOR,,
,,,,3,JALAN PUTRA MAHKOTA 7/2J,PUTRA HEIGHTS,47650,SUBANG JAYA,SELANGOR,,
,,,,1,JALAN PUTRA MAHKOTA 7/2J,PUTRA HEIGHTS,47650,SUBANG JAYA,SELANGOR,,
,,,,,JALAN PUTRA MAHKOTA 7/3G,PUTRA HEIGHTS,47650,SUBANG JAYA,SELANGOR,,
C,5,"6,7,8",SKYPARK ONE CITY,,JALAN USJ 25/1B,USJ 25,47650,SUBANG JAYA,SELANGOR,,
E,2,2,GARDEN SHOPPE,2,JALAN USJ 25/1A,ONE CITY,47650,SUBANG JAYA,SELANGOR,,
E,2,2,GARDEN SHOPPE,2,JALAN USJ 25/1A,ONE CITY,47650,SUBANG JAYA,SELANGOR,,
T1,6,11,THE SQUARE @ ONE CITY,11,JALAN USJ 25/1C,ONE CITY,47650,SUBANG JAYA,SELANGOR,,
,,,,,JALAN PUTRA MAHKOTA 7/7A,PUTRA HEIGHTS,47650,SUBANG JAYA,SELANGOR,,
,,,,10-G,JALAN PUTRA MAHKOTA 7/5B,PUSAT BANDAR PUTRA POINT,47650,SUBANG JAYA,SELANGOR,,
,,21,,21,JALAN PUTRA MAHKOTA 7/6B,PUSAT BANDAR PUTRA POINT,47650,SUBANG JAYA,SELANGOR,,
,,,,2,JALAN PUTRA HARMONI 1/3,PUTRA AVENUE,47650,SUBANG JAYA,SELANGOR,,
,,,,19,JALAN PUTRA HARMONI 1/3C,PUTRA AVENUE,47650,SUBANG JAYA,SELANGOR,,
,,,,29,JALAN PUTRA SETIA 6/1L,PUTRA CREST,47650,SUBANG JAYA,SELANGOR,,
,,,,42A,JALAN PUTRA SETIA 6/1M,PUTRA CREST,47650,SUBANG JAYA,SELANGOR,,
,,,,,JALAN PUTRA SETIA 6/1U,PUTRA CREST,47650,SUBANG JAYA,SELANGOR,,
,,,,5,JALAN PUTRA BAHAGIA 8/2A,PUTRA HEIGHTS,47650,SUBANG JAYA,SELANGOR,,
,,,,22A,JALAN PUTRA BAHAGIA 8/2D,PUTRA HEIGHTS,47650,SUBANG JAYA,SELANGOR,,
,,,,28,JALAN PUTRA BAHAGIA 8/2E,PUTRA HEIGHTS,47650,SUBANG JAYA,SELANGOR,,
,,,,,JALAN PUTRA BAHAGIA 8/2M,PUTRA HEIGHTS,47650,SUBANG JAYA,SELANGOR,,
,,,,2A,JALAN PUTRA BAHAGIA 8/4A,PUTRA HEIGHTS,47650,SUBANG JAYA,SELANGOR,,
,,,,29,JALAN PUTRA BISTARI 2/1J,PUTRA HEIGHTS,47650,SUBANG JAYA,SELANGOR,,
,,,,1,JALAN PUTRA BISTARI 2/1S,PUTRA HEIGHTS,47650,SUBANG JAYA,SELANGOR,,
,,,,16,JALAN PUTRA HARMONI 1/4D,PUTRA CREST,47650,SUBANG JAYA,SELANGOR,,
,,,,10,JALAN PUTRA HARMONI 1/4D,PUTRA CREST,47650,SUBANG JAYA,SELANGOR,,
,,,,10,JALAN PUTRA HARMONI 1/4F,PUTRA CREST,47650,SUBANG JAYA,SELANGOR,,
,,,,12,JALAN PUTRA HARMONI 1/4F,PUTRA CREST,47650,SUBANG JAYA,SELANGOR,,
,,,,3,JALAN PUTRA SETIA 6/1A,PUTRA CREST,47650,SUBANG JAYA,SELANGOR,,
,,,,42A,JALAN PUTRA SETIA 6/1B,PUTRA CREST,47650,SUBANG JAYA,SELANGOR,,
,,,,22,JALAN PUTRA SETIA 6/1D,PUTRA CREST,47650,SUBANG JAYA,SELANGOR,,
,,,,22,JALAN PUTRA SETIA 6/1E,PUTRA CREST,47650,SUBANG JAYA,SELANGOR,,
,,,,52,JALAN PUTRA SETIA 6/1E,PUTRA CREST,47650,SUBANG JAYA,SELANGOR,,
,,,,7,JALAN PUTRA SETIA 6/1H,PUTRA CREST,47650,SUBANG JAYA,SELANGOR,,
,,,,51,JALAN PUTRA SETIA 6/1K,PUTRA CREST,47650,SUBANG JAYA,SELANGOR,,
,,,,53,JALAN PUTRA SETIA 6/1L,PUTRA CREST,47650,SUBANG JAYA,SELANGOR,,
,,,,27,JALAN PUTRA SETIA 6/1L,PUTRA CREST,47650,SUBANG JAYA,SELANGOR,,
,,,,48,JALAN PUTRA SETIA 6/1M,PUTRA CREST,47650,SUBANG JAYA,SELANGOR,,
,,,,30,JALAN PUTRA SETIA 6/1M,PUTRA CREST,47650,SUBANG JAYA,SELANGOR,,
,,,,2A,JALAN PUTRA SETIA 6/1M,PUTRA CREST,47650,SUBANG JAYA,SELANGOR,,
,,,,2,JALAN PUTRA SETIA 6/1M,PUTRA CREST,47650,SUBANG JAYA,SELANGOR,,
,,,,2A,JALAN PUTRA BAHAGIA 8/1C,PUTRA HEIGHTS,47650,SUBANG JAYA,SELANGOR,,
,,,,37,JALAN PUTRA BAHAGIA 8/1H,PUTRA HEIGHTS,47650,SUBANG JAYA,SELANGOR,,
,,,,22,JALAN PUTRA BAHAGIA 8/2M,PUTRA HEIGHTS,47650,SUBANG JAYA,SELANGOR,,
,,,,18,JALAN PUTRA BAHAGIA 8/3B,PUTRA HEIGHTS,47650,SUBANG JAYA,SELANGOR,,
,,,,1,JALAN PUTRA BAHAGIA 8/3F,PUTRA HEIGHTS,47650,SUBANG JAYA,SELANGOR,,
,,,,8,JALAN PUTRA BAHAGIA 8/3F,PUTRA HEIGHTS,47650,SUBANG JAYA,SELANGOR,,
,,,,37,JALAN PUTRA BAHAGIA 8/3F,PUTRA HEIGHTS,47650,SUBANG JAYA,SELANGOR,,
,,,,1,JALAN PUTRA BAHAGIA 8/3H,PUTRA HEIGHTS,47650,SUBANG JAYA,SELANGOR,,
,,,,27,JALAN PUTRA BAHAGIA 8/3H,PUTRA HEIGHTS,47650,SUBANG JAYA,SELANGOR,,
,,,,19,JALAN PUTRA BAHAGIA 8/3J,PUTRA HEIGHTS,47650,SUBANG JAYA,SELANGOR,,
,,,,9,JALAN PUTRA BAHAGIA 8/3J,PUTRA HEIGHTS,47650,SUBANG JAYA,SELANGOR,,
,,,,22,JALAN PUTRA BAHAGIA 8/3P,PUTRA HEIGHTS,47650,SUBANG JAYA,SELANGOR,,
,,,,26,JALAN PUTRA BAHAGIA 8/3P,PUTRA HEIGHTS,47650,SUBANG JAYA,SELANGOR,,
,,,,12A,JALAN PUTRA BAHAGIA 8/4A,PUTRA HEIGHTS,47650,SUBANG JAYA,SELANGOR,,
,,,,16,JALAN PUTRA BAHAGIA 8/4A,PUTRA HEIGHTS,47650,SUBANG JAYA,SELANGOR,,
,,,,10,JALAN PUTRA BAHAGIA 8/4B,PUTRA HEIGHTS,47650,SUBANG JAYA,SELANGOR,,
,,,,11,JALAN PUTRA BAHAGIA 8/4D,PUTRA HEIGHTS,47650,SUBANG JAYA,SELANGOR,,
,,,,26,JALAN PUTRA BAHAGIA 8/4F,PUTRA HEIGHTS,47650,SUBANG JAYA,SELANGOR,,
,,,,11,JALAN PUTRA BAHAGIA 8/4L,PUTRA HEIGHTS,47650,SUBANG JAYA,SELANGOR,,
,,,,16,JALAN PUTRA BAHAGIA 8/4M,PUTRA HEIGHTS,47650,SUBANG JAYA,SELANGOR,,
,,,,,JALAN PUTRA BAHAGIA 8/4N,PUTRA BAHAGIA,47650,SUBANG JAYA,SELANGOR,,
,,,,7,JALAN PUTRA BISTARI 2/1B,PUTRA HEIGHTS,47650,SUBANG JAYA,SELANGOR,,
,,,,9,JALAN PUTRA BISTARI 2/1E,PUTRA HEIGHTS,47650,SUBANG JAYA,SELANGOR,,
,,,,3,JALAN PUTRA BISTARI 2/1H,PUTRA HEIGHTS,47650,SUBANG JAYA,SELANGOR,,
,,,,31,JALAN PUTRA BISTARI 2/1J,PUTRA HEIGHTS,47650,SUBANG JAYA,SELANGOR,,
,,,,37,JALAN PUTRA BISTARI 2/1J,PUTRA HEIGHTS,47650,SUBANG JAYA,SELANGOR,,
,,,,,JALAN PUTRA BISTARI 2/1L,PUTRA BESTARI,47650,SUBANG JAYA,SELANGOR,,
,,,,11,JALAN PUTRA BISTARI 2/1M,PUTRA HEIGHTS,47650,SUBANG JAYA,SELANGOR,,
,,,,27,JALAN PUTRA BISTARI 2/1N,PUTRA HEIGHTS,47650,SUBANG JAYA,SELANGOR,,
,,,,6,JALAN PUTRA BISTARI 2/1T,PUTRA HEIGHTS,47650,SUBANG JAYA,SELANGOR,,
,,,,23,JALAN PUTRA BISTARI 2/1T,PUTRA HEIGHTS,47650,SUBANG JAYA,SELANGOR,,
,,,,15,JALAN PUTRA BISTARI 2/1U,PUTRA HEIGHTS,47650,SUBANG JAYA,SELANGOR,,
,,,,10,JALAN PUTRA BISTARI 2/1U,PUTRA HEIGHTS,47650,SUBANG JAYA,SELANGOR,,
,,,,22,JALAN PUTRA BISTARI 2/2A,PUTRA HEIGHTS,47650,SUBANG JAYA,SELANGOR,,
,,,,39,JALAN PUTRA BISTARI 2/2B,PUTRA HEIGHTS,47650,SUBANG JAYA,SELANGOR,,
,,,,12,JALAN PUTRA BISTARI 2/2B,PUTRA HEIGHTS,47650,SUBANG JAYA,SELANGOR,,
,,,,29,JALAN PUTRA BISTARI 2/3A,PUTRA HEIGHTS,47650,SUBANG JAYA,SELANGOR,,
,,,,37,JALAN PUTRA BISTARI 2/3A,PUTRA HEIGHTS,47650,SUBANG JAYA,SELANGOR,,
,,,,3,JALAN 2/3A PUTRA BISTARI,PUTRA HEIGHTS,47630,SUBANG JAYA,SELANGOR,,
,,,,31,JALAN 2/3A PUTRA BISTARI,PUTRA HEIGHTS,47650,SUBANG JAYA,SELANGOR,,
,,,,12,JALAN PUTRA BISTARI 2/3D,PUTRA HEIGHTS,47650,SUBANG JAYA,SELANGOR,,
,,,,18,JALAN PUTRA BISTARI 2/4B,PUTRA HEIGHTS,47650,SUBANG JAYA,SELANGOR,,
,,,,35,JALAN 2/4B PUTRA BISTARI,PUTRA HEIGHTS,47650,SUBANG JAYA,SELANGOR,,
,,,,21,JALAN PUTRA BISTARI 2/4C,PUTRA HEIGHTS,47650,SUBANG JAYA,SELANGOR,,
,,,,25,JALAN PUTRA BISTARI 2/4D,PUTRA HEIGHTS,47650,SUBANG JAYA,SELANGOR,,
,,,,31,JALAN PUTRA BISTARI 2/5C,PUTRA HEIGHTS,47650,SUBANG JAYA,SELANGOR,,
,,,,3,JALAN PUTRA BISTARI 2/5E,PUTRA HEIGHTS,47650,SUBANG JAYA,SELANGOR,,
,,,,12A,JALAN PUTRA BISTARI 2/5J,PUTRA HEIGHTS,47650,SUBANG JAYA,SELANGOR,,
,,,,41,JALAN PUTRA BISTARI 2/5J,PUTRA HEIGHTS,47650,SUBANG JAYA,SELANGOR,,
,,,,5,JALAN PUTRA BISTARI 2/5K,PUTRA HEIGHTS,47650,SUBANG JAYA,SELANGOR,,
,,,,20,JALAN PUTRA BISTARI 2/5K,PUTRA HEIGHTS,47650,SUBANG JAYA,SELANGOR,,
,,,,35,JALAN PUTRA INDAH 9/13,PUTRA HEIGHTS,47650,SUBANG JAYA,SELANGOR,,
,,,,2A,JALAN PUTRA INDAH 9/14,PUTRA HEIGHTS,47650,SUBANG JAYA,SELANGOR,,
,,,,32,JALAN PUTRA INDAH 9/14,PUTRA HEIGHTS,47650,SUBANG JAYA,SELANGOR,,
,,,,8,JALAN PUTRA INDAH 9/15,PUTRA HEIGHTS,47650,SUBANG JAYA,SELANGOR,,
,,,,35,JALAN PUTRA INDAH 9/15,PUTRA HEIGHTS,47650,SUBANG JAYA,SELANGOR,,
,,,,25,JALAN PUTRA INDAH 9/17,PUTRA HEIGHTS,47650,SUBANG JAYA,SELANGOR,,
,,,,9,JALAN PUTRA INDAH 9/19,PUTRA HEIGHTS,47650,SUBANG JAYA,SELANGOR,,
C,5,6,PANGSAPURI SRI MUTIARA,,JALAN PUTRA INDAH 9/1C,PUTRA HEIGHTS,47650,SUBANG JAYA,SELANGOR,,
,,,PANGSAPURI SRI MUTIARA,,JALAN PUTRA INDAH 9/1C,PUTRA HEIGHTS,47650,SUBANG JAYA,SELANGOR,,
,,,PANGSAPURI SRI MUTIARA,,JALAN PUTRA INDAH 9/1C,PUTRA HEIGHTS,47650,SUBANG JAYA,SELANGOR,,
B,,,PANGSAPURI SRI MUTIARA,,JALAN PUTRA INDAH 9/1C,PUTRA HEIGHTS,47650,SUBANG JAYA,SELANGOR,,
C,6,22,PANGSAPURI SRI MUTIARA,,JALAN PUTRA INDAH 9/1C,PUTRA HEIGHTS,47650,SUBANG JAYA,SELANGOR,,
B,,,PANGSAPURI SRI MUTIARA,,JALAN PUTRA INDAH 9/1C,PUTRA HEIGHTS,47650,SUBANG JAYA,SELANGOR,,
,G,,,,JALAN PUTRA INDAH 9/1D,PUTRA HEIGHTS,47650,SUBANG JAYA,SELANGOR,,
,,,,68,JALAN PUTRA INDAH 9/2,PUTRA HEIGHTS,47650,SUBANG JAYA,SELANGOR,,
,,,,16,JALAN PUTRA INDAH 9/2,PUTRA HEIGHTS,47650,SUBANG JAYA,SELANGOR,,
,,,,15,JALAN PUTRA INDAH 9/22,PUTRA HEIGHTS,47650,SUBANG JAYA,SELANGOR,,
,,,,50,JALAN PUTRA INDAH 9/26,PUTRA HEIGHTS,47650,SUBANG JAYA,SELANGOR,,
,,,,8,JALAN PUTRA INDAH 9/29,PUTRA HEIGHTS,47650,SUBANG JAYA,SELANGOR,,
,,,,72A,JALAN PUTRA INDAH 9/7,PUTRA HEIGHTS,47650,SUBANG JAYA,SELANGOR,,
,,,,38,JALAN PUTRA INDAH 9/8,PUTRA HEIGHTS,47650,SUBANG JAYA,SELANGOR,,
,,,,26,JALAN PUTRA INDAH 9/8,PUTRA HEIGHTS,47650,SUBANG JAYA,SELANGOR,,
,,,,12A,JALAN PUTRA INDAH 9/8,PUTRA HEIGHTS,47650,SUBANG JAYA,SELANGOR,,
,,,,11A,JALAN PUTRA MAHKOTA 7/2C,PUTRA HEIGHTS,47650,SUBANG JAYA,SELANGOR,,
,,,,1,JALAN PUTRA MAHKOTA 7/2C,PUTRA HEIGHTS,47650,SUBANG JAYA,SELANGOR,,
,,,,15,JALAN PUTRA MAHKOTA 7/2D,PUTRA HEIGHTS,47650,SUBANG JAYA,SELANGOR,,
,,,,32A,JALAN PUTRA MAHKOTA 7/2D,PUTRA HEIGHTS,47650,SUBANG JAYA,SELANGOR,,
,,,,3,JALAN PUTRA MAHKOTA 7/2F,PUTRA HEIGHTS,47650,SUBANG JAYA,SELANGOR,,
,,,,2,JALAN PUTRA MAHKOTA 7/2H,PUTRA HEIGHTS,47650,SUBANG JAYA,SELANGOR,,
,,,,33,JALAN PUTRA MAHKOTA 7/2H,PUTRA HEIGHTS,47650,SUBANG JAYA,SELANGOR,,
,,,,25,JALAN PUTRA MAHKOTA 7/2J,PUTRA HEIGHTS,47650,SUBANG JAYA,SELANGOR,,
,,,,32A,JALAN PUTRA MAHKOTA 7/3A,PUTRA HEIGHTS,47650,SUBANG JAYA,SELANGOR,,
,,,,8,JALAN PUTRA MAHKOTA 7/3B,PUTRA HEIGHTS,47650,SUBANG JAYA,SELANGOR,,
,,,,32A,JALAN PUTRA MAHKOTA 7/3F,PUTRA HEIGHTS,47650,SUBANG JAYA,SELANGOR,,
,,,,36,JALAN PUTRA MAHKOTA 7/3F,PUTRA HEIGHTS,47650,SUBANG JAYA,SELANGOR,,
,,,,16,JALAN PUTRA MAHKOTA 7/3G,PUTRA HEIGHTS,47650,SUBANG JAYA,SELANGOR,,
,,,,23,JALAN PUTRA MAHKOTA 7/3J,PUTRA HEIGHTS,47650,SUBANG JAYA,SELANGOR,,
,,,,40,JALAN PUTRA MURNI 3/1C,PUTRA HEIGHTS,47650,SUBANG JAYA,SELANGOR,,
,,,,1,JALAN PUTRA MURNI 3/1D,PUTRA HEIGHTS,47650,SUBANG JAYA,SELANGOR,,
,,,,11,JALAN PUTRA MURNI 3/1D,PUTRA HEIGHTS,47650,SUBANG JAYA,SELANGOR,,
,,,,28,JALAN PUTRA MURNI 3/2C,PUTRA HEIGHTS,47650,SUBANG JAYA,SELANGOR,,
,,,,22,JALAN PUTRA MURNI 3/2C,PUTRA HEIGHTS,47650,SUBANG JAYA,SELANGOR,,
,,,,12,JALAN PUTRA MURNI 3/2D,PUTRA HEIGHTS,47650,SUBANG JAYA,SELANGOR,,
,,,,26,JALAN PUTRA MURNI 3/2D,PUTRA HEIGHTS,47650,SUBANG JAYA,SELANGOR,,
,,,,2,JALAN PUTRA MURNI 3/2D,PUTRA HEIGHTS,47650,SUBANG JAYA,SELANGOR,,
,,,,35,JALAN PUTRA MURNI 3/3A,PUTRA PALMS,47650,SUBANG JAYA,SELANGOR,,
,,,,16,JALAN PUTRA PERMAI 10/1H,PUTRA HEIGHTS,47650,SUBANG JAYA,SELANGOR,,
,,,,9,JALAN PUTRA PERMAI 10/1H,PUTRA HEIGHTS,47650,SUBANG JAYA,SELANGOR,,
,,,,9,JALAN PUTRA PERMAI 10/1M,PUTRA HEIGHTS,47650,SUBANG JAYA,SELANGOR,,
,,,,73,JALAN PUTRA PERMAI 10/1N,PUTRA HEIGHTS,47650,SUBANG JAYA,SELANGOR,,
,,,,32,JALAN PUTRA PERMAI 10/1P,PUTRA HEIGHTS,47650,SUBANG JAYA,SELANGOR,,
,,,,30,JALAN PUTRA PERMAI 10/1Q,PUTRA HEIGHTS,47650,SUBANG JAYA,SELANGOR,,
,,,,8,JALAN PUTRA PERMAI 10/1R,PUTRA HEIGHTS,47650,SUBANG JAYA,SELANGOR,,
,,,,19,JALAN PUTRA PERMAI 10/1S,PUTRA HEIGHTS,47650,SUBANG JAYA,SELANGOR,,
,,,,17,JALAN PUTRA PERMAI 10/1T,PUTRA HEIGHTS,47650,SUBANG JAYA,SELANGOR,,
,,,,46,JALAN PUTRA PERMAI 10/1T,PUTRA HEIGHTS,47650,SUBANG JAYA,SELANGOR,,
,,,,32,JALAN PUTRA PERMAI 10/1T,PUTRA HEIGHTS,47650,SUBANG JAYA,SELANGOR,,
,,,,37,JALAN PUTRA PERMAI 10/2B,PUTRA HEIGHTS,47650,SUBANG JAYA,SELANGOR,,
,,,,21,JALAN PUTRA PERMAI 10/2B,PUTRA HEIGHTS,47650,SUBANG JAYA,SELANGOR,,
,,,,37,JALAN PUTRA PERMAI 10/2C,PUTRA HEIGHTS,47650,SUBANG JAYA,SELANGOR,,
,,,,48,JALAN PUTRA PERMAI 10/2C,PUTRA HEIGHTS,47650,SUBANG JAYA,SELANGOR,,
,,,,33,JALAN PUTRA PERMAI 10/2D,PUTRA HEIGHTS,47650,SUBANG JAYA,SELANGOR,,
,,,,29,JALAN PUTRA PERMAI 10/2F,PUTRA HEIGHTS,47650,SUBANG JAYA,SELANGOR,,
,,,,26,JALAN PUTRA PERMAI 10/2G,PUTRA HEIGHTS,47650,SUBANG JAYA,SELANGOR,,
,,,,31,JALAN PUTRA PERMAI 10/2H,PUTRA HEIGHTS,47650,SUBANG JAYA,SELANGOR,,
,,,,45,JALAN PUTRA PERMAI 10/2J,PUTRA HEIGHTS,47650,SUBANG JAYA,SELANGOR,,
,,,,5,JALAN PUTRA PERMAI 10/3C,PUTRA HEIGHTS,47650,SUBANG JAYA,SELANGOR,,
,,,,49,JALAN PUTRA PERMAI 10/3C,PUTRA HEIGHTS,47650,SUBANG JAYA,SELANGOR,,
,,,,61,JALAN PUTRA PERMAI 10/3C,PUTRA HEIGHTS,47650,SUBANG JAYA,SELANGOR,,
,,,,16,JALAN PUTRA PERMAI 10/3C,PUTRA HEIGHTS,47650,SUBANG JAYA,SELANGOR,,
,,,,12A,JALAN PUTRA PERMAI 10/3G,PUTRA HEIGHTS,47650,SUBANG JAYA,SELANGOR,,
,,,,32A,JALAN PUTRA PERMAI 10/4A,PUTRA HEIGHTS,47650,SUBANG JAYA,SELANGOR,,
,,,,65,JALAN PUTRA PERMAI 10/4A,PUTRA HEIGHTS,47650,SUBANG JAYA,SELANGOR,,
,,,,38,JALAN PUTRA PERMAI 10/4A,PUTRA HEIGHTS,47650,SUBANG JAYA,SELANGOR,,
,,,,35,JALAN PUTRA PERMAI 10/4B,PUTRA HEIGHTS,47650,SUBANG JAYA,SELANGOR,,
,,,,11,JALAN PUTRA PERMAI 10/4D,PUTRA HEIGHTS,47650,SUBANG JAYA,SELANGOR,,
,,,,30,JALAN PUTRA PERMAI 10/4G,PUTRA HEIGHTS,47650,SUBANG JAYA,SELANGOR,,
,,,,21,JALAN PUTRA PERMAI 10/4G,PUTRA HEIGHTS,47650,SUBANG JAYA,SELANGOR,,
,,,,25,JALAN PUTRA SETIA 6/1D,PUTRA CREST,47650,SUBANG JAYA,SELANGOR,,
,,,,41,JALAN PUTRA SETIA 6/1K,PUTRA CREST,47650,SUBANG JAYA,SELANGOR,,
C,7,2,PANGSAPURI SRI MUTIARA,,JALAN PUTRA INDAH 9/1C,PUTRA HEIGHTS,47650,SUBANG JAYA,SELANGOR,,
,,,,49,,PUTRA HEIGHTS,47650,SUBANG JAYA,SELANGOR,,
,,,,21,JALAN PUTRA INDAH 9/27,PUTRA HEIGHTS,47650,SUBANG JAYA,SELANGOR,,
,,,,77,JALAN PUTRA INDAH 9/8,PUTRA HEIGHTS,47650,SUBANG JAYA,SELANGOR,,
,,,,11,JALAN PUTRA MURNI 3/3C,PUTRA PALMS,47650,SUBANG JAYA,SELANGOR,,
,,,,2,JALAN PUTRA MAHKOTA 7/6A,PUTRA HEIGHTS,47650,SUBANG JAYA,SELANGOR,,
,,,"THE FOODIES CAFE, SUBANG",17G,JALAN PUTRA MAHKOTA 7/6B,PUTRA HEIGHTS,47650,SUBANG JAYA,SELANGOR,,
,G,27,,,JALAN PUTRA MAHKOTA 7/6C,PUTRA HEIGHTS,47650,SUBANG JAYA,SELANGOR,,
C,,,PANGSAPURI SRI MUTIARA,,JALAN PUTRA INDAH 9/1C,PUTRA HEIGHTS,47650,SUBANG JAYA,SELANGOR,,
B,3,26,PANGSAPURI SRI MUTIARA,,JALAN PUTRA INDAH 9/1C,PUTRA HEIGHTS,47650,SUBANG JAYA,SELANGOR,,
C,6,26,PANGSAPURI SRI MUTIARA,,JALAN PUTRA INDAH 9/1C,PUTRA HEIGHTS,47650,SUBANG JAYA,SELANGOR,,
B,2,28,PANGSAPURI SRI MUTIARA,,JALAN PUTRA INDAH 9/1C,PUTRA HEIGHTS,47650,SUBANG JAYA,SELANGOR,,
A,7,3,PANGSAPURI SRI MUTIARA,,JALAN PUTRA INDAH 9/1C,PUTRA HEIGHTS,47650,SUBANG JAYA,SELANGOR,,
C,2,6,PANGSAPURI SRI MUTIARA,,JALAN PUTRA INDAH 9/1C,PUTRA HEIGHTS,47650,SUBANG JAYA,SELANGOR,,
A,,,PANGSAPURI SRI MUTIARA,,JALAN PUTRA INDAH 9/1C,PUTRA HEIGHTS,47650,SUBANG JAYA,SELANGOR,,
B,2,15,PANGSAPURI SRI MUTIARA,,JALAN PUTRA INDAH 9/1C,PUTRA HEIGHTS,47650,SUBANG JAYA,SELANGOR,,
D,8,10,PANGSAPURI SRI MUTIARA,,JALAN PUTRA INDAH 9/1C,PUTRA HEIGHTS,47650,SUBANG JAYA,SELANGOR,,
B,,,PANGSAPURI SRI MUTIARA,,JALAN PUTRA INDAH 9/1C,PUTRA HEIGHTS,47650,SUBANG JAYA,SELANGOR,,
C,6,11,PANGSAPURI SRI MUTIARA,,JALAN PUTRA INDAH 9/1C,PUTRA HEIGHTS,47650,SUBANG JAYA,SELANGOR,,
,9,,MCT TOWER,,JALAN USJ 25/1,ONE CITY,47650,SUBANG JAYA,SELANGOR,,
B,5,11,STARVILLE,,JALAN USJ 19/6,USJ 19,47630,SUBANG JAYA,SELANGOR,,
,,,,11,JALAN GELENGGANG,USJ TANAMERA,47650,SUBANG JAYA,SELANGOR,,
,,,,12,JALAN JARAK,USJ TANAMERA,47650,SUBANG JAYA,SELANGOR,,
,,,,5,JALAN JARAK,USJ TANAMERA,47650,SUBANG JAYA,SELANGOR,,
,,,,22,JALAN JARAK,USJ TANAMERA,47650,SUBANG JAYA,SELANGOR,,
,,,,39,JALAN MEMPOYAN,USJ TANAMERA,47650,SUBANG JAYA,SELANGOR,,
,,,SUBANG PERDANA GOODYEAR COURT 6,,PERSIARAN KEWAJIPAN USJ,USJ 8,47610,SUBANG JAYA,SELANGOR,,
,,JKR 1543,KUARTERS POLIS,,,KAMPUNG MELAYU SUBANG,47200,SUBANG JAYA,SELANGOR,,
,,,,1,JALAN PJS 11/28B,BANDAR SUNWAY,47500,SUBANG JAYA,SELANGOR,,
,,,,56,JALAN SS 15/5C,SS 15 SUBANG JAYA,47500,SUBANG JAYA,SELANGOR,,
,,,,133,JALAN SS 18/1C,SS 18 SUBANG JAYA,47500,SUBANG JAYA,SELANGOR,,
,,,,95-97,JALAN SS 15/4B,SS 15 SUBANG JAYA,47500,SUBANG JAYA,SELANGOR,,
,,,,51G,JALAN TS 6/10A,TAMAN SUBANG PERMAI,47500,SUBANG JAYA,SELANGOR,,
,,,,2092,PERSIARAN TUJUAN,SS 18 SUBANG JAYA,47500,SUBANG JAYA,SELANGOR,,
,,,,26,JALAN USJ 2/4B,USJ 2,47600,SUBANG JAYA,SELANGOR,,
,,,,69,JALAN USJ 3/1G,USJ 3,47600,SUBANG JAYA,SELANGOR,,
,,,RHYTHM AVENUE,,PERSIARAN KEWAJIPAN,USJ 19,47630,SUBANG JAYA,SELANGOR,,